,Longitude (x),Latitude (y),Station Name,Climate ID,Date/Time (LST),Year,Month,Day,Time (LST),Temp (°C),Dew Point Temp (°C),Rel Hum (%),Wind Spd (km/h),Visibility (km),Stn Press (kPa),Weather
0,-73.75,45.47,MONTREAL/PIERRE ELLIOTT TRUDEAU INTL A,7025250,2012-12-01 00:00,2012,12,1,00:00,-10.8,-16.2,64,9,25.0,103.26,Clear
1,-73.75,45.47,MONTREAL/PIERRE ELLIOTT TRUDEAU INTL A,7025250,2012-12-01 01:00,2012,12,1,01:00,-11.0,-16.5,64,13,25.0,103.25,Mainly Clear
2,-73.75,45.47,MONTREAL/PIERRE ELLIOTT TRUDEAU INTL A,7025250,2012-12-01 02:00,2012,12,1,02:00,-11.1,-16.5,64,20,25.0,103.21,Mainly Clear
3,-73.75,45.47,MONTREAL/PIERRE ELLIOTT TRUDEAU INTL A,7025250,2012-12-01 03:00,2012,12,1,03:00,-12.5,-15.7,77,15,25.0,103.27,Mainly Clear
4,-73.75,45.47,MONTREAL/PIERRE ELLIOTT TRUDEAU INTL A,7025250,2012-12-01 04:00,2012,12,1,04:00,-11.8,-15.1,76,17,25.0,103.22,Mostly Cloudy
5,-73.75,45.47,MONTREAL/PIERRE ELLIOTT TRUDEAU INTL A,7025250,2012-12-01 05:00,2012,12,1,05:00,-11.9,-14.6,80,20,25.0,103.19,Mostly Cloudy
6,-73.75,45.47,MONTREAL/PIERRE ELLIOTT TRUDEAU INTL A,7025250,2012-12-01 06:00,2012,12,1,06:00,-11.8,-15.0,77,26,25.0,103.18,Mostly Cloudy
7,-73.75,45.47,MONTREAL/PIERRE ELLIOTT TRUDEAU INTL A,7025250,2012-12-01 07:00,2012,12,1,07:00,-11.3,-14.2,79,24,24.1,103.19,Cloudy
8,-73.75,45.47,MONTREAL/PIERRE ELLIOTT TRUDEAU INTL A,7025250,2012-12-01 08:00,2012,12,1,08:00,-10.9,-15.3,70,19,24.1,103.23,Mostly Cloudy
9,-73.75,45.47,MONTREAL/PIERRE ELLIOTT TRUDEAU INTL A,7025250,2012-12-01 09:00,2012,12,1,09:00,-10.6,-15.9,65,24,24.1,103.18,Cloudy
10,-73.75,45.47,MONTREAL/PIERRE ELLIOTT TRUDEAU INTL A,7025250,2012-12-01 10:00,2012,12,1,10:00,-10.9,-15.7,68,24,24.1,103.18,Cloudy
11,-73.75,45.47,MONTREAL/PIERRE ELLIOTT TRUDEAU INTL A,7025250,2012-12-01 11:00,2012,12,1,11:00,-10.3,-15.1,68,20,24.1,103.08,Cloudy
12,-73.75,45.47,MONTREAL/PIERRE ELLIOTT TRUDEAU INTL A,7025250,2012-12-01 12:00,2012,12,1,12:00,-9.4,-14.6,66,24,24.1,102.97,Cloudy
13,-73.75,45.47,MONTREAL/PIERRE ELLIOTT TRUDEAU INTL A,7025250,2012-12-01 13:00,2012,12,1,13:00,-8.9,-14.6,63,22,24.1,102.9,Cloudy
14,-73.75,45.47,MONTREAL/PIERRE ELLIOTT TRUDEAU INTL A,7025250,2012-12-01 14:00,2012,12,1,14:00,-8.3,-13.6,66,22,24.1,102.86,Cloudy
15,-73.75,45.47,MONTREAL/PIERRE ELLIOTT TRUDEAU INTL A,7025250,2012-12-01 15:00,2012,12,1,15:00,-8.3,-13.5,66,17,24.1,102.84,Cloudy
16,-73.75,45.47,MONTREAL/PIERRE ELLIOTT TRUDEAU INTL A,7025250,2012-12-01 16:00,2012,12,1,16:00,-7.9,-12.4,70,20,24.1,102.82,Cloudy
17,-73.75,45.47,MONTREAL/PIERRE ELLIOTT TRUDEAU INTL A,7025250,2012-12-01 17:00,2012,12,1,17:00,-7.5,-12.0,70,20,19.3,102.73,Snow
18,-73.75,45.47,MONTREAL/PIERRE ELLIOTT TRUDEAU INTL A,7025250,2012-12-01 18:00,2012,12,1,18:00,-6.9,-11.3,71,19,25.0,102.71,Snow
19,-73.75,45.47,MONTREAL/PIERRE ELLIOTT TRUDEAU INTL A,7025250,2012-12-01 19:00,2012,12,1,19:00,-6.6,-10.8,72,17,25.0,102.63,Cloudy
20,-73.75,45.47,MONTREAL/PIERRE ELLIOTT TRUDEAU INTL A,7025250,2012-12-01 20:00,2012,12,1,20:00,-6.0,-10.0,73,17,25.0,102.55,Cloudy
21,-73.75,45.47,MONTREAL/PIERRE ELLIOTT TRUDEAU INTL A,7025250,2012-12-01 21:00,2012,12,1,21:00,-5.9,-9.6,75,17,25.0,102.49,Cloudy
22,-73.75,45.47,MONTREAL/PIERRE ELLIOTT TRUDEAU INTL A,7025250,2012-12-01 22:00,2012,12,1,22:00,-4.8,-8.4,76,13,19.3,102.36,Snow
23,-73.75,45.47,MONTREAL/PIERRE ELLIOTT TRUDEAU INTL A,7025250,2012-12-01 23:00,2012,12,1,23:00,-4.7,-8.0,78,19,16.1,102.28,Cloudy
24,-73.75,45.47,MONTREAL/PIERRE ELLIOTT TRUDEAU INTL A,7025250,2012-12-02 00:00,2012,12,2,00:00,-4.3,-7.3,80,15,24.1,102.18,Cloudy
25,-73.75,45.47,MONTREAL/PIERRE ELLIOTT TRUDEAU INTL A,7025250,2012-12-02 01:00,2012,12,2,01:00,-4.2,-6.8,82,15,24.1,102.11,Cloudy
26,-73.75,45.47,MONTREAL/PIERRE ELLIOTT TRUDEAU INTL A,7025250,2012-12-02 02:00,2012,12,2,02:00,-3.9,-6.5,82,15,25.0,102.06,Cloudy
27,-73.75,45.47,MONTREAL/PIERRE ELLIOTT TRUDEAU INTL A,7025250,2012-12-02 03:00,2012,12,2,03:00,-3.5,-5.8,84,13,25.0,102.02,Snow
28,-73.75,45.47,MONTREAL/PIERRE ELLIOTT TRUDEAU INTL A,7025250,2012-12-02 04:00,2012,12,2,04:00,-3.2,-5.3,85,13,25.0,101.86,Cloudy
29,-73.75,45.47,MONTREAL/PIERRE ELLIOTT TRUDEAU INTL A,7025250,2012-12-02 05:00,2012,12,2,05:00,-2.7,-5.1,84,11,25.0,101.75,Cloudy
30,-73.75,45.47,MONTREAL/PIERRE ELLIOTT TRUDEAU INTL A,7025250,2012-12-02 06:00,2012,12,2,06:00,-1.9,-4.0,86,9,25.0,101.67,Cloudy
31,-73.75,45.47,MONTREAL/PIERRE ELLIOTT TRUDEAU INTL A,7025250,2012-12-02 07:00,2012,12,2,07:00,-0.3,-2.3,86,6,25.0,101.58,Cloudy
32,-73.75,45.47,MONTREAL/PIERRE ELLIOTT TRUDEAU INTL A,7025250,2012-12-02 08:00,2012,12,2,08:00,4.7,2.4,85,28,25.0,101.46,Cloudy
33,-73.75,45.47,MONTREAL/PIERRE ELLIOTT TRUDEAU INTL A,7025250,2012-12-02 09:00,2012,12,2,09:00,5.1,2.6,84,32,24.1,101.34,Cloudy
34,-73.75,45.47,MONTREAL/PIERRE ELLIOTT TRUDEAU INTL A,7025250,2012-12-02 10:00,2012,12,2,10:00,5.7,3.0,83,28,19.3,101.27,Cloudy
35,-73.75,45.47,MONTREAL/PIERRE ELLIOTT TRUDEAU INTL A,7025250,2012-12-02 11:00,2012,12,2,11:00,6.2,3.2,81,28,24.1,101.16,Cloudy
36,-73.75,45.47,MONTREAL/PIERRE ELLIOTT TRUDEAU INTL A,7025250,2012-12-02 12:00,2012,12,2,12:00,6.6,3.3,79,28,24.1,101.0,Rain Showers
37,-73.75,45.47,MONTREAL/PIERRE ELLIOTT TRUDEAU INTL A,7025250,2012-12-02 13:00,2012,12,2,13:00,6.2,4.3,88,19,12.9,100.89,Rain
38,-73.75,45.47,MONTREAL/PIERRE ELLIOTT TRUDEAU INTL A,7025250,2012-12-02 14:00,2012,12,2,14:00,6.0,4.5,90,19,9.7,100.82,"Rain,Fog"
39,-73.75,45.47,MONTREAL/PIERRE ELLIOTT TRUDEAU INTL A,7025250,2012-12-02 15:00,2012,12,2,15:00,5.6,4.9,95,22,4.8,100.75,"Rain,Fog"
40,-73.75,45.47,MONTREAL/PIERRE ELLIOTT TRUDEAU INTL A,7025250,2012-12-02 16:00,2012,12,2,16:00,5.5,4.9,96,20,6.4,100.68,"Rain,Fog"
41,-73.75,45.47,MONTREAL/PIERRE ELLIOTT TRUDEAU INTL A,7025250,2012-12-02 17:00,2012,12,2,17:00,5.5,5.0,97,17,6.4,100.65,"Rain,Fog"
42,-73.75,45.47,MONTREAL/PIERRE ELLIOTT TRUDEAU INTL A,7025250,2012-12-02 18:00,2012,12,2,18:00,5.8,5.6,99,15,4.8,100.65,"Rain,Fog"
43,-73.75,45.47,MONTREAL/PIERRE ELLIOTT TRUDEAU INTL A,7025250,2012-12-02 19:00,2012,12,2,19:00,5.9,5.9,100,15,3.6,100.67,"Drizzle,Fog"
44,-73.75,45.47,MONTREAL/PIERRE ELLIOTT TRUDEAU INTL A,7025250,2012-12-02 20:00,2012,12,2,20:00,6.6,6.5,99,13,3.2,100.68,"Drizzle,Fog"
45,-73.75,45.47,MONTREAL/PIERRE ELLIOTT TRUDEAU INTL A,7025250,2012-12-02 21:00,2012,12,2,21:00,6.7,6.6,99,11,8.0,100.7,Fog
46,-73.75,45.47,MONTREAL/PIERRE ELLIOTT TRUDEAU INTL A,7025250,2012-12-02 22:00,2012,12,2,22:00,7.1,6.9,99,15,8.0,100.71,"Drizzle,Fog"
47,-73.75,45.47,MONTREAL/PIERRE ELLIOTT TRUDEAU INTL A,7025250,2012-12-02 23:00,2012,12,2,23:00,8.2,7.7,97,19,8.0,100.72,"Drizzle,Fog"
48,-73.75,45.47,MONTREAL/PIERRE ELLIOTT TRUDEAU INTL A,7025250,2012-12-03 00:00,2012,12,3,00:00,8.1,7.5,96,15,9.7,100.78,"Drizzle,Fog"
49,-73.75,45.47,MONTREAL/PIERRE ELLIOTT TRUDEAU INTL A,7025250,2012-12-03 01:00,2012,12,3,01:00,7.8,6.8,93,22,12.9,100.85,Cloudy
50,-73.75,45.47,MONTREAL/PIERRE ELLIOTT TRUDEAU INTL A,7025250,2012-12-03 02:00,2012,12,3,02:00,6.8,5.3,90,28,25.0,100.99,Mostly Cloudy
51,-73.75,45.47,MONTREAL/PIERRE ELLIOTT TRUDEAU INTL A,7025250,2012-12-03 03:00,2012,12,3,03:00,5.5,2.9,83,26,25.0,101.22,Mostly Cloudy
52,-73.75,45.47,MONTREAL/PIERRE ELLIOTT TRUDEAU INTL A,7025250,2012-12-03 04:00,2012,12,3,04:00,4.1,1.6,84,13,25.0,101.35,Mostly Cloudy
53,-73.75,45.47,MONTREAL/PIERRE ELLIOTT TRUDEAU INTL A,7025250,2012-12-03 05:00,2012,12,3,05:00,3.2,0.6,83,13,25.0,101.48,Mostly Cloudy
54,-73.75,45.47,MONTREAL/PIERRE ELLIOTT TRUDEAU INTL A,7025250,2012-12-03 06:00,2012,12,3,06:00,1.8,-0.1,87,11,25.0,101.58,Clear
55,-73.75,45.47,MONTREAL/PIERRE ELLIOTT TRUDEAU INTL A,7025250,2012-12-03 07:00,2012,12,3,07:00,1.2,-0.6,88,9,25.0,101.7,Mainly Clear
56,-73.75,45.47,MONTREAL/PIERRE ELLIOTT TRUDEAU INTL A,7025250,2012-12-03 08:00,2012,12,3,08:00,2.2,0.0,85,11,24.1,101.78,Mainly Clear
57,-73.75,45.47,MONTREAL/PIERRE ELLIOTT TRUDEAU INTL A,7025250,2012-12-03 09:00,2012,12,3,09:00,3.6,1.0,83,11,48.3,101.87,Mostly Cloudy
58,-73.75,45.47,MONTREAL/PIERRE ELLIOTT TRUDEAU INTL A,7025250,2012-12-03 10:00,2012,12,3,10:00,3.9,1.2,83,13,24.1,101.99,Mostly Cloudy
59,-73.75,45.47,MONTREAL/PIERRE ELLIOTT TRUDEAU INTL A,7025250,2012-12-03 11:00,2012,12,3,11:00,3.7,1.1,83,11,24.1,101.96,Cloudy
60,-73.75,45.47,MONTREAL/PIERRE ELLIOTT TRUDEAU INTL A,7025250,2012-12-03 12:00,2012,12,3,12:00,3.9,1.3,83,9,24.1,101.96,Cloudy
61,-73.75,45.47,MONTREAL/PIERRE ELLIOTT TRUDEAU INTL A,7025250,2012-12-03 13:00,2012,12,3,13:00,4.0,1.2,82,9,24.1,101.95,Cloudy
62,-73.75,45.47,MONTREAL/PIERRE ELLIOTT TRUDEAU INTL A,7025250,2012-12-03 14:00,2012,12,3,14:00,4.2,0.8,79,13,24.1,101.95,Cloudy
63,-73.75,45.47,MONTREAL/PIERRE ELLIOTT TRUDEAU INTL A,7025250,2012-12-03 15:00,2012,12,3,15:00,4.0,1.0,81,9,24.1,101.98,Cloudy
64,-73.75,45.47,MONTREAL/PIERRE ELLIOTT TRUDEAU INTL A,7025250,2012-12-03 16:00,2012,12,3,16:00,3.7,-0.1,76,4,24.1,102.01,Cloudy
65,-73.75,45.47,MONTREAL/PIERRE ELLIOTT TRUDEAU INTL A,7025250,2012-12-03 17:00,2012,12,3,17:00,2.9,1.1,88,4,25.0,102.03,Cloudy
66,-73.75,45.47,MONTREAL/PIERRE ELLIOTT TRUDEAU INTL A,7025250,2012-12-03 18:00,2012,12,3,18:00,3.0,0.6,84,4,25.0,102.03,Cloudy
67,-73.75,45.47,MONTREAL/PIERRE ELLIOTT TRUDEAU INTL A,7025250,2012-12-03 19:00,2012,12,3,19:00,3.4,0.5,81,6,25.0,102.01,Cloudy
68,-73.75,45.47,MONTREAL/PIERRE ELLIOTT TRUDEAU INTL A,7025250,2012-12-03 20:00,2012,12,3,20:00,3.5,0.7,82,0,25.0,101.99,Cloudy
69,-73.75,45.47,MONTREAL/PIERRE ELLIOTT TRUDEAU INTL A,7025250,2012-12-03 21:00,2012,12,3,21:00,3.1,1.2,87,6,25.0,101.99,Cloudy
70,-73.75,45.47,MONTREAL/PIERRE ELLIOTT TRUDEAU INTL A,7025250,2012-12-03 22:00,2012,12,3,22:00,3.7,1.3,84,11,25.0,101.94,Cloudy
71,-73.75,45.47,MONTREAL/PIERRE ELLIOTT TRUDEAU INTL A,7025250,2012-12-03 23:00,2012,12,3,23:00,3.7,1.1,83,13,25.0,101.91,Cloudy
72,-73.75,45.47,MONTREAL/PIERRE ELLIOTT TRUDEAU INTL A,7025250,2012-12-04 00:00,2012,12,4,00:00,3.7,1.3,84,13,25.0,101.92,Cloudy
73,-73.75,45.47,MONTREAL/PIERRE ELLIOTT TRUDEAU INTL A,7025250,2012-12-04 01:00,2012,12,4,01:00,3.6,1.4,86,7,25.0,101.86,Cloudy
74,-73.75,45.47,MONTREAL/PIERRE ELLIOTT TRUDEAU INTL A,7025250,2012-12-04 02:00,2012,12,4,02:00,3.9,1.1,82,6,25.0,101.81,Mostly Cloudy
75,-73.75,45.47,MONTREAL/PIERRE ELLIOTT TRUDEAU INTL A,7025250,2012-12-04 03:00,2012,12,4,03:00,3.8,1.2,83,19,25.0,101.71,Cloudy
76,-73.75,45.47,MONTREAL/PIERRE ELLIOTT TRUDEAU INTL A,7025250,2012-12-04 04:00,2012,12,4,04:00,3.1,1.3,88,20,25.0,101.56,Mainly Clear
77,-73.75,45.47,MONTREAL/PIERRE ELLIOTT TRUDEAU INTL A,7025250,2012-12-04 05:00,2012,12,4,05:00,2.9,1.5,90,13,25.0,101.52,Mostly Cloudy
78,-73.75,45.47,MONTREAL/PIERRE ELLIOTT TRUDEAU INTL A,7025250,2012-12-04 06:00,2012,12,4,06:00,4.2,2.6,89,15,25.0,101.41,Cloudy
79,-73.75,45.47,MONTREAL/PIERRE ELLIOTT TRUDEAU INTL A,7025250,2012-12-04 07:00,2012,12,4,07:00,5.1,3.4,89,13,25.0,101.35,Cloudy
80,-73.75,45.47,MONTREAL/PIERRE ELLIOTT TRUDEAU INTL A,7025250,2012-12-04 08:00,2012,12,4,08:00,5.5,3.9,89,9,19.3,101.29,Rain Showers
81,-73.75,45.47,MONTREAL/PIERRE ELLIOTT TRUDEAU INTL A,7025250,2012-12-04 09:00,2012,12,4,09:00,5.9,4.8,93,11,19.3,101.23,Rain Showers
82,-73.75,45.47,MONTREAL/PIERRE ELLIOTT TRUDEAU INTL A,7025250,2012-12-04 10:00,2012,12,4,10:00,8.0,6.3,89,19,19.3,101.16,Mostly Cloudy
83,-73.75,45.47,MONTREAL/PIERRE ELLIOTT TRUDEAU INTL A,7025250,2012-12-04 11:00,2012,12,4,11:00,10.1,7.7,85,17,24.1,101.06,Cloudy
84,-73.75,45.47,MONTREAL/PIERRE ELLIOTT TRUDEAU INTL A,7025250,2012-12-04 12:00,2012,12,4,12:00,11.5,8.3,81,19,24.1,100.92,Mostly Cloudy
85,-73.75,45.47,MONTREAL/PIERRE ELLIOTT TRUDEAU INTL A,7025250,2012-12-04 13:00,2012,12,4,13:00,11.9,8.4,79,17,24.1,100.84,Cloudy
86,-73.75,45.47,MONTREAL/PIERRE ELLIOTT TRUDEAU INTL A,7025250,2012-12-04 14:00,2012,12,4,14:00,11.3,8.1,81,24,24.1,100.74,Cloudy
87,-73.75,45.47,MONTREAL/PIERRE ELLIOTT TRUDEAU INTL A,7025250,2012-12-04 15:00,2012,12,4,15:00,11.0,7.9,81,24,24.1,100.66,Cloudy
88,-73.75,45.47,MONTREAL/PIERRE ELLIOTT TRUDEAU INTL A,7025250,2012-12-04 16:00,2012,12,4,16:00,10.7,7.9,83,24,19.3,100.64,Cloudy
89,-73.75,45.47,MONTREAL/PIERRE ELLIOTT TRUDEAU INTL A,7025250,2012-12-04 17:00,2012,12,4,17:00,10.8,8.1,83,30,25.0,100.55,Cloudy
90,-73.75,45.47,MONTREAL/PIERRE ELLIOTT TRUDEAU INTL A,7025250,2012-12-04 18:00,2012,12,4,18:00,10.7,8.2,85,32,25.0,100.5,Cloudy
91,-73.75,45.47,MONTREAL/PIERRE ELLIOTT TRUDEAU INTL A,7025250,2012-12-04 19:00,2012,12,4,19:00,10.7,8.4,86,7,25.0,100.57,Rain Showers
92,-73.75,45.47,MONTREAL/PIERRE ELLIOTT TRUDEAU INTL A,7025250,2012-12-04 20:00,2012,12,4,20:00,9.9,9.1,95,15,12.9,100.53,Rain
93,-73.75,45.47,MONTREAL/PIERRE ELLIOTT TRUDEAU INTL A,7025250,2012-12-04 21:00,2012,12,4,21:00,10.4,9.7,95,9,6.4,100.56,Rain
94,-73.75,45.47,MONTREAL/PIERRE ELLIOTT TRUDEAU INTL A,7025250,2012-12-04 22:00,2012,12,4,22:00,9.8,9.3,97,6,12.9,100.57,Rain
95,-73.75,45.47,MONTREAL/PIERRE ELLIOTT TRUDEAU INTL A,7025250,2012-12-04 23:00,2012,12,4,23:00,9.7,9.1,96,19,9.7,100.63,Rain
96,-73.75,45.47,MONTREAL/PIERRE ELLIOTT TRUDEAU INTL A,7025250,2012-12-05 00:00,2012,12,5,00:00,9.5,8.0,90,19,12.9,100.56,Rain
97,-73.75,45.47,MONTREAL/PIERRE ELLIOTT TRUDEAU INTL A,7025250,2012-12-05 01:00,2012,12,5,01:00,9.0,7.3,89,30,16.1,100.45,Rain
98,-73.75,45.47,MONTREAL/PIERRE ELLIOTT TRUDEAU INTL A,7025250,2012-12-05 02:00,2012,12,5,02:00,8.7,7.1,90,24,16.1,100.5,Rain
99,-73.75,45.47,MONTREAL/PIERRE ELLIOTT TRUDEAU INTL A,7025250,2012-12-05 03:00,2012,12,5,03:00,7.8,6.7,93,24,9.7,100.53,Rain
100,-73.75,45.47,MONTREAL/PIERRE ELLIOTT TRUDEAU INTL A,7025250,2012-12-05 04:00,2012,12,5,04:00,7.2,4.8,85,15,25.0,100.55,Mainly Clear
101,-73.75,45.47,MONTREAL/PIERRE ELLIOTT TRUDEAU INTL A,7025250,2012-12-05 05:00,2012,12,5,05:00,6.6,4.1,84,17,25.0,100.62,Cloudy
102,-73.75,45.47,MONTREAL/PIERRE ELLIOTT TRUDEAU INTL A,7025250,2012-12-05 06:00,2012,12,5,06:00,5.7,2.7,81,24,25.0,100.68,Mostly Cloudy
103,-73.75,45.47,MONTREAL/PIERRE ELLIOTT TRUDEAU INTL A,7025250,2012-12-05 07:00,2012,12,5,07:00,5.2,0.4,71,30,25.0,100.74,Mostly Cloudy
104,-73.75,45.47,MONTREAL/PIERRE ELLIOTT TRUDEAU INTL A,7025250,2012-12-05 08:00,2012,12,5,08:00,4.2,-0.5,71,26,24.1,100.85,Cloudy
105,-73.75,45.47,MONTREAL/PIERRE ELLIOTT TRUDEAU INTL A,7025250,2012-12-05 09:00,2012,12,5,09:00,3.6,-1.5,69,26,24.1,100.95,Cloudy
106,-73.75,45.47,MONTREAL/PIERRE ELLIOTT TRUDEAU INTL A,7025250,2012-12-05 10:00,2012,12,5,10:00,2.1,-1.8,75,28,19.3,101.09,"Rain Showers,Snow Showers"
107,-73.75,45.47,MONTREAL/PIERRE ELLIOTT TRUDEAU INTL A,7025250,2012-12-05 11:00,2012,12,5,11:00,2.2,-2.5,71,30,24.1,101.17,Snow Showers
108,-73.75,45.47,MONTREAL/PIERRE ELLIOTT TRUDEAU INTL A,7025250,2012-12-05 12:00,2012,12,5,12:00,1.1,-4.8,65,26,24.1,101.23,Snow Showers
109,-73.75,45.47,MONTREAL/PIERRE ELLIOTT TRUDEAU INTL A,7025250,2012-12-05 13:00,2012,12,5,13:00,1.3,-7.0,54,30,24.1,101.29,Mostly Cloudy
110,-73.75,45.47,MONTREAL/PIERRE ELLIOTT TRUDEAU INTL A,7025250,2012-12-05 14:00,2012,12,5,14:00,0.8,-6.7,57,35,24.1,101.34,Mostly Cloudy
111,-73.75,45.47,MONTREAL/PIERRE ELLIOTT TRUDEAU INTL A,7025250,2012-12-05 15:00,2012,12,5,15:00,0.1,-7.6,56,26,24.1,101.47,Mostly Cloudy
112,-73.75,45.47,MONTREAL/PIERRE ELLIOTT TRUDEAU INTL A,7025250,2012-12-05 16:00,2012,12,5,16:00,-0.4,-9.4,51,30,24.1,101.58,Cloudy
113,-73.75,45.47,MONTREAL/PIERRE ELLIOTT TRUDEAU INTL A,7025250,2012-12-05 17:00,2012,12,5,17:00,-0.7,-8.3,56,30,25.0,101.66,Cloudy
114,-73.75,45.47,MONTREAL/PIERRE ELLIOTT TRUDEAU INTL A,7025250,2012-12-05 18:00,2012,12,5,18:00,-0.8,-8.0,58,22,25.0,101.76,Mostly Cloudy
115,-73.75,45.47,MONTREAL/PIERRE ELLIOTT TRUDEAU INTL A,7025250,2012-12-05 19:00,2012,12,5,19:00,-1.0,-8.5,57,28,25.0,101.84,Snow
116,-73.75,45.47,MONTREAL/PIERRE ELLIOTT TRUDEAU INTL A,7025250,2012-12-05 20:00,2012,12,5,20:00,-1.4,-8.6,58,19,25.0,101.88,Mostly Cloudy
117,-73.75,45.47,MONTREAL/PIERRE ELLIOTT TRUDEAU INTL A,7025250,2012-12-05 21:00,2012,12,5,21:00,-1.9,-8.7,60,24,25.0,101.93,Mostly Cloudy
118,-73.75,45.47,MONTREAL/PIERRE ELLIOTT TRUDEAU INTL A,7025250,2012-12-05 22:00,2012,12,5,22:00,-1.6,-9.5,55,26,25.0,102.01,Mostly Cloudy
119,-73.75,45.47,MONTREAL/PIERRE ELLIOTT TRUDEAU INTL A,7025250,2012-12-05 23:00,2012,12,5,23:00,-1.8,-9.7,55,20,25.0,102.07,Mostly Cloudy
120,-73.75,45.47,MONTREAL/PIERRE ELLIOTT TRUDEAU INTL A,7025250,2012-12-06 00:00,2012,12,6,00:00,-2.1,-9.7,56,20,25.0,102.1,Mostly Cloudy
121,-73.75,45.47,MONTREAL/PIERRE ELLIOTT TRUDEAU INTL A,7025250,2012-12-06 01:00,2012,12,6,01:00,-2.3,-9.3,59,17,25.0,102.12,Mostly Cloudy
122,-73.75,45.47,MONTREAL/PIERRE ELLIOTT TRUDEAU INTL A,7025250,2012-12-06 02:00,2012,12,6,02:00,-2.9,-9.4,61,17,25.0,102.21,Mostly Cloudy
123,-73.75,45.47,MONTREAL/PIERRE ELLIOTT TRUDEAU INTL A,7025250,2012-12-06 03:00,2012,12,6,03:00,-3.4,-9.1,65,15,25.0,102.26,Mostly Cloudy
124,-73.75,45.47,MONTREAL/PIERRE ELLIOTT TRUDEAU INTL A,7025250,2012-12-06 04:00,2012,12,6,04:00,-3.9,-9.0,68,11,25.0,102.33,Mostly Cloudy
125,-73.75,45.47,MONTREAL/PIERRE ELLIOTT TRUDEAU INTL A,7025250,2012-12-06 05:00,2012,12,6,05:00,-5.2,-9.7,71,9,25.0,102.38,Mainly Clear
126,-73.75,45.47,MONTREAL/PIERRE ELLIOTT TRUDEAU INTL A,7025250,2012-12-06 06:00,2012,12,6,06:00,-5.7,-9.7,73,13,25.0,102.45,Mainly Clear
127,-73.75,45.47,MONTREAL/PIERRE ELLIOTT TRUDEAU INTL A,7025250,2012-12-06 07:00,2012,12,6,07:00,-5.9,-10.0,73,11,24.1,102.47,Mainly Clear
128,-73.75,45.47,MONTREAL/PIERRE ELLIOTT TRUDEAU INTL A,7025250,2012-12-06 08:00,2012,12,6,08:00,-4.6,-8.8,72,7,24.1,102.52,Mainly Clear
129,-73.75,45.47,MONTREAL/PIERRE ELLIOTT TRUDEAU INTL A,7025250,2012-12-06 09:00,2012,12,6,09:00,-3.4,-8.9,66,9,48.3,102.53,Mostly Cloudy
130,-73.75,45.47,MONTREAL/PIERRE ELLIOTT TRUDEAU INTL A,7025250,2012-12-06 10:00,2012,12,6,10:00,-2.6,-8.4,64,13,48.3,102.56,Mostly Cloudy
131,-73.75,45.47,MONTREAL/PIERRE ELLIOTT TRUDEAU INTL A,7025250,2012-12-06 11:00,2012,12,6,11:00,-1.8,-8.9,58,13,48.3,102.46,Mainly Clear
132,-73.75,45.47,MONTREAL/PIERRE ELLIOTT TRUDEAU INTL A,7025250,2012-12-06 12:00,2012,12,6,12:00,-1.8,-9.4,56,6,48.3,102.37,Mainly Clear
133,-73.75,45.47,MONTREAL/PIERRE ELLIOTT TRUDEAU INTL A,7025250,2012-12-06 13:00,2012,12,6,13:00,-1.0,-8.3,58,7,48.3,102.27,Mainly Clear
134,-73.75,45.47,MONTREAL/PIERRE ELLIOTT TRUDEAU INTL A,7025250,2012-12-06 14:00,2012,12,6,14:00,-0.9,-8.7,55,13,48.3,102.21,Mainly Clear
135,-73.75,45.47,MONTREAL/PIERRE ELLIOTT TRUDEAU INTL A,7025250,2012-12-06 15:00,2012,12,6,15:00,-1.2,-7.9,60,11,48.3,102.18,Mainly Clear
136,-73.75,45.47,MONTREAL/PIERRE ELLIOTT TRUDEAU INTL A,7025250,2012-12-06 16:00,2012,12,6,16:00,-2.8,-7.9,68,7,48.3,102.11,Mainly Clear
137,-73.75,45.47,MONTREAL/PIERRE ELLIOTT TRUDEAU INTL A,7025250,2012-12-06 17:00,2012,12,6,17:00,-2.8,-7.6,69,7,25.0,102.1,Mainly Clear
138,-73.75,45.47,MONTREAL/PIERRE ELLIOTT TRUDEAU INTL A,7025250,2012-12-06 18:00,2012,12,6,18:00,-2.7,-6.8,73,13,25.0,102.06,Mostly Cloudy
139,-73.75,45.47,MONTREAL/PIERRE ELLIOTT TRUDEAU INTL A,7025250,2012-12-06 19:00,2012,12,6,19:00,-2.8,-7.4,71,9,25.0,102.05,Mostly Cloudy
140,-73.75,45.47,MONTREAL/PIERRE ELLIOTT TRUDEAU INTL A,7025250,2012-12-06 20:00,2012,12,6,20:00,-1.9,-7.4,66,7,25.0,101.95,Mostly Cloudy
141,-73.75,45.47,MONTREAL/PIERRE ELLIOTT TRUDEAU INTL A,7025250,2012-12-06 21:00,2012,12,6,21:00,-1.7,-7.0,67,11,25.0,101.88,Cloudy
142,-73.75,45.47,MONTREAL/PIERRE ELLIOTT TRUDEAU INTL A,7025250,2012-12-06 22:00,2012,12,6,22:00,-1.4,-7.2,65,17,25.0,101.8,Cloudy
143,-73.75,45.47,MONTREAL/PIERRE ELLIOTT TRUDEAU INTL A,7025250,2012-12-06 23:00,2012,12,6,23:00,-1.1,-6.0,69,7,25.0,101.73,Mostly Cloudy
144,-73.75,45.47,MONTREAL/PIERRE ELLIOTT TRUDEAU INTL A,7025250,2012-12-07 00:00,2012,12,7,00:00,-1.3,-5.9,71,13,25.0,101.67,Mostly Cloudy
145,-73.75,45.47,MONTREAL/PIERRE ELLIOTT TRUDEAU INTL A,7025250,2012-12-07 01:00,2012,12,7,01:00,-1.5,-5.7,73,7,25.0,101.58,Mostly Cloudy
146,-73.75,45.47,MONTREAL/PIERRE ELLIOTT TRUDEAU INTL A,7025250,2012-12-07 02:00,2012,12,7,02:00,-1.3,-5.3,74,9,25.0,101.51,Mainly Clear
147,-73.75,45.47,MONTREAL/PIERRE ELLIOTT TRUDEAU INTL A,7025250,2012-12-07 03:00,2012,12,7,03:00,-1.8,-5.3,77,9,25.0,101.46,Mainly Clear
148,-73.75,45.47,MONTREAL/PIERRE ELLIOTT TRUDEAU INTL A,7025250,2012-12-07 04:00,2012,12,7,04:00,-2.7,-5.7,80,11,25.0,101.38,Mostly Cloudy
149,-73.75,45.47,MONTREAL/PIERRE ELLIOTT TRUDEAU INTL A,7025250,2012-12-07 05:00,2012,12,7,05:00,-2.2,-5.5,78,11,25.0,101.3,Mostly Cloudy
150,-73.75,45.47,MONTREAL/PIERRE ELLIOTT TRUDEAU INTL A,7025250,2012-12-07 06:00,2012,12,7,06:00,-2.9,-5.5,82,7,25.0,101.27,Cloudy
151,-73.75,45.47,MONTREAL/PIERRE ELLIOTT TRUDEAU INTL A,7025250,2012-12-07 07:00,2012,12,7,07:00,-2.8,-5.3,83,11,24.1,101.3,Mostly Cloudy
152,-73.75,45.47,MONTREAL/PIERRE ELLIOTT TRUDEAU INTL A,7025250,2012-12-07 08:00,2012,12,7,08:00,-3.3,-5.4,85,7,24.1,101.29,Cloudy
153,-73.75,45.47,MONTREAL/PIERRE ELLIOTT TRUDEAU INTL A,7025250,2012-12-07 09:00,2012,12,7,09:00,-2.1,-4.7,82,7,24.1,101.32,Mostly Cloudy
154,-73.75,45.47,MONTREAL/PIERRE ELLIOTT TRUDEAU INTL A,7025250,2012-12-07 10:00,2012,12,7,10:00,1.2,-5.8,60,9,48.3,101.26,Mostly Cloudy
155,-73.75,45.47,MONTREAL/PIERRE ELLIOTT TRUDEAU INTL A,7025250,2012-12-07 11:00,2012,12,7,11:00,2.6,-5.0,57,4,48.3,101.24,Mostly Cloudy
156,-73.75,45.47,MONTREAL/PIERRE ELLIOTT TRUDEAU INTL A,7025250,2012-12-07 12:00,2012,12,7,12:00,3.0,-5.0,56,4,24.1,101.2,Cloudy
157,-73.75,45.47,MONTREAL/PIERRE ELLIOTT TRUDEAU INTL A,7025250,2012-12-07 13:00,2012,12,7,13:00,3.7,-4.3,56,6,48.3,101.15,Cloudy
158,-73.75,45.47,MONTREAL/PIERRE ELLIOTT TRUDEAU INTL A,7025250,2012-12-07 14:00,2012,12,7,14:00,3.9,-4.3,55,11,48.3,101.09,Cloudy
159,-73.75,45.47,MONTREAL/PIERRE ELLIOTT TRUDEAU INTL A,7025250,2012-12-07 15:00,2012,12,7,15:00,3.9,-3.3,59,11,48.3,101.11,Cloudy
160,-73.75,45.47,MONTREAL/PIERRE ELLIOTT TRUDEAU INTL A,7025250,2012-12-07 16:00,2012,12,7,16:00,3.5,-3.8,59,9,24.1,101.13,Cloudy
161,-73.75,45.47,MONTREAL/PIERRE ELLIOTT TRUDEAU INTL A,7025250,2012-12-07 17:00,2012,12,7,17:00,2.8,-3.3,64,11,25.0,101.14,Cloudy
162,-73.75,45.47,MONTREAL/PIERRE ELLIOTT TRUDEAU INTL A,7025250,2012-12-07 18:00,2012,12,7,18:00,2.2,-3.5,66,7,25.0,101.13,Mostly Cloudy
163,-73.75,45.47,MONTREAL/PIERRE ELLIOTT TRUDEAU INTL A,7025250,2012-12-07 19:00,2012,12,7,19:00,2.2,-3.3,67,6,25.0,101.17,Cloudy
164,-73.75,45.47,MONTREAL/PIERRE ELLIOTT TRUDEAU INTL A,7025250,2012-12-07 20:00,2012,12,7,20:00,2.1,-3.1,68,4,25.0,101.18,Cloudy
165,-73.75,45.47,MONTREAL/PIERRE ELLIOTT TRUDEAU INTL A,7025250,2012-12-07 21:00,2012,12,7,21:00,2.0,-3.1,69,6,25.0,101.18,Cloudy
166,-73.75,45.47,MONTREAL/PIERRE ELLIOTT TRUDEAU INTL A,7025250,2012-12-07 22:00,2012,12,7,22:00,2.3,-2.5,71,4,25.0,101.19,Cloudy
167,-73.75,45.47,MONTREAL/PIERRE ELLIOTT TRUDEAU INTL A,7025250,2012-12-07 23:00,2012,12,7,23:00,1.5,-2.2,76,4,19.3,101.22,Snow
168,-73.75,45.47,MONTREAL/PIERRE ELLIOTT TRUDEAU INTL A,7025250,2012-12-08 00:00,2012,12,8,00:00,1.8,-1.4,79,4,25.0,101.2,Snow
169,-73.75,45.47,MONTREAL/PIERRE ELLIOTT TRUDEAU INTL A,7025250,2012-12-08 01:00,2012,12,8,01:00,2.0,-1.3,79,6,25.0,101.17,Cloudy
170,-73.75,45.47,MONTREAL/PIERRE ELLIOTT TRUDEAU INTL A,7025250,2012-12-08 02:00,2012,12,8,02:00,2.0,-1.9,75,7,25.0,101.17,Cloudy
171,-73.75,45.47,MONTREAL/PIERRE ELLIOTT TRUDEAU INTL A,7025250,2012-12-08 03:00,2012,12,8,03:00,2.1,-1.5,77,6,25.0,101.18,Cloudy
172,-73.75,45.47,MONTREAL/PIERRE ELLIOTT TRUDEAU INTL A,7025250,2012-12-08 04:00,2012,12,8,04:00,2.5,-1.2,77,0,25.0,101.13,Cloudy
173,-73.75,45.47,MONTREAL/PIERRE ELLIOTT TRUDEAU INTL A,7025250,2012-12-08 05:00,2012,12,8,05:00,2.7,-1.0,77,9,25.0,101.07,Cloudy
174,-73.75,45.47,MONTREAL/PIERRE ELLIOTT TRUDEAU INTL A,7025250,2012-12-08 06:00,2012,12,8,06:00,2.4,0.3,86,9,25.0,101.05,Cloudy
175,-73.75,45.47,MONTREAL/PIERRE ELLIOTT TRUDEAU INTL A,7025250,2012-12-08 07:00,2012,12,8,07:00,2.3,1.0,91,6,8.0,101.09,Fog
176,-73.75,45.47,MONTREAL/PIERRE ELLIOTT TRUDEAU INTL A,7025250,2012-12-08 08:00,2012,12,8,08:00,2.7,1.6,92,7,6.4,101.06,"Rain,Fog"
177,-73.75,45.47,MONTREAL/PIERRE ELLIOTT TRUDEAU INTL A,7025250,2012-12-08 09:00,2012,12,8,09:00,2.7,1.8,94,11,4.8,100.98,"Rain,Fog"
178,-73.75,45.47,MONTREAL/PIERRE ELLIOTT TRUDEAU INTL A,7025250,2012-12-08 10:00,2012,12,8,10:00,3.2,2.1,92,11,8.0,100.95,"Rain,Fog"
179,-73.75,45.47,MONTREAL/PIERRE ELLIOTT TRUDEAU INTL A,7025250,2012-12-08 11:00,2012,12,8,11:00,2.2,1.5,95,17,8.0,100.83,"Rain,Fog"
180,-73.75,45.47,MONTREAL/PIERRE ELLIOTT TRUDEAU INTL A,7025250,2012-12-08 12:00,2012,12,8,12:00,2.1,1.6,96,15,4.8,100.74,"Rain,Fog"
181,-73.75,45.47,MONTREAL/PIERRE ELLIOTT TRUDEAU INTL A,7025250,2012-12-08 13:00,2012,12,8,13:00,1.9,1.3,96,17,3.6,100.59,"Rain,Fog"
182,-73.75,45.47,MONTREAL/PIERRE ELLIOTT TRUDEAU INTL A,7025250,2012-12-08 14:00,2012,12,8,14:00,2.1,1.2,94,15,6.4,100.52,"Rain,Fog"
183,-73.75,45.47,MONTREAL/PIERRE ELLIOTT TRUDEAU INTL A,7025250,2012-12-08 15:00,2012,12,8,15:00,2.0,1.0,93,17,4.8,100.48,"Rain,Fog"
184,-73.75,45.47,MONTREAL/PIERRE ELLIOTT TRUDEAU INTL A,7025250,2012-12-08 16:00,2012,12,8,16:00,1.8,0.8,93,17,4.8,100.49,"Rain,Fog"
185,-73.75,45.47,MONTREAL/PIERRE ELLIOTT TRUDEAU INTL A,7025250,2012-12-08 17:00,2012,12,8,17:00,1.6,0.6,93,9,8.0,100.46,"Rain,Fog"
186,-73.75,45.47,MONTREAL/PIERRE ELLIOTT TRUDEAU INTL A,7025250,2012-12-08 18:00,2012,12,8,18:00,1.1,0.5,96,9,6.4,100.54,"Rain,Fog"
187,-73.75,45.47,MONTREAL/PIERRE ELLIOTT TRUDEAU INTL A,7025250,2012-12-08 19:00,2012,12,8,19:00,0.9,0.2,95,9,6.4,100.61,"Rain,Fog"
188,-73.75,45.47,MONTREAL/PIERRE ELLIOTT TRUDEAU INTL A,7025250,2012-12-08 20:00,2012,12,8,20:00,0.8,0.3,96,9,6.4,100.67,"Rain,Fog"
189,-73.75,45.47,MONTREAL/PIERRE ELLIOTT TRUDEAU INTL A,7025250,2012-12-08 21:00,2012,12,8,21:00,0.8,0.3,96,9,6.4,100.73,"Rain,Snow,Fog"
190,-73.75,45.47,MONTREAL/PIERRE ELLIOTT TRUDEAU INTL A,7025250,2012-12-08 22:00,2012,12,8,22:00,1.2,0.6,96,13,6.4,100.84,Fog
191,-73.75,45.47,MONTREAL/PIERRE ELLIOTT TRUDEAU INTL A,7025250,2012-12-08 23:00,2012,12,8,23:00,1.3,0.6,95,17,8.0,100.96,"Drizzle,Fog"
192,-73.75,45.47,MONTREAL/PIERRE ELLIOTT TRUDEAU INTL A,7025250,2012-12-09 00:00,2012,12,9,00:00,1.5,0.7,94,20,9.7,101.07,Fog
193,-73.75,45.47,MONTREAL/PIERRE ELLIOTT TRUDEAU INTL A,7025250,2012-12-09 01:00,2012,12,9,01:00,1.9,0.7,92,17,16.1,101.22,Cloudy
194,-73.75,45.47,MONTREAL/PIERRE ELLIOTT TRUDEAU INTL A,7025250,2012-12-09 02:00,2012,12,9,02:00,1.8,0.1,88,17,19.3,101.37,Cloudy
195,-73.75,45.47,MONTREAL/PIERRE ELLIOTT TRUDEAU INTL A,7025250,2012-12-09 03:00,2012,12,9,03:00,1.5,-0.5,87,17,25.0,101.47,Mainly Clear
196,-73.75,45.47,MONTREAL/PIERRE ELLIOTT TRUDEAU INTL A,7025250,2012-12-09 04:00,2012,12,9,04:00,1.5,-0.3,88,13,25.0,101.59,Mostly Cloudy
197,-73.75,45.47,MONTREAL/PIERRE ELLIOTT TRUDEAU INTL A,7025250,2012-12-09 05:00,2012,12,9,05:00,1.1,-0.9,86,15,25.0,101.72,Cloudy
198,-73.75,45.47,MONTREAL/PIERRE ELLIOTT TRUDEAU INTL A,7025250,2012-12-09 06:00,2012,12,9,06:00,0.8,-1.5,85,11,25.0,101.84,Cloudy
199,-73.75,45.47,MONTREAL/PIERRE ELLIOTT TRUDEAU INTL A,7025250,2012-12-09 07:00,2012,12,9,07:00,0.2,-2.3,83,20,24.1,102.02,Cloudy
200,-73.75,45.47,MONTREAL/PIERRE ELLIOTT TRUDEAU INTL A,7025250,2012-12-09 08:00,2012,12,9,08:00,-0.5,-2.9,84,11,24.1,102.16,Cloudy
201,-73.75,45.47,MONTREAL/PIERRE ELLIOTT TRUDEAU INTL A,7025250,2012-12-09 09:00,2012,12,9,09:00,-0.9,-3.9,80,20,24.1,102.24,Cloudy
202,-73.75,45.47,MONTREAL/PIERRE ELLIOTT TRUDEAU INTL A,7025250,2012-12-09 10:00,2012,12,9,10:00,-1.5,-4.5,80,20,24.1,102.35,Cloudy
203,-73.75,45.47,MONTREAL/PIERRE ELLIOTT TRUDEAU INTL A,7025250,2012-12-09 11:00,2012,12,9,11:00,-1.7,-4.8,79,17,24.1,102.35,Cloudy
204,-73.75,45.47,MONTREAL/PIERRE ELLIOTT TRUDEAU INTL A,7025250,2012-12-09 12:00,2012,12,9,12:00,-1.9,-5.1,79,17,12.9,102.32,Snow Showers
205,-73.75,45.47,MONTREAL/PIERRE ELLIOTT TRUDEAU INTL A,7025250,2012-12-09 13:00,2012,12,9,13:00,-2.3,-5.4,79,9,24.1,102.28,Cloudy
206,-73.75,45.47,MONTREAL/PIERRE ELLIOTT TRUDEAU INTL A,7025250,2012-12-09 14:00,2012,12,9,14:00,-1.9,-5.1,79,7,24.1,102.28,Cloudy
207,-73.75,45.47,MONTREAL/PIERRE ELLIOTT TRUDEAU INTL A,7025250,2012-12-09 15:00,2012,12,9,15:00,-1.9,-4.9,80,6,24.1,102.33,Cloudy
208,-73.75,45.47,MONTREAL/PIERRE ELLIOTT TRUDEAU INTL A,7025250,2012-12-09 16:00,2012,12,9,16:00,-1.6,-5.2,76,4,24.1,102.31,Cloudy
209,-73.75,45.47,MONTREAL/PIERRE ELLIOTT TRUDEAU INTL A,7025250,2012-12-09 17:00,2012,12,9,17:00,-1.2,-5.7,71,15,25.0,102.31,Cloudy
210,-73.75,45.47,MONTREAL/PIERRE ELLIOTT TRUDEAU INTL A,7025250,2012-12-09 18:00,2012,12,9,18:00,-1.4,-5.9,71,19,25.0,102.25,Cloudy
211,-73.75,45.47,MONTREAL/PIERRE ELLIOTT TRUDEAU INTL A,7025250,2012-12-09 19:00,2012,12,9,19:00,-1.7,-6.2,71,22,24.1,102.22,Cloudy
212,-73.75,45.47,MONTREAL/PIERRE ELLIOTT TRUDEAU INTL A,7025250,2012-12-09 20:00,2012,12,9,20:00,-2.2,-7.2,69,28,25.0,102.11,Cloudy
213,-73.75,45.47,MONTREAL/PIERRE ELLIOTT TRUDEAU INTL A,7025250,2012-12-09 21:00,2012,12,9,21:00,-2.4,-6.5,73,20,25.0,101.91,Cloudy
214,-73.75,45.47,MONTREAL/PIERRE ELLIOTT TRUDEAU INTL A,7025250,2012-12-09 22:00,2012,12,9,22:00,-3.0,-8.2,67,28,25.0,101.78,Cloudy
215,-73.75,45.47,MONTREAL/PIERRE ELLIOTT TRUDEAU INTL A,7025250,2012-12-09 23:00,2012,12,9,23:00,-3.6,-8.6,68,32,25.0,101.64,Cloudy
216,-73.75,45.47,MONTREAL/PIERRE ELLIOTT TRUDEAU INTL A,7025250,2012-12-10 00:00,2012,12,10,00:00,-3.9,-8.1,73,20,25.0,101.54,Cloudy
217,-73.75,45.47,MONTREAL/PIERRE ELLIOTT TRUDEAU INTL A,7025250,2012-12-10 01:00,2012,12,10,01:00,-5.0,-6.2,91,32,1.6,101.31,Snow
218,-73.75,45.47,MONTREAL/PIERRE ELLIOTT TRUDEAU INTL A,7025250,2012-12-10 02:00,2012,12,10,02:00,-4.7,-6.2,89,33,4.0,101.1,Snow
219,-73.75,45.47,MONTREAL/PIERRE ELLIOTT TRUDEAU INTL A,7025250,2012-12-10 03:00,2012,12,10,03:00,-4.3,-5.9,89,33,2.8,100.96,"Snow,Ice Pellets"
220,-73.75,45.47,MONTREAL/PIERRE ELLIOTT TRUDEAU INTL A,7025250,2012-12-10 04:00,2012,12,10,04:00,-3.3,-4.4,92,28,3.6,100.73,"Freezing Drizzle,Fog"
221,-73.75,45.47,MONTREAL/PIERRE ELLIOTT TRUDEAU INTL A,7025250,2012-12-10 05:00,2012,12,10,05:00,-1.9,-2.8,94,33,4.0,100.55,"Freezing Drizzle,Fog"
222,-73.75,45.47,MONTREAL/PIERRE ELLIOTT TRUDEAU INTL A,7025250,2012-12-10 06:00,2012,12,10,06:00,0.1,-0.9,93,22,8.0,100.3,"Freezing Rain,Fog"
223,-73.75,45.47,MONTREAL/PIERRE ELLIOTT TRUDEAU INTL A,7025250,2012-12-10 07:00,2012,12,10,07:00,1.0,0.0,93,19,8.0,100.09,"Rain,Fog"
224,-73.75,45.47,MONTREAL/PIERRE ELLIOTT TRUDEAU INTL A,7025250,2012-12-10 08:00,2012,12,10,08:00,1.7,0.8,94,17,6.4,99.98,"Moderate Rain,Fog"
225,-73.75,45.47,MONTREAL/PIERRE ELLIOTT TRUDEAU INTL A,7025250,2012-12-10 09:00,2012,12,10,09:00,2.2,1.5,95,19,6.4,99.78,"Rain,Fog"
226,-73.75,45.47,MONTREAL/PIERRE ELLIOTT TRUDEAU INTL A,7025250,2012-12-10 10:00,2012,12,10,10:00,2.2,1.6,96,17,2.4,99.7,"Rain,Fog"
227,-73.75,45.47,MONTREAL/PIERRE ELLIOTT TRUDEAU INTL A,7025250,2012-12-10 11:00,2012,12,10,11:00,1.9,1.5,97,15,3.2,99.6,"Rain,Fog"
228,-73.75,45.47,MONTREAL/PIERRE ELLIOTT TRUDEAU INTL A,7025250,2012-12-10 12:00,2012,12,10,12:00,1.4,0.8,96,15,4.8,99.44,"Drizzle,Fog"
229,-73.75,45.47,MONTREAL/PIERRE ELLIOTT TRUDEAU INTL A,7025250,2012-12-10 13:00,2012,12,10,13:00,0.6,0.3,98,19,2.4,99.34,"Rain,Fog"
230,-73.75,45.47,MONTREAL/PIERRE ELLIOTT TRUDEAU INTL A,7025250,2012-12-10 14:00,2012,12,10,14:00,0.1,-0.2,98,15,2.4,99.32,"Rain,Fog"
231,-73.75,45.47,MONTREAL/PIERRE ELLIOTT TRUDEAU INTL A,7025250,2012-12-10 15:00,2012,12,10,15:00,0.0,-0.5,96,9,4.0,99.34,"Drizzle,Fog"
232,-73.75,45.47,MONTREAL/PIERRE ELLIOTT TRUDEAU INTL A,7025250,2012-12-10 16:00,2012,12,10,16:00,0.0,-0.5,96,6,4.0,99.41,"Rain,Fog"
233,-73.75,45.47,MONTREAL/PIERRE ELLIOTT TRUDEAU INTL A,7025250,2012-12-10 17:00,2012,12,10,17:00,0.1,-0.3,97,4,4.8,99.42,"Rain,Fog"
234,-73.75,45.47,MONTREAL/PIERRE ELLIOTT TRUDEAU INTL A,7025250,2012-12-10 18:00,2012,12,10,18:00,1.5,1.1,97,15,12.9,99.57,Cloudy
235,-73.75,45.47,MONTREAL/PIERRE ELLIOTT TRUDEAU INTL A,7025250,2012-12-10 19:00,2012,12,10,19:00,2.6,0.9,89,22,25.0,99.54,Cloudy
236,-73.75,45.47,MONTREAL/PIERRE ELLIOTT TRUDEAU INTL A,7025250,2012-12-10 20:00,2012,12,10,20:00,2.5,-0.5,81,24,25.0,99.58,Cloudy
237,-73.75,45.47,MONTREAL/PIERRE ELLIOTT TRUDEAU INTL A,7025250,2012-12-10 21:00,2012,12,10,21:00,2.2,-1.3,78,24,25.0,99.63,Cloudy
238,-73.75,45.47,MONTREAL/PIERRE ELLIOTT TRUDEAU INTL A,7025250,2012-12-10 22:00,2012,12,10,22:00,1.7,-1.3,80,20,25.0,99.73,Cloudy
239,-73.75,45.47,MONTREAL/PIERRE ELLIOTT TRUDEAU INTL A,7025250,2012-12-10 23:00,2012,12,10,23:00,1.2,-2.1,79,20,25.0,99.78,Mostly Cloudy
240,-73.75,45.47,MONTREAL/PIERRE ELLIOTT TRUDEAU INTL A,7025250,2012-12-11 00:00,2012,12,11,00:00,0.7,-2.7,78,17,25.0,99.89,Cloudy
241,-73.75,45.47,MONTREAL/PIERRE ELLIOTT TRUDEAU INTL A,7025250,2012-12-11 01:00,2012,12,11,01:00,0.0,-3.6,77,28,25.0,99.99,Cloudy
242,-73.75,45.47,MONTREAL/PIERRE ELLIOTT TRUDEAU INTL A,7025250,2012-12-11 02:00,2012,12,11,02:00,-1.1,-5.2,74,22,25.0,100.09,Mostly Cloudy
243,-73.75,45.47,MONTREAL/PIERRE ELLIOTT TRUDEAU INTL A,7025250,2012-12-11 03:00,2012,12,11,03:00,-2.5,-6.0,77,24,25.0,100.27,Mostly Cloudy
244,-73.75,45.47,MONTREAL/PIERRE ELLIOTT TRUDEAU INTL A,7025250,2012-12-11 04:00,2012,12,11,04:00,-4.5,-8.0,76,20,25.0,100.38,Mainly Clear
245,-73.75,45.47,MONTREAL/PIERRE ELLIOTT TRUDEAU INTL A,7025250,2012-12-11 05:00,2012,12,11,05:00,-5.9,-9.6,75,17,25.0,100.51,Mainly Clear
246,-73.75,45.47,MONTREAL/PIERRE ELLIOTT TRUDEAU INTL A,7025250,2012-12-11 06:00,2012,12,11,06:00,-7.3,-10.3,79,15,25.0,100.62,Mainly Clear
247,-73.75,45.47,MONTREAL/PIERRE ELLIOTT TRUDEAU INTL A,7025250,2012-12-11 07:00,2012,12,11,07:00,-8.0,-11.5,76,15,24.1,100.78,Mainly Clear
248,-73.75,45.47,MONTREAL/PIERRE ELLIOTT TRUDEAU INTL A,7025250,2012-12-11 08:00,2012,12,11,08:00,-8.4,-12.0,75,17,24.1,100.91,Mainly Clear
249,-73.75,45.47,MONTREAL/PIERRE ELLIOTT TRUDEAU INTL A,7025250,2012-12-11 09:00,2012,12,11,09:00,-7.9,-12.0,72,19,24.1,101.03,Mainly Clear
250,-73.75,45.47,MONTREAL/PIERRE ELLIOTT TRUDEAU INTL A,7025250,2012-12-11 10:00,2012,12,11,10:00,-7.1,-12.0,68,9,24.1,101.12,Mainly Clear
251,-73.75,45.47,MONTREAL/PIERRE ELLIOTT TRUDEAU INTL A,7025250,2012-12-11 11:00,2012,12,11,11:00,-6.6,-12.2,64,7,24.1,101.1,Mainly Clear
252,-73.75,45.47,MONTREAL/PIERRE ELLIOTT TRUDEAU INTL A,7025250,2012-12-11 12:00,2012,12,11,12:00,-6.1,-12.4,61,11,24.1,101.13,Mainly Clear
253,-73.75,45.47,MONTREAL/PIERRE ELLIOTT TRUDEAU INTL A,7025250,2012-12-11 13:00,2012,12,11,13:00,-5.5,-11.1,65,17,24.1,101.18,Mainly Clear
254,-73.75,45.47,MONTREAL/PIERRE ELLIOTT TRUDEAU INTL A,7025250,2012-12-11 14:00,2012,12,11,14:00,-5.2,-11.0,64,17,24.1,101.21,Mainly Clear
255,-73.75,45.47,MONTREAL/PIERRE ELLIOTT TRUDEAU INTL A,7025250,2012-12-11 15:00,2012,12,11,15:00,-5.7,-11.5,64,13,24.1,101.29,Clear
256,-73.75,45.47,MONTREAL/PIERRE ELLIOTT TRUDEAU INTL A,7025250,2012-12-11 16:00,2012,12,11,16:00,-6.1,-11.6,65,15,24.1,101.35,Clear
257,-73.75,45.47,MONTREAL/PIERRE ELLIOTT TRUDEAU INTL A,7025250,2012-12-11 17:00,2012,12,11,17:00,-6.8,-11.7,68,11,24.1,101.45,Clear
258,-73.75,45.47,MONTREAL/PIERRE ELLIOTT TRUDEAU INTL A,7025250,2012-12-11 18:00,2012,12,11,18:00,-6.9,-11.5,70,13,25.0,101.51,Clear
259,-73.75,45.47,MONTREAL/PIERRE ELLIOTT TRUDEAU INTL A,7025250,2012-12-11 19:00,2012,12,11,19:00,-7.9,-11.0,78,13,25.0,101.6,Clear
260,-73.75,45.47,MONTREAL/PIERRE ELLIOTT TRUDEAU INTL A,7025250,2012-12-11 20:00,2012,12,11,20:00,-7.9,-11.3,77,15,25.0,101.68,Clear
261,-73.75,45.47,MONTREAL/PIERRE ELLIOTT TRUDEAU INTL A,7025250,2012-12-11 21:00,2012,12,11,21:00,-8.7,-11.6,79,9,25.0,101.74,Clear
262,-73.75,45.47,MONTREAL/PIERRE ELLIOTT TRUDEAU INTL A,7025250,2012-12-11 22:00,2012,12,11,22:00,-9.1,-11.4,83,6,25.0,101.78,Clear
263,-73.75,45.47,MONTREAL/PIERRE ELLIOTT TRUDEAU INTL A,7025250,2012-12-11 23:00,2012,12,11,23:00,-8.3,-11.2,80,9,25.0,101.84,Clear
264,-73.75,45.47,MONTREAL/PIERRE ELLIOTT TRUDEAU INTL A,7025250,2012-12-12 00:00,2012,12,12,00:00,-9.2,-11.6,83,7,25.0,101.87,Clear
265,-73.75,45.47,MONTREAL/PIERRE ELLIOTT TRUDEAU INTL A,7025250,2012-12-12 01:00,2012,12,12,01:00,-9.4,-11.5,85,7,25.0,101.91,Clear
266,-73.75,45.47,MONTREAL/PIERRE ELLIOTT TRUDEAU INTL A,7025250,2012-12-12 02:00,2012,12,12,02:00,-10.3,-12.0,87,4,25.0,101.96,Clear
267,-73.75,45.47,MONTREAL/PIERRE ELLIOTT TRUDEAU INTL A,7025250,2012-12-12 03:00,2012,12,12,03:00,-9.6,-11.3,87,4,25.0,102.0,Clear
268,-73.75,45.47,MONTREAL/PIERRE ELLIOTT TRUDEAU INTL A,7025250,2012-12-12 04:00,2012,12,12,04:00,-10.1,-11.6,89,6,25.0,102.04,Clear
269,-73.75,45.47,MONTREAL/PIERRE ELLIOTT TRUDEAU INTL A,7025250,2012-12-12 05:00,2012,12,12,05:00,-10.3,-11.7,89,4,25.0,102.06,Clear
270,-73.75,45.47,MONTREAL/PIERRE ELLIOTT TRUDEAU INTL A,7025250,2012-12-12 06:00,2012,12,12,06:00,-9.5,-11.3,87,4,25.0,102.1,Clear
271,-73.75,45.47,MONTREAL/PIERRE ELLIOTT TRUDEAU INTL A,7025250,2012-12-12 07:00,2012,12,12,07:00,-11.2,-12.4,91,4,24.1,102.19,Mainly Clear
272,-73.75,45.47,MONTREAL/PIERRE ELLIOTT TRUDEAU INTL A,7025250,2012-12-12 08:00,2012,12,12,08:00,-7.3,-9.2,86,11,24.1,102.14,Mostly Cloudy
273,-73.75,45.47,MONTREAL/PIERRE ELLIOTT TRUDEAU INTL A,7025250,2012-12-12 09:00,2012,12,12,09:00,-6.1,-9.0,80,4,24.1,102.21,Snow Showers
274,-73.75,45.47,MONTREAL/PIERRE ELLIOTT TRUDEAU INTL A,7025250,2012-12-12 10:00,2012,12,12,10:00,-4.7,-7.6,80,9,24.1,102.2,Snow Showers
275,-73.75,45.47,MONTREAL/PIERRE ELLIOTT TRUDEAU INTL A,7025250,2012-12-12 11:00,2012,12,12,11:00,-3.7,-6.8,79,7,19.3,102.15,Cloudy
276,-73.75,45.47,MONTREAL/PIERRE ELLIOTT TRUDEAU INTL A,7025250,2012-12-12 12:00,2012,12,12,12:00,-2.7,-6.5,75,7,19.3,102.14,Mostly Cloudy
277,-73.75,45.47,MONTREAL/PIERRE ELLIOTT TRUDEAU INTL A,7025250,2012-12-12 13:00,2012,12,12,13:00,-3.0,-6.7,76,6,19.3,102.14,Mainly Clear
278,-73.75,45.47,MONTREAL/PIERRE ELLIOTT TRUDEAU INTL A,7025250,2012-12-12 14:00,2012,12,12,14:00,-2.9,-6.5,76,7,16.1,102.16,Cloudy
279,-73.75,45.47,MONTREAL/PIERRE ELLIOTT TRUDEAU INTL A,7025250,2012-12-12 15:00,2012,12,12,15:00,-3.2,-6.7,77,6,19.3,102.17,Mostly Cloudy
280,-73.75,45.47,MONTREAL/PIERRE ELLIOTT TRUDEAU INTL A,7025250,2012-12-12 16:00,2012,12,12,16:00,-2.8,-6.2,77,4,12.9,102.2,Mostly Cloudy
281,-73.75,45.47,MONTREAL/PIERRE ELLIOTT TRUDEAU INTL A,7025250,2012-12-12 17:00,2012,12,12,17:00,-3.2,-6.0,81,7,9.7,102.25,Snow Showers
282,-73.75,45.47,MONTREAL/PIERRE ELLIOTT TRUDEAU INTL A,7025250,2012-12-12 18:00,2012,12,12,18:00,-3.6,-5.7,85,7,12.9,102.28,Snow Showers
283,-73.75,45.47,MONTREAL/PIERRE ELLIOTT TRUDEAU INTL A,7025250,2012-12-12 19:00,2012,12,12,19:00,-4.0,-6.1,85,11,12.9,102.3,Cloudy
284,-73.75,45.47,MONTREAL/PIERRE ELLIOTT TRUDEAU INTL A,7025250,2012-12-12 20:00,2012,12,12,20:00,-4.4,-6.4,86,7,16.1,102.36,Snow Showers
285,-73.75,45.47,MONTREAL/PIERRE ELLIOTT TRUDEAU INTL A,7025250,2012-12-12 21:00,2012,12,12,21:00,-3.9,-5.9,86,6,16.1,102.37,Snow Showers
286,-73.75,45.47,MONTREAL/PIERRE ELLIOTT TRUDEAU INTL A,7025250,2012-12-12 22:00,2012,12,12,22:00,-3.8,-5.6,87,4,11.3,102.4,Snow Showers
287,-73.75,45.47,MONTREAL/PIERRE ELLIOTT TRUDEAU INTL A,7025250,2012-12-12 23:00,2012,12,12,23:00,-4.3,-5.8,89,4,16.1,102.45,Mainly Clear
288,-73.75,45.47,MONTREAL/PIERRE ELLIOTT TRUDEAU INTL A,7025250,2012-12-13 00:00,2012,12,13,00:00,-6.1,-7.4,90,6,12.9,102.44,Clear
289,-73.75,45.47,MONTREAL/PIERRE ELLIOTT TRUDEAU INTL A,7025250,2012-12-13 01:00,2012,12,13,01:00,-4.3,-5.3,93,11,12.9,102.49,Clear
290,-73.75,45.47,MONTREAL/PIERRE ELLIOTT TRUDEAU INTL A,7025250,2012-12-13 02:00,2012,12,13,02:00,-5.9,-6.6,95,6,11.3,102.57,Clear
291,-73.75,45.47,MONTREAL/PIERRE ELLIOTT TRUDEAU INTL A,7025250,2012-12-13 03:00,2012,12,13,03:00,-6.1,-7.0,93,11,11.3,102.61,Clear
292,-73.75,45.47,MONTREAL/PIERRE ELLIOTT TRUDEAU INTL A,7025250,2012-12-13 04:00,2012,12,13,04:00,-5.4,-6.2,94,6,8.0,102.61,Fog
293,-73.75,45.47,MONTREAL/PIERRE ELLIOTT TRUDEAU INTL A,7025250,2012-12-13 05:00,2012,12,13,05:00,-6.0,-6.8,94,4,9.7,102.63,Fog
294,-73.75,45.47,MONTREAL/PIERRE ELLIOTT TRUDEAU INTL A,7025250,2012-12-13 06:00,2012,12,13,06:00,-6.4,-7.5,92,4,9.7,102.66,Fog
295,-73.75,45.47,MONTREAL/PIERRE ELLIOTT TRUDEAU INTL A,7025250,2012-12-13 07:00,2012,12,13,07:00,-6.1,-7.4,90,4,9.7,102.69,Fog
296,-73.75,45.47,MONTREAL/PIERRE ELLIOTT TRUDEAU INTL A,7025250,2012-12-13 08:00,2012,12,13,08:00,-6.0,-7.1,92,4,8.0,102.67,Fog
297,-73.75,45.47,MONTREAL/PIERRE ELLIOTT TRUDEAU INTL A,7025250,2012-12-13 09:00,2012,12,13,09:00,-4.7,-6.0,91,4,8.0,102.68,Fog
298,-73.75,45.47,MONTREAL/PIERRE ELLIOTT TRUDEAU INTL A,7025250,2012-12-13 10:00,2012,12,13,10:00,-2.3,-4.2,87,4,6.4,102.64,Fog
299,-73.75,45.47,MONTREAL/PIERRE ELLIOTT TRUDEAU INTL A,7025250,2012-12-13 11:00,2012,12,13,11:00,-0.7,-3.1,84,9,9.7,102.55,Haze
300,-73.75,45.47,MONTREAL/PIERRE ELLIOTT TRUDEAU INTL A,7025250,2012-12-13 12:00,2012,12,13,12:00,-0.4,-2.9,83,9,9.7,102.46,Haze
301,-73.75,45.47,MONTREAL/PIERRE ELLIOTT TRUDEAU INTL A,7025250,2012-12-13 13:00,2012,12,13,13:00,0.1,-2.5,83,9,12.9,102.36,Cloudy
302,-73.75,45.47,MONTREAL/PIERRE ELLIOTT TRUDEAU INTL A,7025250,2012-12-13 14:00,2012,12,13,14:00,1.1,-2.1,79,11,19.3,102.28,Mostly Cloudy
303,-73.75,45.47,MONTREAL/PIERRE ELLIOTT TRUDEAU INTL A,7025250,2012-12-13 15:00,2012,12,13,15:00,2.1,-1.9,75,7,19.3,102.25,Mainly Clear
304,-73.75,45.47,MONTREAL/PIERRE ELLIOTT TRUDEAU INTL A,7025250,2012-12-13 16:00,2012,12,13,16:00,1.3,-2.1,78,9,19.3,102.21,Mainly Clear
305,-73.75,45.47,MONTREAL/PIERRE ELLIOTT TRUDEAU INTL A,7025250,2012-12-13 17:00,2012,12,13,17:00,1.4,-1.8,79,19,25.0,102.1,Mainly Clear
306,-73.75,45.47,MONTREAL/PIERRE ELLIOTT TRUDEAU INTL A,7025250,2012-12-13 18:00,2012,12,13,18:00,1.1,-2.0,80,19,25.0,102.01,Mostly Cloudy
307,-73.75,45.47,MONTREAL/PIERRE ELLIOTT TRUDEAU INTL A,7025250,2012-12-13 19:00,2012,12,13,19:00,1.7,-2.5,74,15,25.0,101.99,Mainly Clear
308,-73.75,45.47,MONTREAL/PIERRE ELLIOTT TRUDEAU INTL A,7025250,2012-12-13 20:00,2012,12,13,20:00,0.4,-2.5,81,11,25.0,101.98,Mainly Clear
309,-73.75,45.47,MONTREAL/PIERRE ELLIOTT TRUDEAU INTL A,7025250,2012-12-13 21:00,2012,12,13,21:00,0.6,-2.3,81,15,25.0,101.9,Mostly Cloudy
310,-73.75,45.47,MONTREAL/PIERRE ELLIOTT TRUDEAU INTL A,7025250,2012-12-13 22:00,2012,12,13,22:00,0.2,-2.5,82,15,25.0,101.84,Cloudy
311,-73.75,45.47,MONTREAL/PIERRE ELLIOTT TRUDEAU INTL A,7025250,2012-12-13 23:00,2012,12,13,23:00,0.7,-2.3,80,17,25.0,101.77,Cloudy
312,-73.75,45.47,MONTREAL/PIERRE ELLIOTT TRUDEAU INTL A,7025250,2012-12-14 00:00,2012,12,14,00:00,0.8,-2.6,78,15,25.0,101.71,Cloudy
313,-73.75,45.47,MONTREAL/PIERRE ELLIOTT TRUDEAU INTL A,7025250,2012-12-14 01:00,2012,12,14,01:00,0.0,-3.0,80,17,25.0,101.62,Mostly Cloudy
314,-73.75,45.47,MONTREAL/PIERRE ELLIOTT TRUDEAU INTL A,7025250,2012-12-14 02:00,2012,12,14,02:00,-0.6,-3.2,83,15,25.0,101.59,Cloudy
315,-73.75,45.47,MONTREAL/PIERRE ELLIOTT TRUDEAU INTL A,7025250,2012-12-14 03:00,2012,12,14,03:00,-0.8,-3.4,83,15,25.0,101.51,Cloudy
316,-73.75,45.47,MONTREAL/PIERRE ELLIOTT TRUDEAU INTL A,7025250,2012-12-14 04:00,2012,12,14,04:00,-0.2,-3.5,78,20,25.0,101.44,Mostly Cloudy
317,-73.75,45.47,MONTREAL/PIERRE ELLIOTT TRUDEAU INTL A,7025250,2012-12-14 05:00,2012,12,14,05:00,0.3,-3.3,77,11,25.0,101.4,Cloudy
318,-73.75,45.47,MONTREAL/PIERRE ELLIOTT TRUDEAU INTL A,7025250,2012-12-14 06:00,2012,12,14,06:00,0.5,-3.5,75,15,25.0,101.36,Cloudy
319,-73.75,45.47,MONTREAL/PIERRE ELLIOTT TRUDEAU INTL A,7025250,2012-12-14 07:00,2012,12,14,07:00,2.0,-3.6,66,20,48.3,101.3,Mainly Clear
320,-73.75,45.47,MONTREAL/PIERRE ELLIOTT TRUDEAU INTL A,7025250,2012-12-14 08:00,2012,12,14,08:00,1.5,-3.5,69,13,48.3,101.32,Mostly Cloudy
321,-73.75,45.47,MONTREAL/PIERRE ELLIOTT TRUDEAU INTL A,7025250,2012-12-14 09:00,2012,12,14,09:00,2.3,-3.1,67,26,48.3,101.32,Mostly Cloudy
322,-73.75,45.47,MONTREAL/PIERRE ELLIOTT TRUDEAU INTL A,7025250,2012-12-14 10:00,2012,12,14,10:00,2.8,-2.4,69,22,24.1,101.34,Cloudy
323,-73.75,45.47,MONTREAL/PIERRE ELLIOTT TRUDEAU INTL A,7025250,2012-12-14 11:00,2012,12,14,11:00,2.6,-2.0,72,22,24.1,101.35,Rain Showers
324,-73.75,45.47,MONTREAL/PIERRE ELLIOTT TRUDEAU INTL A,7025250,2012-12-14 12:00,2012,12,14,12:00,2.8,-1.5,73,17,24.1,101.33,Cloudy
325,-73.75,45.47,MONTREAL/PIERRE ELLIOTT TRUDEAU INTL A,7025250,2012-12-14 13:00,2012,12,14,13:00,3.3,-1.2,72,22,24.1,101.33,Mostly Cloudy
326,-73.75,45.47,MONTREAL/PIERRE ELLIOTT TRUDEAU INTL A,7025250,2012-12-14 14:00,2012,12,14,14:00,3.2,-1.1,73,19,24.1,101.38,Mostly Cloudy
327,-73.75,45.47,MONTREAL/PIERRE ELLIOTT TRUDEAU INTL A,7025250,2012-12-14 15:00,2012,12,14,15:00,3.0,-1.0,75,15,24.1,101.44,Cloudy
328,-73.75,45.47,MONTREAL/PIERRE ELLIOTT TRUDEAU INTL A,7025250,2012-12-14 16:00,2012,12,14,16:00,2.8,-1.0,76,17,24.1,101.53,Mostly Cloudy
329,-73.75,45.47,MONTREAL/PIERRE ELLIOTT TRUDEAU INTL A,7025250,2012-12-14 17:00,2012,12,14,17:00,2.5,-0.6,80,13,25.0,101.61,Mostly Cloudy
330,-73.75,45.47,MONTREAL/PIERRE ELLIOTT TRUDEAU INTL A,7025250,2012-12-14 18:00,2012,12,14,18:00,2.3,-1.3,77,17,25.0,101.7,Cloudy
331,-73.75,45.47,MONTREAL/PIERRE ELLIOTT TRUDEAU INTL A,7025250,2012-12-14 19:00,2012,12,14,19:00,1.8,-3.6,67,19,25.0,101.76,Mostly Cloudy
332,-73.75,45.47,MONTREAL/PIERRE ELLIOTT TRUDEAU INTL A,7025250,2012-12-14 20:00,2012,12,14,20:00,0.8,-4.7,67,15,25.0,101.85,Mostly Cloudy
333,-73.75,45.47,MONTREAL/PIERRE ELLIOTT TRUDEAU INTL A,7025250,2012-12-14 21:00,2012,12,14,21:00,-1.5,-6.4,69,22,25.0,101.96,Mainly Clear
334,-73.75,45.47,MONTREAL/PIERRE ELLIOTT TRUDEAU INTL A,7025250,2012-12-14 22:00,2012,12,14,22:00,-2.9,-7.4,71,20,25.0,102.06,Mainly Clear
335,-73.75,45.47,MONTREAL/PIERRE ELLIOTT TRUDEAU INTL A,7025250,2012-12-14 23:00,2012,12,14,23:00,-4.3,-8.6,72,22,25.0,102.13,Mainly Clear
336,-73.75,45.47,MONTREAL/PIERRE ELLIOTT TRUDEAU INTL A,7025250,2012-12-15 00:00,2012,12,15,00:00,-5.3,-10.5,67,20,25.0,102.18,Clear
337,-73.75,45.47,MONTREAL/PIERRE ELLIOTT TRUDEAU INTL A,7025250,2012-12-15 01:00,2012,12,15,01:00,-6.5,-11.4,68,17,25.0,102.27,Clear
338,-73.75,45.47,MONTREAL/PIERRE ELLIOTT TRUDEAU INTL A,7025250,2012-12-15 02:00,2012,12,15,02:00,-7.1,-11.8,69,19,25.0,102.36,Clear
339,-73.75,45.47,MONTREAL/PIERRE ELLIOTT TRUDEAU INTL A,7025250,2012-12-15 03:00,2012,12,15,03:00,-8.0,-13.2,66,17,25.0,102.41,Clear
340,-73.75,45.47,MONTREAL/PIERRE ELLIOTT TRUDEAU INTL A,7025250,2012-12-15 04:00,2012,12,15,04:00,-8.5,-13.8,66,15,25.0,102.42,Clear
341,-73.75,45.47,MONTREAL/PIERRE ELLIOTT TRUDEAU INTL A,7025250,2012-12-15 05:00,2012,12,15,05:00,-9.3,-14.2,67,20,25.0,102.47,Clear
342,-73.75,45.47,MONTREAL/PIERRE ELLIOTT TRUDEAU INTL A,7025250,2012-12-15 06:00,2012,12,15,06:00,-9.9,-14.5,69,17,25.0,102.58,Clear
343,-73.75,45.47,MONTREAL/PIERRE ELLIOTT TRUDEAU INTL A,7025250,2012-12-15 07:00,2012,12,15,07:00,-10.2,-15.1,67,19,48.3,102.63,Clear
344,-73.75,45.47,MONTREAL/PIERRE ELLIOTT TRUDEAU INTL A,7025250,2012-12-15 08:00,2012,12,15,08:00,-10.7,-15.6,67,13,48.3,102.69,Clear
345,-73.75,45.47,MONTREAL/PIERRE ELLIOTT TRUDEAU INTL A,7025250,2012-12-15 09:00,2012,12,15,09:00,-10.4,-15.9,64,19,48.3,102.74,Clear
346,-73.75,45.47,MONTREAL/PIERRE ELLIOTT TRUDEAU INTL A,7025250,2012-12-15 10:00,2012,12,15,10:00,-9.9,-15.2,65,13,48.3,102.78,Mainly Clear
347,-73.75,45.47,MONTREAL/PIERRE ELLIOTT TRUDEAU INTL A,7025250,2012-12-15 11:00,2012,12,15,11:00,-9.3,-14.9,64,19,48.3,102.74,Mainly Clear
348,-73.75,45.47,MONTREAL/PIERRE ELLIOTT TRUDEAU INTL A,7025250,2012-12-15 12:00,2012,12,15,12:00,-9.1,-15.1,62,19,48.3,102.71,Mainly Clear
349,-73.75,45.47,MONTREAL/PIERRE ELLIOTT TRUDEAU INTL A,7025250,2012-12-15 13:00,2012,12,15,13:00,-8.4,-14.7,60,19,48.3,102.64,Clear
350,-73.75,45.47,MONTREAL/PIERRE ELLIOTT TRUDEAU INTL A,7025250,2012-12-15 14:00,2012,12,15,14:00,-8.0,-14.2,61,13,48.3,102.59,Mainly Clear
351,-73.75,45.47,MONTREAL/PIERRE ELLIOTT TRUDEAU INTL A,7025250,2012-12-15 15:00,2012,12,15,15:00,-7.8,-13.7,63,15,48.3,102.55,Mainly Clear
352,-73.75,45.47,MONTREAL/PIERRE ELLIOTT TRUDEAU INTL A,7025250,2012-12-15 16:00,2012,12,15,16:00,-8.5,-14.8,60,20,48.3,102.54,Mainly Clear
353,-73.75,45.47,MONTREAL/PIERRE ELLIOTT TRUDEAU INTL A,7025250,2012-12-15 17:00,2012,12,15,17:00,-8.7,-15.3,59,15,25.0,102.53,Mainly Clear
354,-73.75,45.47,MONTREAL/PIERRE ELLIOTT TRUDEAU INTL A,7025250,2012-12-15 18:00,2012,12,15,18:00,-9.1,-15.1,62,17,25.0,102.54,Clear
355,-73.75,45.47,MONTREAL/PIERRE ELLIOTT TRUDEAU INTL A,7025250,2012-12-15 19:00,2012,12,15,19:00,-9.1,-14.7,64,20,25.0,102.58,Mainly Clear
356,-73.75,45.47,MONTREAL/PIERRE ELLIOTT TRUDEAU INTL A,7025250,2012-12-15 20:00,2012,12,15,20:00,-8.7,-15.1,60,20,25.0,102.5,Clear
357,-73.75,45.47,MONTREAL/PIERRE ELLIOTT TRUDEAU INTL A,7025250,2012-12-15 21:00,2012,12,15,21:00,-9.0,-15.5,59,24,25.0,102.46,Mainly Clear
358,-73.75,45.47,MONTREAL/PIERRE ELLIOTT TRUDEAU INTL A,7025250,2012-12-15 22:00,2012,12,15,22:00,-9.5,-15.0,64,19,25.0,102.47,Mostly Cloudy
359,-73.75,45.47,MONTREAL/PIERRE ELLIOTT TRUDEAU INTL A,7025250,2012-12-15 23:00,2012,12,15,23:00,-9.9,-15.0,66,26,25.0,102.38,Cloudy
360,-73.75,45.47,MONTREAL/PIERRE ELLIOTT TRUDEAU INTL A,7025250,2012-12-16 00:00,2012,12,16,00:00,-10.0,-14.9,67,24,25.0,102.31,Cloudy
361,-73.75,45.47,MONTREAL/PIERRE ELLIOTT TRUDEAU INTL A,7025250,2012-12-16 01:00,2012,12,16,01:00,-10.1,-14.8,68,24,25.0,102.27,Cloudy
362,-73.75,45.47,MONTREAL/PIERRE ELLIOTT TRUDEAU INTL A,7025250,2012-12-16 02:00,2012,12,16,02:00,-10.1,-14.6,70,28,25.0,102.17,Cloudy
363,-73.75,45.47,MONTREAL/PIERRE ELLIOTT TRUDEAU INTL A,7025250,2012-12-16 03:00,2012,12,16,03:00,-10.1,-14.5,70,28,25.0,102.15,Cloudy
364,-73.75,45.47,MONTREAL/PIERRE ELLIOTT TRUDEAU INTL A,7025250,2012-12-16 04:00,2012,12,16,04:00,-10.1,-14.5,70,24,25.0,102.08,Cloudy
365,-73.75,45.47,MONTREAL/PIERRE ELLIOTT TRUDEAU INTL A,7025250,2012-12-16 05:00,2012,12,16,05:00,-10.0,-14.4,70,22,25.0,102.0,Cloudy
366,-73.75,45.47,MONTREAL/PIERRE ELLIOTT TRUDEAU INTL A,7025250,2012-12-16 06:00,2012,12,16,06:00,-9.9,-14.6,68,35,25.0,101.93,Cloudy
367,-73.75,45.47,MONTREAL/PIERRE ELLIOTT TRUDEAU INTL A,7025250,2012-12-16 07:00,2012,12,16,07:00,-9.8,-14.9,66,32,25.0,101.89,Cloudy
368,-73.75,45.47,MONTREAL/PIERRE ELLIOTT TRUDEAU INTL A,7025250,2012-12-16 08:00,2012,12,16,08:00,-9.5,-14.8,65,32,48.3,101.85,Cloudy
369,-73.75,45.47,MONTREAL/PIERRE ELLIOTT TRUDEAU INTL A,7025250,2012-12-16 09:00,2012,12,16,09:00,-9.4,-14.7,65,33,19.3,101.82,Snow
370,-73.75,45.47,MONTREAL/PIERRE ELLIOTT TRUDEAU INTL A,7025250,2012-12-16 10:00,2012,12,16,10:00,-7.7,-13.8,62,32,24.1,101.8,Cloudy
371,-73.75,45.47,MONTREAL/PIERRE ELLIOTT TRUDEAU INTL A,7025250,2012-12-16 11:00,2012,12,16,11:00,-8.2,-13.9,63,35,24.1,101.71,Snow
372,-73.75,45.47,MONTREAL/PIERRE ELLIOTT TRUDEAU INTL A,7025250,2012-12-16 12:00,2012,12,16,12:00,-8.5,-12.2,75,32,4.8,101.62,Snow
373,-73.75,45.47,MONTREAL/PIERRE ELLIOTT TRUDEAU INTL A,7025250,2012-12-16 13:00,2012,12,16,13:00,-8.0,-11.2,78,26,12.9,101.54,Snow
374,-73.75,45.47,MONTREAL/PIERRE ELLIOTT TRUDEAU INTL A,7025250,2012-12-16 14:00,2012,12,16,14:00,-7.7,-10.2,82,32,4.8,101.45,Snow
375,-73.75,45.47,MONTREAL/PIERRE ELLIOTT TRUDEAU INTL A,7025250,2012-12-16 15:00,2012,12,16,15:00,-7.6,-9.4,87,32,3.2,101.38,"Snow,Fog"
376,-73.75,45.47,MONTREAL/PIERRE ELLIOTT TRUDEAU INTL A,7025250,2012-12-16 16:00,2012,12,16,16:00,-7.0,-8.7,88,35,4.0,101.33,"Snow,Fog"
377,-73.75,45.47,MONTREAL/PIERRE ELLIOTT TRUDEAU INTL A,7025250,2012-12-16 17:00,2012,12,16,17:00,-6.4,-8.0,88,30,4.8,101.28,"Snow,Fog"
378,-73.75,45.47,MONTREAL/PIERRE ELLIOTT TRUDEAU INTL A,7025250,2012-12-16 18:00,2012,12,16,18:00,-5.9,-7.4,89,30,4.0,101.25,"Snow,Fog"
379,-73.75,45.47,MONTREAL/PIERRE ELLIOTT TRUDEAU INTL A,7025250,2012-12-16 19:00,2012,12,16,19:00,-5.1,-6.6,89,22,16.1,101.2,Snow
380,-73.75,45.47,MONTREAL/PIERRE ELLIOTT TRUDEAU INTL A,7025250,2012-12-16 20:00,2012,12,16,20:00,-4.7,-6.0,91,28,12.9,101.18,Snow
381,-73.75,45.47,MONTREAL/PIERRE ELLIOTT TRUDEAU INTL A,7025250,2012-12-16 21:00,2012,12,16,21:00,-4.0,-5.4,90,24,16.1,101.17,Snow
382,-73.75,45.47,MONTREAL/PIERRE ELLIOTT TRUDEAU INTL A,7025250,2012-12-16 22:00,2012,12,16,22:00,-3.6,-4.7,92,22,9.7,101.12,Snow
383,-73.75,45.47,MONTREAL/PIERRE ELLIOTT TRUDEAU INTL A,7025250,2012-12-16 23:00,2012,12,16,23:00,-3.1,-4.2,92,24,12.9,101.09,Cloudy
384,-73.75,45.47,MONTREAL/PIERRE ELLIOTT TRUDEAU INTL A,7025250,2012-12-17 00:00,2012,12,17,00:00,-2.3,-3.3,93,24,12.9,101.02,Freezing Drizzle
385,-73.75,45.47,MONTREAL/PIERRE ELLIOTT TRUDEAU INTL A,7025250,2012-12-17 01:00,2012,12,17,01:00,-2.3,-3.3,93,26,9.7,101.01,"Freezing Rain,Fog"
386,-73.75,45.47,MONTREAL/PIERRE ELLIOTT TRUDEAU INTL A,7025250,2012-12-17 02:00,2012,12,17,02:00,-2.2,-3.3,92,24,11.3,101.0,Freezing Rain
387,-73.75,45.47,MONTREAL/PIERRE ELLIOTT TRUDEAU INTL A,7025250,2012-12-17 03:00,2012,12,17,03:00,-2.6,-3.7,92,28,8.0,100.95,"Freezing Rain,Ice Pellets,Fog"
388,-73.75,45.47,MONTREAL/PIERRE ELLIOTT TRUDEAU INTL A,7025250,2012-12-17 04:00,2012,12,17,04:00,-3.0,-4.1,92,24,6.4,100.91,"Snow,Ice Pellets"
389,-73.75,45.47,MONTREAL/PIERRE ELLIOTT TRUDEAU INTL A,7025250,2012-12-17 05:00,2012,12,17,05:00,-3.0,-4.2,91,24,8.0,100.89,"Snow,Ice Pellets"
390,-73.75,45.47,MONTREAL/PIERRE ELLIOTT TRUDEAU INTL A,7025250,2012-12-17 06:00,2012,12,17,06:00,-2.1,-3.2,92,19,8.0,100.88,"Snow,Ice Pellets"
391,-73.75,45.47,MONTREAL/PIERRE ELLIOTT TRUDEAU INTL A,7025250,2012-12-17 07:00,2012,12,17,07:00,-0.3,-1.3,93,13,12.9,100.88,Cloudy
392,-73.75,45.47,MONTREAL/PIERRE ELLIOTT TRUDEAU INTL A,7025250,2012-12-17 08:00,2012,12,17,08:00,0.3,-0.5,94,20,3.2,100.84,"Drizzle,Fog"
393,-73.75,45.47,MONTREAL/PIERRE ELLIOTT TRUDEAU INTL A,7025250,2012-12-17 09:00,2012,12,17,09:00,0.4,-0.7,92,20,4.0,100.79,"Drizzle,Ice Pellets,Fog"
394,-73.75,45.47,MONTREAL/PIERRE ELLIOTT TRUDEAU INTL A,7025250,2012-12-17 10:00,2012,12,17,10:00,0.5,-0.8,91,20,3.6,100.78,"Snow,Fog"
395,-73.75,45.47,MONTREAL/PIERRE ELLIOTT TRUDEAU INTL A,7025250,2012-12-17 11:00,2012,12,17,11:00,0.4,-0.4,94,19,1.6,100.76,"Snow,Fog"
396,-73.75,45.47,MONTREAL/PIERRE ELLIOTT TRUDEAU INTL A,7025250,2012-12-17 12:00,2012,12,17,12:00,0.4,-0.3,95,22,2.0,100.71,"Snow,Fog"
397,-73.75,45.47,MONTREAL/PIERRE ELLIOTT TRUDEAU INTL A,7025250,2012-12-17 13:00,2012,12,17,13:00,0.6,-0.1,95,17,4.8,100.66,"Snow,Fog"
398,-73.75,45.47,MONTREAL/PIERRE ELLIOTT TRUDEAU INTL A,7025250,2012-12-17 14:00,2012,12,17,14:00,0.8,0.1,95,19,4.0,100.65,"Snow,Fog"
399,-73.75,45.47,MONTREAL/PIERRE ELLIOTT TRUDEAU INTL A,7025250,2012-12-17 15:00,2012,12,17,15:00,0.9,0.2,95,19,11.3,100.63,"Drizzle,Snow"
400,-73.75,45.47,MONTREAL/PIERRE ELLIOTT TRUDEAU INTL A,7025250,2012-12-17 16:00,2012,12,17,16:00,1.3,0.4,94,15,12.9,100.62,Drizzle
401,-73.75,45.47,MONTREAL/PIERRE ELLIOTT TRUDEAU INTL A,7025250,2012-12-17 17:00,2012,12,17,17:00,1.9,0.7,92,17,16.1,100.57,Cloudy
402,-73.75,45.47,MONTREAL/PIERRE ELLIOTT TRUDEAU INTL A,7025250,2012-12-17 18:00,2012,12,17,18:00,2.0,0.6,90,19,16.1,100.61,Drizzle
403,-73.75,45.47,MONTREAL/PIERRE ELLIOTT TRUDEAU INTL A,7025250,2012-12-17 19:00,2012,12,17,19:00,2.1,0.4,88,15,16.1,100.63,Drizzle
404,-73.75,45.47,MONTREAL/PIERRE ELLIOTT TRUDEAU INTL A,7025250,2012-12-17 20:00,2012,12,17,20:00,2.3,0.5,88,19,16.1,100.64,Drizzle
405,-73.75,45.47,MONTREAL/PIERRE ELLIOTT TRUDEAU INTL A,7025250,2012-12-17 21:00,2012,12,17,21:00,1.7,0.3,90,20,16.1,100.58,Cloudy
406,-73.75,45.47,MONTREAL/PIERRE ELLIOTT TRUDEAU INTL A,7025250,2012-12-17 22:00,2012,12,17,22:00,1.9,0.1,88,13,19.3,100.56,Cloudy
407,-73.75,45.47,MONTREAL/PIERRE ELLIOTT TRUDEAU INTL A,7025250,2012-12-17 23:00,2012,12,17,23:00,1.2,-0.1,91,20,16.1,100.5,Cloudy
408,-73.75,45.47,MONTREAL/PIERRE ELLIOTT TRUDEAU INTL A,7025250,2012-12-18 00:00,2012,12,18,00:00,0.6,-0.5,92,19,16.1,100.44,Cloudy
409,-73.75,45.47,MONTREAL/PIERRE ELLIOTT TRUDEAU INTL A,7025250,2012-12-18 01:00,2012,12,18,01:00,0.1,-0.9,93,24,19.3,100.37,Cloudy
410,-73.75,45.47,MONTREAL/PIERRE ELLIOTT TRUDEAU INTL A,7025250,2012-12-18 02:00,2012,12,18,02:00,0.4,-0.9,91,24,19.3,100.32,Cloudy
411,-73.75,45.47,MONTREAL/PIERRE ELLIOTT TRUDEAU INTL A,7025250,2012-12-18 03:00,2012,12,18,03:00,0.4,-0.9,91,24,16.1,100.24,Rain
412,-73.75,45.47,MONTREAL/PIERRE ELLIOTT TRUDEAU INTL A,7025250,2012-12-18 04:00,2012,12,18,04:00,0.5,-0.8,91,24,11.3,100.15,Rain
413,-73.75,45.47,MONTREAL/PIERRE ELLIOTT TRUDEAU INTL A,7025250,2012-12-18 05:00,2012,12,18,05:00,0.6,-0.6,92,24,9.7,100.12,"Rain,Ice Pellets"
414,-73.75,45.47,MONTREAL/PIERRE ELLIOTT TRUDEAU INTL A,7025250,2012-12-18 06:00,2012,12,18,06:00,0.5,-0.4,94,24,3.6,100.07,Snow
415,-73.75,45.47,MONTREAL/PIERRE ELLIOTT TRUDEAU INTL A,7025250,2012-12-18 07:00,2012,12,18,07:00,0.5,-0.2,95,24,3.2,100.0,Snow
416,-73.75,45.47,MONTREAL/PIERRE ELLIOTT TRUDEAU INTL A,7025250,2012-12-18 08:00,2012,12,18,08:00,0.7,0.0,95,24,2.8,99.92,Snow
417,-73.75,45.47,MONTREAL/PIERRE ELLIOTT TRUDEAU INTL A,7025250,2012-12-18 09:00,2012,12,18,09:00,0.7,0.1,96,22,2.0,99.88,Snow
418,-73.75,45.47,MONTREAL/PIERRE ELLIOTT TRUDEAU INTL A,7025250,2012-12-18 10:00,2012,12,18,10:00,0.6,0.0,96,24,1.2,99.86,Snow
419,-73.75,45.47,MONTREAL/PIERRE ELLIOTT TRUDEAU INTL A,7025250,2012-12-18 11:00,2012,12,18,11:00,0.5,-0.2,95,22,1.2,99.76,Snow
420,-73.75,45.47,MONTREAL/PIERRE ELLIOTT TRUDEAU INTL A,7025250,2012-12-18 12:00,2012,12,18,12:00,0.8,0.0,94,32,4.8,99.64,Snow
421,-73.75,45.47,MONTREAL/PIERRE ELLIOTT TRUDEAU INTL A,7025250,2012-12-18 13:00,2012,12,18,13:00,1.0,0.0,93,26,4.0,99.56,Snow
422,-73.75,45.47,MONTREAL/PIERRE ELLIOTT TRUDEAU INTL A,7025250,2012-12-18 14:00,2012,12,18,14:00,1.0,0.2,94,24,4.0,99.53,Snow
423,-73.75,45.47,MONTREAL/PIERRE ELLIOTT TRUDEAU INTL A,7025250,2012-12-18 15:00,2012,12,18,15:00,1.1,0.2,94,22,4.8,99.51,Snow
424,-73.75,45.47,MONTREAL/PIERRE ELLIOTT TRUDEAU INTL A,7025250,2012-12-18 16:00,2012,12,18,16:00,1.1,0.1,93,26,8.0,99.48,"Rain,Snow"
425,-73.75,45.47,MONTREAL/PIERRE ELLIOTT TRUDEAU INTL A,7025250,2012-12-18 17:00,2012,12,18,17:00,1.2,0.3,94,22,8.0,99.48,"Rain,Snow"
426,-73.75,45.47,MONTREAL/PIERRE ELLIOTT TRUDEAU INTL A,7025250,2012-12-18 18:00,2012,12,18,18:00,1.4,0.5,94,22,8.0,99.49,"Rain,Snow"
427,-73.75,45.47,MONTREAL/PIERRE ELLIOTT TRUDEAU INTL A,7025250,2012-12-18 19:00,2012,12,18,19:00,1.4,0.7,95,15,8.0,99.53,Rain
428,-73.75,45.47,MONTREAL/PIERRE ELLIOTT TRUDEAU INTL A,7025250,2012-12-18 20:00,2012,12,18,20:00,1.3,0.7,96,15,6.4,99.54,Drizzle
429,-73.75,45.47,MONTREAL/PIERRE ELLIOTT TRUDEAU INTL A,7025250,2012-12-18 21:00,2012,12,18,21:00,1.0,0.6,97,13,3.2,99.58,"Drizzle,Snow,Fog"
430,-73.75,45.47,MONTREAL/PIERRE ELLIOTT TRUDEAU INTL A,7025250,2012-12-18 22:00,2012,12,18,22:00,0.8,0.4,97,15,3.2,99.6,"Drizzle,Snow,Fog"
431,-73.75,45.47,MONTREAL/PIERRE ELLIOTT TRUDEAU INTL A,7025250,2012-12-18 23:00,2012,12,18,23:00,0.8,0.5,98,11,3.2,99.64,"Drizzle,Snow,Fog"
432,-73.75,45.47,MONTREAL/PIERRE ELLIOTT TRUDEAU INTL A,7025250,2012-12-19 00:00,2012,12,19,00:00,0.6,0.2,97,9,4.0,99.65,"Drizzle,Snow,Fog"
433,-73.75,45.47,MONTREAL/PIERRE ELLIOTT TRUDEAU INTL A,7025250,2012-12-19 01:00,2012,12,19,01:00,0.5,0.1,97,7,6.4,99.71,"Drizzle,Snow,Fog"
434,-73.75,45.47,MONTREAL/PIERRE ELLIOTT TRUDEAU INTL A,7025250,2012-12-19 02:00,2012,12,19,02:00,0.4,0.1,98,7,8.0,99.78,"Drizzle,Snow,Fog"
435,-73.75,45.47,MONTREAL/PIERRE ELLIOTT TRUDEAU INTL A,7025250,2012-12-19 03:00,2012,12,19,03:00,0.4,0.0,97,9,4.8,99.82,"Drizzle,Snow,Fog"
436,-73.75,45.47,MONTREAL/PIERRE ELLIOTT TRUDEAU INTL A,7025250,2012-12-19 04:00,2012,12,19,04:00,0.4,0.0,97,11,4.0,99.87,"Drizzle,Snow,Fog"
437,-73.75,45.47,MONTREAL/PIERRE ELLIOTT TRUDEAU INTL A,7025250,2012-12-19 05:00,2012,12,19,05:00,0.3,-0.1,97,11,3.2,99.95,"Drizzle,Snow,Fog"
438,-73.75,45.47,MONTREAL/PIERRE ELLIOTT TRUDEAU INTL A,7025250,2012-12-19 06:00,2012,12,19,06:00,0.4,-0.1,96,9,2.4,100.05,"Drizzle,Snow,Fog"
439,-73.75,45.47,MONTREAL/PIERRE ELLIOTT TRUDEAU INTL A,7025250,2012-12-19 07:00,2012,12,19,07:00,0.4,0.0,97,11,3.2,100.15,"Drizzle,Snow,Fog"
440,-73.75,45.47,MONTREAL/PIERRE ELLIOTT TRUDEAU INTL A,7025250,2012-12-19 08:00,2012,12,19,08:00,0.5,0.1,97,11,2.4,100.24,"Drizzle,Fog"
441,-73.75,45.47,MONTREAL/PIERRE ELLIOTT TRUDEAU INTL A,7025250,2012-12-19 09:00,2012,12,19,09:00,0.6,0.2,97,13,2.4,100.33,"Drizzle,Fog"
442,-73.75,45.47,MONTREAL/PIERRE ELLIOTT TRUDEAU INTL A,7025250,2012-12-19 10:00,2012,12,19,10:00,0.6,0.2,97,15,2.4,100.42,"Drizzle,Fog"
443,-73.75,45.47,MONTREAL/PIERRE ELLIOTT TRUDEAU INTL A,7025250,2012-12-19 11:00,2012,12,19,11:00,0.8,0.2,96,11,9.7,100.44,Fog
444,-73.75,45.47,MONTREAL/PIERRE ELLIOTT TRUDEAU INTL A,7025250,2012-12-19 12:00,2012,12,19,12:00,0.8,0.0,94,17,19.3,100.53,Cloudy
445,-73.75,45.47,MONTREAL/PIERRE ELLIOTT TRUDEAU INTL A,7025250,2012-12-19 13:00,2012,12,19,13:00,1.0,-0.2,92,11,24.1,100.61,Cloudy
446,-73.75,45.47,MONTREAL/PIERRE ELLIOTT TRUDEAU INTL A,7025250,2012-12-19 14:00,2012,12,19,14:00,1.1,-0.1,92,13,24.1,100.72,Cloudy
447,-73.75,45.47,MONTREAL/PIERRE ELLIOTT TRUDEAU INTL A,7025250,2012-12-19 15:00,2012,12,19,15:00,1.3,-0.1,90,9,24.1,100.83,Drizzle
448,-73.75,45.47,MONTREAL/PIERRE ELLIOTT TRUDEAU INTL A,7025250,2012-12-19 16:00,2012,12,19,16:00,1.3,-0.4,88,7,24.1,100.96,Cloudy
449,-73.75,45.47,MONTREAL/PIERRE ELLIOTT TRUDEAU INTL A,7025250,2012-12-19 17:00,2012,12,19,17:00,1.1,-0.2,91,6,16.1,101.04,Drizzle
450,-73.75,45.47,MONTREAL/PIERRE ELLIOTT TRUDEAU INTL A,7025250,2012-12-19 18:00,2012,12,19,18:00,1.2,0.1,92,9,9.7,101.15,"Drizzle,Snow"
451,-73.75,45.47,MONTREAL/PIERRE ELLIOTT TRUDEAU INTL A,7025250,2012-12-19 19:00,2012,12,19,19:00,0.8,0.3,96,11,4.8,101.26,"Snow,Fog"
452,-73.75,45.47,MONTREAL/PIERRE ELLIOTT TRUDEAU INTL A,7025250,2012-12-19 20:00,2012,12,19,20:00,0.7,0.1,96,11,6.4,101.32,"Snow,Fog"
453,-73.75,45.47,MONTREAL/PIERRE ELLIOTT TRUDEAU INTL A,7025250,2012-12-19 21:00,2012,12,19,21:00,0.6,-0.1,95,13,11.3,101.38,Snow
454,-73.75,45.47,MONTREAL/PIERRE ELLIOTT TRUDEAU INTL A,7025250,2012-12-19 22:00,2012,12,19,22:00,0.6,-0.5,92,9,25.0,101.42,Cloudy
455,-73.75,45.47,MONTREAL/PIERRE ELLIOTT TRUDEAU INTL A,7025250,2012-12-19 23:00,2012,12,19,23:00,0.6,-0.9,90,13,25.0,101.5,Snow
456,-73.75,45.47,MONTREAL/PIERRE ELLIOTT TRUDEAU INTL A,7025250,2012-12-20 00:00,2012,12,20,00:00,0.4,-2.1,83,20,25.0,101.57,Snow
457,-73.75,45.47,MONTREAL/PIERRE ELLIOTT TRUDEAU INTL A,7025250,2012-12-20 01:00,2012,12,20,01:00,0.1,-2.2,84,17,25.0,101.6,Cloudy
458,-73.75,45.47,MONTREAL/PIERRE ELLIOTT TRUDEAU INTL A,7025250,2012-12-20 02:00,2012,12,20,02:00,-0.2,-2.4,85,19,25.0,101.68,Cloudy
459,-73.75,45.47,MONTREAL/PIERRE ELLIOTT TRUDEAU INTL A,7025250,2012-12-20 03:00,2012,12,20,03:00,-0.5,-2.9,84,17,25.0,101.69,Cloudy
460,-73.75,45.47,MONTREAL/PIERRE ELLIOTT TRUDEAU INTL A,7025250,2012-12-20 04:00,2012,12,20,04:00,-0.7,-3.4,82,15,25.0,101.72,Cloudy
461,-73.75,45.47,MONTREAL/PIERRE ELLIOTT TRUDEAU INTL A,7025250,2012-12-20 05:00,2012,12,20,05:00,-1.1,-3.9,81,13,25.0,101.78,Cloudy
462,-73.75,45.47,MONTREAL/PIERRE ELLIOTT TRUDEAU INTL A,7025250,2012-12-20 06:00,2012,12,20,06:00,-1.6,-4.2,82,15,25.0,101.82,Snow
463,-73.75,45.47,MONTREAL/PIERRE ELLIOTT TRUDEAU INTL A,7025250,2012-12-20 07:00,2012,12,20,07:00,-1.8,-4.9,79,20,25.0,101.88,Cloudy
464,-73.75,45.47,MONTREAL/PIERRE ELLIOTT TRUDEAU INTL A,7025250,2012-12-20 08:00,2012,12,20,08:00,-1.9,-4.6,82,15,24.1,101.91,Cloudy
465,-73.75,45.47,MONTREAL/PIERRE ELLIOTT TRUDEAU INTL A,7025250,2012-12-20 09:00,2012,12,20,09:00,-1.7,-4.5,81,13,24.1,101.98,Cloudy
466,-73.75,45.47,MONTREAL/PIERRE ELLIOTT TRUDEAU INTL A,7025250,2012-12-20 10:00,2012,12,20,10:00,-1.4,-4.2,81,7,24.1,101.97,Cloudy
467,-73.75,45.47,MONTREAL/PIERRE ELLIOTT TRUDEAU INTL A,7025250,2012-12-20 11:00,2012,12,20,11:00,-1.1,-4.0,81,4,24.1,101.92,Snow
468,-73.75,45.47,MONTREAL/PIERRE ELLIOTT TRUDEAU INTL A,7025250,2012-12-20 12:00,2012,12,20,12:00,-1.0,-3.9,81,6,24.1,101.83,Cloudy
469,-73.75,45.47,MONTREAL/PIERRE ELLIOTT TRUDEAU INTL A,7025250,2012-12-20 13:00,2012,12,20,13:00,-0.9,-4.0,79,15,24.1,101.65,Cloudy
470,-73.75,45.47,MONTREAL/PIERRE ELLIOTT TRUDEAU INTL A,7025250,2012-12-20 14:00,2012,12,20,14:00,-1.0,-4.3,78,15,24.1,101.62,Cloudy
471,-73.75,45.47,MONTREAL/PIERRE ELLIOTT TRUDEAU INTL A,7025250,2012-12-20 15:00,2012,12,20,15:00,-0.5,-3.8,78,13,24.1,101.55,Cloudy
472,-73.75,45.47,MONTREAL/PIERRE ELLIOTT TRUDEAU INTL A,7025250,2012-12-20 16:00,2012,12,20,16:00,-0.3,-3.3,80,13,24.1,101.56,Cloudy
473,-73.75,45.47,MONTREAL/PIERRE ELLIOTT TRUDEAU INTL A,7025250,2012-12-20 17:00,2012,12,20,17:00,-0.3,-3.2,81,19,25.0,101.38,Mostly Cloudy
474,-73.75,45.47,MONTREAL/PIERRE ELLIOTT TRUDEAU INTL A,7025250,2012-12-20 18:00,2012,12,20,18:00,0.2,-3.0,79,19,25.0,101.25,Mostly Cloudy
475,-73.75,45.47,MONTREAL/PIERRE ELLIOTT TRUDEAU INTL A,7025250,2012-12-20 19:00,2012,12,20,19:00,0.3,-2.7,80,17,25.0,101.23,Mostly Cloudy
476,-73.75,45.47,MONTREAL/PIERRE ELLIOTT TRUDEAU INTL A,7025250,2012-12-20 20:00,2012,12,20,20:00,0.1,-2.4,83,20,25.0,101.12,Mostly Cloudy
477,-73.75,45.47,MONTREAL/PIERRE ELLIOTT TRUDEAU INTL A,7025250,2012-12-20 21:00,2012,12,20,21:00,0.7,-2.3,80,22,25.0,101.0,Cloudy
478,-73.75,45.47,MONTREAL/PIERRE ELLIOTT TRUDEAU INTL A,7025250,2012-12-20 22:00,2012,12,20,22:00,1.1,-2.4,77,20,25.0,100.88,Cloudy
479,-73.75,45.47,MONTREAL/PIERRE ELLIOTT TRUDEAU INTL A,7025250,2012-12-20 23:00,2012,12,20,23:00,1.2,-2.1,79,28,25.0,100.69,Cloudy
480,-73.75,45.47,MONTREAL/PIERRE ELLIOTT TRUDEAU INTL A,7025250,2012-12-21 00:00,2012,12,21,00:00,1.9,-2.1,75,26,25.0,100.6,"Rain,Snow Grains"
481,-73.75,45.47,MONTREAL/PIERRE ELLIOTT TRUDEAU INTL A,7025250,2012-12-21 01:00,2012,12,21,01:00,1.1,-0.7,88,17,6.4,100.47,"Rain,Snow,Ice Pellets"
482,-73.75,45.47,MONTREAL/PIERRE ELLIOTT TRUDEAU INTL A,7025250,2012-12-21 02:00,2012,12,21,02:00,1.0,-0.3,91,20,6.4,100.35,"Rain,Snow"
483,-73.75,45.47,MONTREAL/PIERRE ELLIOTT TRUDEAU INTL A,7025250,2012-12-21 03:00,2012,12,21,03:00,0.9,0.0,94,28,4.8,100.12,"Rain,Snow,Ice Pellets"
484,-73.75,45.47,MONTREAL/PIERRE ELLIOTT TRUDEAU INTL A,7025250,2012-12-21 04:00,2012,12,21,04:00,1.1,-0.1,92,22,6.4,99.98,"Rain,Snow,Ice Pellets"
485,-73.75,45.47,MONTREAL/PIERRE ELLIOTT TRUDEAU INTL A,7025250,2012-12-21 05:00,2012,12,21,05:00,1.3,0.1,92,26,6.4,99.85,"Rain,Snow,Ice Pellets"
486,-73.75,45.47,MONTREAL/PIERRE ELLIOTT TRUDEAU INTL A,7025250,2012-12-21 06:00,2012,12,21,06:00,1.0,0.0,93,22,4.0,99.76,"Rain,Snow"
487,-73.75,45.47,MONTREAL/PIERRE ELLIOTT TRUDEAU INTL A,7025250,2012-12-21 07:00,2012,12,21,07:00,0.9,-0.1,93,32,6.4,99.64,"Rain,Snow"
488,-73.75,45.47,MONTREAL/PIERRE ELLIOTT TRUDEAU INTL A,7025250,2012-12-21 08:00,2012,12,21,08:00,0.8,-0.2,93,32,2.4,99.5,"Rain,Snow"
489,-73.75,45.47,MONTREAL/PIERRE ELLIOTT TRUDEAU INTL A,7025250,2012-12-21 09:00,2012,12,21,09:00,0.8,-0.2,93,33,2.4,99.38,"Rain,Snow"
490,-73.75,45.47,MONTREAL/PIERRE ELLIOTT TRUDEAU INTL A,7025250,2012-12-21 10:00,2012,12,21,10:00,1.0,0.0,93,32,12.9,99.24,Snow
491,-73.75,45.47,MONTREAL/PIERRE ELLIOTT TRUDEAU INTL A,7025250,2012-12-21 11:00,2012,12,21,11:00,0.9,0.0,94,30,2.0,99.01,Snow
492,-73.75,45.47,MONTREAL/PIERRE ELLIOTT TRUDEAU INTL A,7025250,2012-12-21 12:00,2012,12,21,12:00,1.3,0.3,93,41,9.7,98.67,Snow
493,-73.75,45.47,MONTREAL/PIERRE ELLIOTT TRUDEAU INTL A,7025250,2012-12-21 13:00,2012,12,21,13:00,1.8,0.3,90,41,19.3,98.36,Snow
494,-73.75,45.47,MONTREAL/PIERRE ELLIOTT TRUDEAU INTL A,7025250,2012-12-21 14:00,2012,12,21,14:00,2.1,0.4,88,41,19.3,98.16,Rain
495,-73.75,45.47,MONTREAL/PIERRE ELLIOTT TRUDEAU INTL A,7025250,2012-12-21 15:00,2012,12,21,15:00,1.8,0.2,89,33,12.9,98.1,Rain
496,-73.75,45.47,MONTREAL/PIERRE ELLIOTT TRUDEAU INTL A,7025250,2012-12-21 16:00,2012,12,21,16:00,1.4,0.2,92,43,9.7,97.93,Rain
497,-73.75,45.47,MONTREAL/PIERRE ELLIOTT TRUDEAU INTL A,7025250,2012-12-21 17:00,2012,12,21,17:00,1.3,0.2,92,46,12.9,97.76,Rain
498,-73.75,45.47,MONTREAL/PIERRE ELLIOTT TRUDEAU INTL A,7025250,2012-12-21 18:00,2012,12,21,18:00,1.4,0.3,92,46,25.0,97.56,Rain
499,-73.75,45.47,MONTREAL/PIERRE ELLIOTT TRUDEAU INTL A,7025250,2012-12-21 19:00,2012,12,21,19:00,2.3,1.1,92,37,11.3,97.52,Rain
500,-73.75,45.47,MONTREAL/PIERRE ELLIOTT TRUDEAU INTL A,7025250,2012-12-21 20:00,2012,12,21,20:00,2.4,1.7,95,15,9.7,97.58,Rain
501,-73.75,45.47,MONTREAL/PIERRE ELLIOTT TRUDEAU INTL A,7025250,2012-12-21 21:00,2012,12,21,21:00,1.3,0.4,94,22,9.7,97.64,Rain
502,-73.75,45.47,MONTREAL/PIERRE ELLIOTT TRUDEAU INTL A,7025250,2012-12-21 22:00,2012,12,21,22:00,0.7,0.0,95,28,3.6,97.75,Snow
503,-73.75,45.47,MONTREAL/PIERRE ELLIOTT TRUDEAU INTL A,7025250,2012-12-21 23:00,2012,12,21,23:00,1.1,0.0,92,30,9.7,97.79,"Drizzle,Snow,Fog"
504,-73.75,45.47,MONTREAL/PIERRE ELLIOTT TRUDEAU INTL A,7025250,2012-12-22 00:00,2012,12,22,00:00,1.1,-0.1,92,32,9.7,97.81,"Drizzle,Snow,Fog"
505,-73.75,45.47,MONTREAL/PIERRE ELLIOTT TRUDEAU INTL A,7025250,2012-12-22 01:00,2012,12,22,01:00,1.2,0.1,92,30,12.9,97.84,Drizzle
506,-73.75,45.47,MONTREAL/PIERRE ELLIOTT TRUDEAU INTL A,7025250,2012-12-22 02:00,2012,12,22,02:00,1.1,0.1,93,30,8.0,97.89,"Drizzle,Snow,Fog"
507,-73.75,45.47,MONTREAL/PIERRE ELLIOTT TRUDEAU INTL A,7025250,2012-12-22 03:00,2012,12,22,03:00,1.1,0.1,93,28,9.7,97.93,"Drizzle,Snow,Fog"
508,-73.75,45.47,MONTREAL/PIERRE ELLIOTT TRUDEAU INTL A,7025250,2012-12-22 04:00,2012,12,22,04:00,0.6,-0.6,92,35,11.3,97.98,Snow
509,-73.75,45.47,MONTREAL/PIERRE ELLIOTT TRUDEAU INTL A,7025250,2012-12-22 05:00,2012,12,22,05:00,-0.9,-1.9,93,35,4.8,98.07,Snow
510,-73.75,45.47,MONTREAL/PIERRE ELLIOTT TRUDEAU INTL A,7025250,2012-12-22 06:00,2012,12,22,06:00,-1.6,-3.0,90,41,4.0,98.19,Snow
511,-73.75,45.47,MONTREAL/PIERRE ELLIOTT TRUDEAU INTL A,7025250,2012-12-22 07:00,2012,12,22,07:00,-2.2,-3.7,89,35,4.8,98.32,Snow
512,-73.75,45.47,MONTREAL/PIERRE ELLIOTT TRUDEAU INTL A,7025250,2012-12-22 08:00,2012,12,22,08:00,-2.5,-4.5,86,41,4.0,98.44,Snow
513,-73.75,45.47,MONTREAL/PIERRE ELLIOTT TRUDEAU INTL A,7025250,2012-12-22 09:00,2012,12,22,09:00,-3.0,-5.0,86,35,3.2,98.58,Snow
514,-73.75,45.47,MONTREAL/PIERRE ELLIOTT TRUDEAU INTL A,7025250,2012-12-22 10:00,2012,12,22,10:00,-3.6,-5.0,90,37,1.6,98.7,Snow
515,-73.75,45.47,MONTREAL/PIERRE ELLIOTT TRUDEAU INTL A,7025250,2012-12-22 11:00,2012,12,22,11:00,-4.3,-5.4,92,35,1.2,98.78,Snow
516,-73.75,45.47,MONTREAL/PIERRE ELLIOTT TRUDEAU INTL A,7025250,2012-12-22 12:00,2012,12,22,12:00,-4.5,-5.9,90,33,1.6,98.86,Snow
517,-73.75,45.47,MONTREAL/PIERRE ELLIOTT TRUDEAU INTL A,7025250,2012-12-22 13:00,2012,12,22,13:00,-4.7,-6.9,85,37,4.0,98.96,Snow
518,-73.75,45.47,MONTREAL/PIERRE ELLIOTT TRUDEAU INTL A,7025250,2012-12-22 14:00,2012,12,22,14:00,-5.0,-7.6,82,32,4.0,99.08,"Snow,Blowing Snow"
519,-73.75,45.47,MONTREAL/PIERRE ELLIOTT TRUDEAU INTL A,7025250,2012-12-22 15:00,2012,12,22,15:00,-5.4,-7.1,88,35,1.6,99.24,"Snow,Blowing Snow"
520,-73.75,45.47,MONTREAL/PIERRE ELLIOTT TRUDEAU INTL A,7025250,2012-12-22 16:00,2012,12,22,16:00,-5.9,-7.8,86,41,1.6,99.37,"Snow,Blowing Snow"
521,-73.75,45.47,MONTREAL/PIERRE ELLIOTT TRUDEAU INTL A,7025250,2012-12-22 17:00,2012,12,22,17:00,-5.7,-8.5,81,32,6.4,99.5,Snow
522,-73.75,45.47,MONTREAL/PIERRE ELLIOTT TRUDEAU INTL A,7025250,2012-12-22 18:00,2012,12,22,18:00,-6.0,-8.7,81,33,4.8,99.62,Snow
523,-73.75,45.47,MONTREAL/PIERRE ELLIOTT TRUDEAU INTL A,7025250,2012-12-22 19:00,2012,12,22,19:00,-6.7,-9.1,83,32,6.4,99.75,Snow
524,-73.75,45.47,MONTREAL/PIERRE ELLIOTT TRUDEAU INTL A,7025250,2012-12-22 20:00,2012,12,22,20:00,-6.9,-10.6,75,32,16.1,99.83,Snow
525,-73.75,45.47,MONTREAL/PIERRE ELLIOTT TRUDEAU INTL A,7025250,2012-12-22 21:00,2012,12,22,21:00,-7.2,-11.6,71,28,16.1,99.96,Snow
526,-73.75,45.47,MONTREAL/PIERRE ELLIOTT TRUDEAU INTL A,7025250,2012-12-22 22:00,2012,12,22,22:00,-7.4,-11.9,70,35,16.1,100.0,Snow
527,-73.75,45.47,MONTREAL/PIERRE ELLIOTT TRUDEAU INTL A,7025250,2012-12-22 23:00,2012,12,22,23:00,-7.8,-12.6,68,39,19.3,100.12,Cloudy
528,-73.75,45.47,MONTREAL/PIERRE ELLIOTT TRUDEAU INTL A,7025250,2012-12-23 00:00,2012,12,23,00:00,-7.8,-11.6,74,32,19.3,100.19,Snow Showers
529,-73.75,45.47,MONTREAL/PIERRE ELLIOTT TRUDEAU INTL A,7025250,2012-12-23 01:00,2012,12,23,01:00,-7.9,-11.8,74,32,25.0,100.27,Snow Showers
530,-73.75,45.47,MONTREAL/PIERRE ELLIOTT TRUDEAU INTL A,7025250,2012-12-23 02:00,2012,12,23,02:00,-8.2,-12.5,71,30,25.0,100.36,Mostly Cloudy
531,-73.75,45.47,MONTREAL/PIERRE ELLIOTT TRUDEAU INTL A,7025250,2012-12-23 03:00,2012,12,23,03:00,-8.2,-12.4,72,30,25.0,100.4,Cloudy
532,-73.75,45.47,MONTREAL/PIERRE ELLIOTT TRUDEAU INTL A,7025250,2012-12-23 04:00,2012,12,23,04:00,-8.3,-12.7,71,28,25.0,100.43,Cloudy
533,-73.75,45.47,MONTREAL/PIERRE ELLIOTT TRUDEAU INTL A,7025250,2012-12-23 05:00,2012,12,23,05:00,-8.5,-13.2,69,30,25.0,100.49,Cloudy
534,-73.75,45.47,MONTREAL/PIERRE ELLIOTT TRUDEAU INTL A,7025250,2012-12-23 06:00,2012,12,23,06:00,-8.4,-12.3,73,26,25.0,100.51,Cloudy
535,-73.75,45.47,MONTREAL/PIERRE ELLIOTT TRUDEAU INTL A,7025250,2012-12-23 07:00,2012,12,23,07:00,-8.5,-12.1,75,20,19.3,100.52,Snow Showers
536,-73.75,45.47,MONTREAL/PIERRE ELLIOTT TRUDEAU INTL A,7025250,2012-12-23 08:00,2012,12,23,08:00,-8.7,-12.0,77,20,19.3,100.54,Snow Showers
537,-73.75,45.47,MONTREAL/PIERRE ELLIOTT TRUDEAU INTL A,7025250,2012-12-23 09:00,2012,12,23,09:00,-8.7,-12.2,76,22,24.1,100.52,Cloudy
538,-73.75,45.47,MONTREAL/PIERRE ELLIOTT TRUDEAU INTL A,7025250,2012-12-23 10:00,2012,12,23,10:00,-8.6,-12.5,73,24,24.1,100.54,Cloudy
539,-73.75,45.47,MONTREAL/PIERRE ELLIOTT TRUDEAU INTL A,7025250,2012-12-23 11:00,2012,12,23,11:00,-8.3,-12.6,71,26,24.1,100.5,Cloudy
540,-73.75,45.47,MONTREAL/PIERRE ELLIOTT TRUDEAU INTL A,7025250,2012-12-23 12:00,2012,12,23,12:00,-7.9,-12.6,69,24,24.1,100.44,Cloudy
541,-73.75,45.47,MONTREAL/PIERRE ELLIOTT TRUDEAU INTL A,7025250,2012-12-23 13:00,2012,12,23,13:00,-7.4,-12.4,67,20,24.1,100.37,Mostly Cloudy
542,-73.75,45.47,MONTREAL/PIERRE ELLIOTT TRUDEAU INTL A,7025250,2012-12-23 14:00,2012,12,23,14:00,-6.9,-11.9,67,11,24.1,100.33,Cloudy
543,-73.75,45.47,MONTREAL/PIERRE ELLIOTT TRUDEAU INTL A,7025250,2012-12-23 15:00,2012,12,23,15:00,-6.8,-11.1,71,13,24.1,100.34,Snow Showers
544,-73.75,45.47,MONTREAL/PIERRE ELLIOTT TRUDEAU INTL A,7025250,2012-12-23 16:00,2012,12,23,16:00,-7.0,-9.6,82,13,9.7,100.35,Snow Showers
545,-73.75,45.47,MONTREAL/PIERRE ELLIOTT TRUDEAU INTL A,7025250,2012-12-23 17:00,2012,12,23,17:00,-7.1,-9.4,84,9,12.9,100.36,Snow
546,-73.75,45.47,MONTREAL/PIERRE ELLIOTT TRUDEAU INTL A,7025250,2012-12-23 18:00,2012,12,23,18:00,-7.2,-10.0,80,11,12.9,100.4,Snow
547,-73.75,45.47,MONTREAL/PIERRE ELLIOTT TRUDEAU INTL A,7025250,2012-12-23 19:00,2012,12,23,19:00,-7.2,-10.1,80,9,25.0,100.46,Snow
548,-73.75,45.47,MONTREAL/PIERRE ELLIOTT TRUDEAU INTL A,7025250,2012-12-23 20:00,2012,12,23,20:00,-7.2,-10.4,78,9,25.0,100.55,Cloudy
549,-73.75,45.47,MONTREAL/PIERRE ELLIOTT TRUDEAU INTL A,7025250,2012-12-23 21:00,2012,12,23,21:00,-8.0,-11.2,78,9,25.0,100.62,Mainly Clear
550,-73.75,45.47,MONTREAL/PIERRE ELLIOTT TRUDEAU INTL A,7025250,2012-12-23 22:00,2012,12,23,22:00,-9.0,-11.7,81,9,25.0,100.68,Mainly Clear
551,-73.75,45.47,MONTREAL/PIERRE ELLIOTT TRUDEAU INTL A,7025250,2012-12-23 23:00,2012,12,23,23:00,-8.3,-10.9,81,9,25.0,100.76,Cloudy
552,-73.75,45.47,MONTREAL/PIERRE ELLIOTT TRUDEAU INTL A,7025250,2012-12-24 00:00,2012,12,24,00:00,-8.5,-10.7,84,15,25.0,100.8,Mostly Cloudy
553,-73.75,45.47,MONTREAL/PIERRE ELLIOTT TRUDEAU INTL A,7025250,2012-12-24 01:00,2012,12,24,01:00,-8.4,-10.7,83,17,25.0,100.85,Cloudy
554,-73.75,45.47,MONTREAL/PIERRE ELLIOTT TRUDEAU INTL A,7025250,2012-12-24 02:00,2012,12,24,02:00,-8.8,-11.4,81,17,25.0,100.91,Cloudy
555,-73.75,45.47,MONTREAL/PIERRE ELLIOTT TRUDEAU INTL A,7025250,2012-12-24 03:00,2012,12,24,03:00,-8.9,-12.3,76,20,25.0,100.99,Cloudy
556,-73.75,45.47,MONTREAL/PIERRE ELLIOTT TRUDEAU INTL A,7025250,2012-12-24 04:00,2012,12,24,04:00,-10.0,-12.7,81,24,25.0,101.02,Mostly Cloudy
557,-73.75,45.47,MONTREAL/PIERRE ELLIOTT TRUDEAU INTL A,7025250,2012-12-24 05:00,2012,12,24,05:00,-10.4,-13.3,79,19,25.0,101.07,Mostly Cloudy
558,-73.75,45.47,MONTREAL/PIERRE ELLIOTT TRUDEAU INTL A,7025250,2012-12-24 06:00,2012,12,24,06:00,-10.9,-14.0,78,15,25.0,101.13,Mainly Clear
559,-73.75,45.47,MONTREAL/PIERRE ELLIOTT TRUDEAU INTL A,7025250,2012-12-24 07:00,2012,12,24,07:00,-11.1,-13.9,80,15,25.0,101.23,Clear
560,-73.75,45.47,MONTREAL/PIERRE ELLIOTT TRUDEAU INTL A,7025250,2012-12-24 08:00,2012,12,24,08:00,-11.0,-13.9,79,13,25.0,101.32,Clear
561,-73.75,45.47,MONTREAL/PIERRE ELLIOTT TRUDEAU INTL A,7025250,2012-12-24 09:00,2012,12,24,09:00,-10.5,-13.7,77,13,24.1,101.41,Clear
562,-73.75,45.47,MONTREAL/PIERRE ELLIOTT TRUDEAU INTL A,7025250,2012-12-24 10:00,2012,12,24,10:00,-9.9,-13.4,76,11,48.3,101.45,Mainly Clear
563,-73.75,45.47,MONTREAL/PIERRE ELLIOTT TRUDEAU INTL A,7025250,2012-12-24 11:00,2012,12,24,11:00,-9.0,-13.7,69,11,48.3,101.44,Mainly Clear
564,-73.75,45.47,MONTREAL/PIERRE ELLIOTT TRUDEAU INTL A,7025250,2012-12-24 12:00,2012,12,24,12:00,-7.9,-13.3,65,9,48.3,101.43,Mainly Clear
565,-73.75,45.47,MONTREAL/PIERRE ELLIOTT TRUDEAU INTL A,7025250,2012-12-24 13:00,2012,12,24,13:00,-7.6,-13.1,65,15,48.3,101.45,Mainly Clear
566,-73.75,45.47,MONTREAL/PIERRE ELLIOTT TRUDEAU INTL A,7025250,2012-12-24 14:00,2012,12,24,14:00,-7.8,-13.7,63,15,48.3,101.46,Mainly Clear
567,-73.75,45.47,MONTREAL/PIERRE ELLIOTT TRUDEAU INTL A,7025250,2012-12-24 15:00,2012,12,24,15:00,-7.5,-13.3,63,13,48.3,101.49,Mainly Clear
568,-73.75,45.47,MONTREAL/PIERRE ELLIOTT TRUDEAU INTL A,7025250,2012-12-24 16:00,2012,12,24,16:00,-8.2,-13.3,67,11,24.1,101.45,Mainly Clear
569,-73.75,45.47,MONTREAL/PIERRE ELLIOTT TRUDEAU INTL A,7025250,2012-12-24 17:00,2012,12,24,17:00,-9.7,-13.7,73,6,25.0,101.49,Mainly Clear
570,-73.75,45.47,MONTREAL/PIERRE ELLIOTT TRUDEAU INTL A,7025250,2012-12-24 18:00,2012,12,24,18:00,-10.4,-13.8,76,9,25.0,101.45,Clear
571,-73.75,45.47,MONTREAL/PIERRE ELLIOTT TRUDEAU INTL A,7025250,2012-12-24 19:00,2012,12,24,19:00,-9.7,-13.1,76,7,25.0,101.43,Mainly Clear
572,-73.75,45.47,MONTREAL/PIERRE ELLIOTT TRUDEAU INTL A,7025250,2012-12-24 20:00,2012,12,24,20:00,-9.6,-12.8,77,6,25.0,101.43,Mainly Clear
573,-73.75,45.47,MONTREAL/PIERRE ELLIOTT TRUDEAU INTL A,7025250,2012-12-24 21:00,2012,12,24,21:00,-9.4,-13.2,74,7,25.0,101.44,Mainly Clear
574,-73.75,45.47,MONTREAL/PIERRE ELLIOTT TRUDEAU INTL A,7025250,2012-12-24 22:00,2012,12,24,22:00,-9.8,-13.2,76,4,25.0,101.44,Mostly Cloudy
575,-73.75,45.47,MONTREAL/PIERRE ELLIOTT TRUDEAU INTL A,7025250,2012-12-24 23:00,2012,12,24,23:00,-10.5,-12.8,83,4,25.0,101.48,Mostly Cloudy
576,-73.75,45.47,MONTREAL/PIERRE ELLIOTT TRUDEAU INTL A,7025250,2012-12-25 00:00,2012,12,25,00:00,-9.0,-12.5,76,11,25.0,101.44,Mostly Cloudy
577,-73.75,45.47,MONTREAL/PIERRE ELLIOTT TRUDEAU INTL A,7025250,2012-12-25 01:00,2012,12,25,01:00,-10.5,-13.0,82,6,25.0,101.51,Mostly Cloudy
578,-73.75,45.47,MONTREAL/PIERRE ELLIOTT TRUDEAU INTL A,7025250,2012-12-25 02:00,2012,12,25,02:00,-10.6,-13.1,82,13,25.0,101.51,Mostly Cloudy
579,-73.75,45.47,MONTREAL/PIERRE ELLIOTT TRUDEAU INTL A,7025250,2012-12-25 03:00,2012,12,25,03:00,-10.5,-12.6,85,19,25.0,101.47,Cloudy
580,-73.75,45.47,MONTREAL/PIERRE ELLIOTT TRUDEAU INTL A,7025250,2012-12-25 04:00,2012,12,25,04:00,-10.1,-13.2,78,15,24.1,101.49,Mostly Cloudy
581,-73.75,45.47,MONTREAL/PIERRE ELLIOTT TRUDEAU INTL A,7025250,2012-12-25 05:00,2012,12,25,05:00,-10.8,-13.1,83,17,25.0,101.49,Cloudy
582,-73.75,45.47,MONTREAL/PIERRE ELLIOTT TRUDEAU INTL A,7025250,2012-12-25 06:00,2012,12,25,06:00,-10.6,-13.6,79,13,25.0,101.59,Cloudy
583,-73.75,45.47,MONTREAL/PIERRE ELLIOTT TRUDEAU INTL A,7025250,2012-12-25 07:00,2012,12,25,07:00,-11.3,-14.1,80,11,25.0,101.72,Cloudy
584,-73.75,45.47,MONTREAL/PIERRE ELLIOTT TRUDEAU INTL A,7025250,2012-12-25 08:00,2012,12,25,08:00,-11.3,-14.4,78,11,24.1,101.79,Cloudy
585,-73.75,45.47,MONTREAL/PIERRE ELLIOTT TRUDEAU INTL A,7025250,2012-12-25 09:00,2012,12,25,09:00,-11.0,-14.2,77,13,24.1,101.87,Cloudy
586,-73.75,45.47,MONTREAL/PIERRE ELLIOTT TRUDEAU INTL A,7025250,2012-12-25 10:00,2012,12,25,10:00,-10.1,-14.3,71,15,24.1,101.95,Cloudy
587,-73.75,45.47,MONTREAL/PIERRE ELLIOTT TRUDEAU INTL A,7025250,2012-12-25 11:00,2012,12,25,11:00,-9.6,-14.4,68,9,24.1,101.93,Cloudy
588,-73.75,45.47,MONTREAL/PIERRE ELLIOTT TRUDEAU INTL A,7025250,2012-12-25 12:00,2012,12,25,12:00,-9.4,-14.4,67,9,24.1,101.92,Cloudy
589,-73.75,45.47,MONTREAL/PIERRE ELLIOTT TRUDEAU INTL A,7025250,2012-12-25 13:00,2012,12,25,13:00,-8.7,-14.5,63,7,24.1,101.92,Mostly Cloudy
590,-73.75,45.47,MONTREAL/PIERRE ELLIOTT TRUDEAU INTL A,7025250,2012-12-25 14:00,2012,12,25,14:00,-7.7,-14.1,60,6,48.3,101.95,Mainly Clear
591,-73.75,45.47,MONTREAL/PIERRE ELLIOTT TRUDEAU INTL A,7025250,2012-12-25 15:00,2012,12,25,15:00,-7.1,-13.7,59,17,48.3,101.98,Clear
592,-73.75,45.47,MONTREAL/PIERRE ELLIOTT TRUDEAU INTL A,7025250,2012-12-25 16:00,2012,12,25,16:00,-7.5,-13.9,60,11,48.3,102.03,Clear
593,-73.75,45.47,MONTREAL/PIERRE ELLIOTT TRUDEAU INTL A,7025250,2012-12-25 17:00,2012,12,25,17:00,-8.3,-13.4,67,13,25.0,102.1,Clear
594,-73.75,45.47,MONTREAL/PIERRE ELLIOTT TRUDEAU INTL A,7025250,2012-12-25 18:00,2012,12,25,18:00,-8.9,-13.4,70,13,25.0,102.16,Mainly Clear
595,-73.75,45.47,MONTREAL/PIERRE ELLIOTT TRUDEAU INTL A,7025250,2012-12-25 19:00,2012,12,25,19:00,-8.8,-12.6,74,19,25.0,102.27,Mainly Clear
596,-73.75,45.47,MONTREAL/PIERRE ELLIOTT TRUDEAU INTL A,7025250,2012-12-25 20:00,2012,12,25,20:00,-9.4,-12.6,77,13,25.0,102.3,Mainly Clear
597,-73.75,45.47,MONTREAL/PIERRE ELLIOTT TRUDEAU INTL A,7025250,2012-12-25 21:00,2012,12,25,21:00,-9.7,-12.5,80,4,25.0,102.28,Clear
598,-73.75,45.47,MONTREAL/PIERRE ELLIOTT TRUDEAU INTL A,7025250,2012-12-25 22:00,2012,12,25,22:00,-10.9,-13.2,83,4,25.0,102.34,Clear
599,-73.75,45.47,MONTREAL/PIERRE ELLIOTT TRUDEAU INTL A,7025250,2012-12-25 23:00,2012,12,25,23:00,-10.4,-12.7,83,11,25.0,102.45,Clear
600,-73.75,45.47,MONTREAL/PIERRE ELLIOTT TRUDEAU INTL A,7025250,2012-12-26 00:00,2012,12,26,00:00,-11.8,-13.5,87,4,25.0,102.41,Clear
601,-73.75,45.47,MONTREAL/PIERRE ELLIOTT TRUDEAU INTL A,7025250,2012-12-26 01:00,2012,12,26,01:00,-11.2,-12.9,87,6,25.0,102.42,Clear
602,-73.75,45.47,MONTREAL/PIERRE ELLIOTT TRUDEAU INTL A,7025250,2012-12-26 02:00,2012,12,26,02:00,-12.7,-14.4,87,4,25.0,102.45,Clear
603,-73.75,45.47,MONTREAL/PIERRE ELLIOTT TRUDEAU INTL A,7025250,2012-12-26 03:00,2012,12,26,03:00,-14.2,-15.8,88,6,25.0,102.52,Clear
604,-73.75,45.47,MONTREAL/PIERRE ELLIOTT TRUDEAU INTL A,7025250,2012-12-26 04:00,2012,12,26,04:00,-13.1,-14.7,88,6,25.0,102.55,Clear
605,-73.75,45.47,MONTREAL/PIERRE ELLIOTT TRUDEAU INTL A,7025250,2012-12-26 05:00,2012,12,26,05:00,-12.7,-14.1,89,4,25.0,102.48,Clear
606,-73.75,45.47,MONTREAL/PIERRE ELLIOTT TRUDEAU INTL A,7025250,2012-12-26 06:00,2012,12,26,06:00,-13.4,-14.8,89,4,25.0,102.47,Clear
607,-73.75,45.47,MONTREAL/PIERRE ELLIOTT TRUDEAU INTL A,7025250,2012-12-26 07:00,2012,12,26,07:00,-13.0,-14.4,89,7,25.0,102.46,Mainly Clear
608,-73.75,45.47,MONTREAL/PIERRE ELLIOTT TRUDEAU INTL A,7025250,2012-12-26 08:00,2012,12,26,08:00,-13.7,-15.2,88,4,16.1,102.53,Mostly Cloudy
609,-73.75,45.47,MONTREAL/PIERRE ELLIOTT TRUDEAU INTL A,7025250,2012-12-26 09:00,2012,12,26,09:00,-11.3,-12.7,89,15,4.0,102.52,"Snow Showers,Fog"
610,-73.75,45.47,MONTREAL/PIERRE ELLIOTT TRUDEAU INTL A,7025250,2012-12-26 10:00,2012,12,26,10:00,-11.0,-13.2,84,15,24.1,102.54,Mainly Clear
611,-73.75,45.47,MONTREAL/PIERRE ELLIOTT TRUDEAU INTL A,7025250,2012-12-26 11:00,2012,12,26,11:00,-11.3,-14.5,77,20,48.3,102.5,Mainly Clear
612,-73.75,45.47,MONTREAL/PIERRE ELLIOTT TRUDEAU INTL A,7025250,2012-12-26 12:00,2012,12,26,12:00,-10.6,-14.3,74,20,48.3,102.36,Mainly Clear
613,-73.75,45.47,MONTREAL/PIERRE ELLIOTT TRUDEAU INTL A,7025250,2012-12-26 13:00,2012,12,26,13:00,-10.3,-14.0,74,15,24.1,102.35,Mostly Cloudy
614,-73.75,45.47,MONTREAL/PIERRE ELLIOTT TRUDEAU INTL A,7025250,2012-12-26 14:00,2012,12,26,14:00,-10.0,-14.0,72,19,24.1,102.27,Cloudy
615,-73.75,45.47,MONTREAL/PIERRE ELLIOTT TRUDEAU INTL A,7025250,2012-12-26 15:00,2012,12,26,15:00,-10.0,-14.2,71,19,24.1,102.28,Cloudy
616,-73.75,45.47,MONTREAL/PIERRE ELLIOTT TRUDEAU INTL A,7025250,2012-12-26 16:00,2012,12,26,16:00,-10.3,-14.1,74,19,25.0,102.17,Cloudy
617,-73.75,45.47,MONTREAL/PIERRE ELLIOTT TRUDEAU INTL A,7025250,2012-12-26 17:00,2012,12,26,17:00,-10.2,-13.9,74,22,25.0,102.16,Cloudy
618,-73.75,45.47,MONTREAL/PIERRE ELLIOTT TRUDEAU INTL A,7025250,2012-12-26 18:00,2012,12,26,18:00,-10.0,-13.8,74,24,25.0,102.14,Cloudy
619,-73.75,45.47,MONTREAL/PIERRE ELLIOTT TRUDEAU INTL A,7025250,2012-12-26 19:00,2012,12,26,19:00,-9.6,-13.1,76,39,25.0,102.03,Cloudy
620,-73.75,45.47,MONTREAL/PIERRE ELLIOTT TRUDEAU INTL A,7025250,2012-12-26 20:00,2012,12,26,20:00,-10.3,-12.9,81,28,25.0,101.88,Cloudy
621,-73.75,45.47,MONTREAL/PIERRE ELLIOTT TRUDEAU INTL A,7025250,2012-12-26 21:00,2012,12,26,21:00,-9.8,-12.5,81,22,25.0,101.87,Cloudy
622,-73.75,45.47,MONTREAL/PIERRE ELLIOTT TRUDEAU INTL A,7025250,2012-12-26 22:00,2012,12,26,22:00,-9.7,-12.8,78,37,25.0,101.7,Cloudy
623,-73.75,45.47,MONTREAL/PIERRE ELLIOTT TRUDEAU INTL A,7025250,2012-12-26 23:00,2012,12,26,23:00,-9.7,-12.3,81,24,25.0,101.61,Cloudy
624,-73.75,45.47,MONTREAL/PIERRE ELLIOTT TRUDEAU INTL A,7025250,2012-12-27 00:00,2012,12,27,00:00,-9.8,-12.5,81,30,25.0,101.46,Cloudy
625,-73.75,45.47,MONTREAL/PIERRE ELLIOTT TRUDEAU INTL A,7025250,2012-12-27 01:00,2012,12,27,01:00,-9.4,-12.2,80,26,25.0,101.37,Cloudy
626,-73.75,45.47,MONTREAL/PIERRE ELLIOTT TRUDEAU INTL A,7025250,2012-12-27 02:00,2012,12,27,02:00,-8.5,-11.3,80,30,25.0,101.31,Cloudy
627,-73.75,45.47,MONTREAL/PIERRE ELLIOTT TRUDEAU INTL A,7025250,2012-12-27 03:00,2012,12,27,03:00,-8.1,-10.2,85,37,2.4,101.21,Snow
628,-73.75,45.47,MONTREAL/PIERRE ELLIOTT TRUDEAU INTL A,7025250,2012-12-27 04:00,2012,12,27,04:00,-7.9,-9.5,88,33,2.0,101.03,Snow
629,-73.75,45.47,MONTREAL/PIERRE ELLIOTT TRUDEAU INTL A,7025250,2012-12-27 05:00,2012,12,27,05:00,-7.5,-9.1,88,43,1.2,100.95,Snow
630,-73.75,45.47,MONTREAL/PIERRE ELLIOTT TRUDEAU INTL A,7025250,2012-12-27 06:00,2012,12,27,06:00,-6.8,-8.1,90,39,1.2,100.83,Snow
631,-73.75,45.47,MONTREAL/PIERRE ELLIOTT TRUDEAU INTL A,7025250,2012-12-27 07:00,2012,12,27,07:00,-6.5,-7.6,92,44,1.2,100.73,Snow
632,-73.75,45.47,MONTREAL/PIERRE ELLIOTT TRUDEAU INTL A,7025250,2012-12-27 08:00,2012,12,27,08:00,-6.3,-7.4,92,39,0.8,100.65,Moderate Snow
633,-73.75,45.47,MONTREAL/PIERRE ELLIOTT TRUDEAU INTL A,7025250,2012-12-27 09:00,2012,12,27,09:00,-5.7,-6.7,93,37,0.8,100.67,Moderate Snow
634,-73.75,45.47,MONTREAL/PIERRE ELLIOTT TRUDEAU INTL A,7025250,2012-12-27 10:00,2012,12,27,10:00,-5.4,-6.4,93,41,0.6,100.64,"Moderate Snow,Blowing Snow"
635,-73.75,45.47,MONTREAL/PIERRE ELLIOTT TRUDEAU INTL A,7025250,2012-12-27 11:00,2012,12,27,11:00,-5.2,-6.4,91,39,0.6,100.62,"Snow,Blowing Snow"
636,-73.75,45.47,MONTREAL/PIERRE ELLIOTT TRUDEAU INTL A,7025250,2012-12-27 12:00,2012,12,27,12:00,-5.5,-6.6,92,39,0.6,100.5,"Moderate Snow,Blowing Snow"
637,-73.75,45.47,MONTREAL/PIERRE ELLIOTT TRUDEAU INTL A,7025250,2012-12-27 13:00,2012,12,27,13:00,-5.4,-6.7,91,48,0.6,100.36,"Snow,Blowing Snow"
638,-73.75,45.47,MONTREAL/PIERRE ELLIOTT TRUDEAU INTL A,7025250,2012-12-27 14:00,2012,12,27,14:00,-5.2,-6.7,89,46,0.6,100.35,"Snow,Blowing Snow"
639,-73.75,45.47,MONTREAL/PIERRE ELLIOTT TRUDEAU INTL A,7025250,2012-12-27 15:00,2012,12,27,15:00,-5.0,-6.2,91,37,0.6,100.37,"Snow,Blowing Snow"
640,-73.75,45.47,MONTREAL/PIERRE ELLIOTT TRUDEAU INTL A,7025250,2012-12-27 16:00,2012,12,27,16:00,-4.5,-6.2,88,37,2.0,100.44,"Snow,Blowing Snow"
641,-73.75,45.47,MONTREAL/PIERRE ELLIOTT TRUDEAU INTL A,7025250,2012-12-27 17:00,2012,12,27,17:00,-4.2,-5.9,88,32,3.2,100.47,"Snow,Blowing Snow"
642,-73.75,45.47,MONTREAL/PIERRE ELLIOTT TRUDEAU INTL A,7025250,2012-12-27 18:00,2012,12,27,18:00,-4.0,-5.7,88,28,8.0,100.49,"Snow,Blowing Snow"
643,-73.75,45.47,MONTREAL/PIERRE ELLIOTT TRUDEAU INTL A,7025250,2012-12-27 19:00,2012,12,27,19:00,-3.9,-5.6,88,26,9.7,100.52,"Snow,Blowing Snow"
644,-73.75,45.47,MONTREAL/PIERRE ELLIOTT TRUDEAU INTL A,7025250,2012-12-27 20:00,2012,12,27,20:00,-3.7,-5.3,89,37,16.1,100.58,Snow
645,-73.75,45.47,MONTREAL/PIERRE ELLIOTT TRUDEAU INTL A,7025250,2012-12-27 21:00,2012,12,27,21:00,-3.7,-4.8,92,24,4.8,100.62,"Freezing Drizzle,Snow"
646,-73.75,45.47,MONTREAL/PIERRE ELLIOTT TRUDEAU INTL A,7025250,2012-12-27 22:00,2012,12,27,22:00,-3.8,-4.6,94,20,4.8,100.65,"Freezing Drizzle,Snow"
647,-73.75,45.47,MONTREAL/PIERRE ELLIOTT TRUDEAU INTL A,7025250,2012-12-27 23:00,2012,12,27,23:00,-4.0,-5.6,89,24,9.7,100.7,Snow
648,-73.75,45.47,MONTREAL/PIERRE ELLIOTT TRUDEAU INTL A,7025250,2012-12-28 00:00,2012,12,28,00:00,-4.2,-5.7,89,19,8.0,100.78,"Freezing Drizzle,Snow"
649,-73.75,45.47,MONTREAL/PIERRE ELLIOTT TRUDEAU INTL A,7025250,2012-12-28 01:00,2012,12,28,01:00,-4.4,-6.6,85,15,6.4,100.83,"Freezing Drizzle,Snow"
650,-73.75,45.47,MONTREAL/PIERRE ELLIOTT TRUDEAU INTL A,7025250,2012-12-28 02:00,2012,12,28,02:00,-4.3,-6.3,86,11,12.9,100.93,"Freezing Drizzle,Snow"
651,-73.75,45.47,MONTREAL/PIERRE ELLIOTT TRUDEAU INTL A,7025250,2012-12-28 03:00,2012,12,28,03:00,-4.6,-5.9,91,13,4.0,101.01,Snow
652,-73.75,45.47,MONTREAL/PIERRE ELLIOTT TRUDEAU INTL A,7025250,2012-12-28 04:00,2012,12,28,04:00,-4.9,-5.9,93,9,9.7,101.0,Snow
653,-73.75,45.47,MONTREAL/PIERRE ELLIOTT TRUDEAU INTL A,7025250,2012-12-28 05:00,2012,12,28,05:00,-5.0,-6.1,92,7,25.0,101.01,Cloudy
654,-73.75,45.47,MONTREAL/PIERRE ELLIOTT TRUDEAU INTL A,7025250,2012-12-28 06:00,2012,12,28,06:00,-4.8,-6.6,87,9,25.0,101.04,Cloudy
655,-73.75,45.47,MONTREAL/PIERRE ELLIOTT TRUDEAU INTL A,7025250,2012-12-28 07:00,2012,12,28,07:00,-5.0,-6.5,89,9,25.0,101.07,Cloudy
656,-73.75,45.47,MONTREAL/PIERRE ELLIOTT TRUDEAU INTL A,7025250,2012-12-28 08:00,2012,12,28,08:00,-5.2,-7.0,87,17,24.1,101.15,Mostly Cloudy
657,-73.75,45.47,MONTREAL/PIERRE ELLIOTT TRUDEAU INTL A,7025250,2012-12-28 09:00,2012,12,28,09:00,-5.5,-8.0,83,17,24.1,101.23,Mostly Cloudy
658,-73.75,45.47,MONTREAL/PIERRE ELLIOTT TRUDEAU INTL A,7025250,2012-12-28 10:00,2012,12,28,10:00,-6.1,-8.6,82,19,24.1,101.27,Clear
659,-73.75,45.47,MONTREAL/PIERRE ELLIOTT TRUDEAU INTL A,7025250,2012-12-28 11:00,2012,12,28,11:00,-6.2,-8.8,82,24,48.3,101.24,Mainly Clear
660,-73.75,45.47,MONTREAL/PIERRE ELLIOTT TRUDEAU INTL A,7025250,2012-12-28 12:00,2012,12,28,12:00,-7.2,-9.9,81,24,48.3,101.22,Mainly Clear
661,-73.75,45.47,MONTREAL/PIERRE ELLIOTT TRUDEAU INTL A,7025250,2012-12-28 13:00,2012,12,28,13:00,-6.8,-9.8,79,20,48.3,101.17,Mainly Clear
662,-73.75,45.47,MONTREAL/PIERRE ELLIOTT TRUDEAU INTL A,7025250,2012-12-28 14:00,2012,12,28,14:00,-6.5,-9.9,77,22,48.3,101.17,Mainly Clear
663,-73.75,45.47,MONTREAL/PIERRE ELLIOTT TRUDEAU INTL A,7025250,2012-12-28 15:00,2012,12,28,15:00,-6.8,-10.3,76,24,48.3,101.22,Mainly Clear
664,-73.75,45.47,MONTREAL/PIERRE ELLIOTT TRUDEAU INTL A,7025250,2012-12-28 16:00,2012,12,28,16:00,-7.7,-11.0,77,30,48.3,101.25,Mainly Clear
665,-73.75,45.47,MONTREAL/PIERRE ELLIOTT TRUDEAU INTL A,7025250,2012-12-28 17:00,2012,12,28,17:00,-8.6,-12.0,76,26,25.0,101.34,Mainly Clear
666,-73.75,45.47,MONTREAL/PIERRE ELLIOTT TRUDEAU INTL A,7025250,2012-12-28 18:00,2012,12,28,18:00,-9.0,-12.2,78,24,25.0,101.37,Mainly Clear
667,-73.75,45.47,MONTREAL/PIERRE ELLIOTT TRUDEAU INTL A,7025250,2012-12-28 19:00,2012,12,28,19:00,-9.4,-12.3,79,22,25.0,101.37,Mainly Clear
668,-73.75,45.47,MONTREAL/PIERRE ELLIOTT TRUDEAU INTL A,7025250,2012-12-28 20:00,2012,12,28,20:00,-9.8,-12.6,80,20,25.0,101.35,Mainly Clear
669,-73.75,45.47,MONTREAL/PIERRE ELLIOTT TRUDEAU INTL A,7025250,2012-12-28 21:00,2012,12,28,21:00,-9.8,-12.5,81,19,25.0,101.36,Mainly Clear
670,-73.75,45.47,MONTREAL/PIERRE ELLIOTT TRUDEAU INTL A,7025250,2012-12-28 22:00,2012,12,28,22:00,-9.9,-12.5,81,17,25.0,101.38,Mainly Clear
671,-73.75,45.47,MONTREAL/PIERRE ELLIOTT TRUDEAU INTL A,7025250,2012-12-28 23:00,2012,12,28,23:00,-10.9,-13.2,83,13,25.0,101.38,Mainly Clear
672,-73.75,45.47,MONTREAL/PIERRE ELLIOTT TRUDEAU INTL A,7025250,2012-12-29 00:00,2012,12,29,00:00,-11.6,-13.5,86,13,25.0,101.35,Mainly Clear
673,-73.75,45.47,MONTREAL/PIERRE ELLIOTT TRUDEAU INTL A,7025250,2012-12-29 01:00,2012,12,29,01:00,-11.9,-13.6,87,11,25.0,101.31,Clear
674,-73.75,45.47,MONTREAL/PIERRE ELLIOTT TRUDEAU INTL A,7025250,2012-12-29 02:00,2012,12,29,02:00,-11.8,-13.1,90,13,25.0,101.33,Clear
675,-73.75,45.47,MONTREAL/PIERRE ELLIOTT TRUDEAU INTL A,7025250,2012-12-29 03:00,2012,12,29,03:00,-13.4,-15.2,86,4,4.8,101.33,Fog
676,-73.75,45.47,MONTREAL/PIERRE ELLIOTT TRUDEAU INTL A,7025250,2012-12-29 04:00,2012,12,29,04:00,-16.0,-17.2,90,6,9.7,101.25,Fog
677,-73.75,45.47,MONTREAL/PIERRE ELLIOTT TRUDEAU INTL A,7025250,2012-12-29 05:00,2012,12,29,05:00,-14.8,-15.9,91,4,6.4,101.25,Fog
678,-73.75,45.47,MONTREAL/PIERRE ELLIOTT TRUDEAU INTL A,7025250,2012-12-29 06:00,2012,12,29,06:00,-13.8,-15.3,88,4,9.7,101.25,Fog
679,-73.75,45.47,MONTREAL/PIERRE ELLIOTT TRUDEAU INTL A,7025250,2012-12-29 07:00,2012,12,29,07:00,-14.8,-16.4,88,7,8.0,101.22,Fog
680,-73.75,45.47,MONTREAL/PIERRE ELLIOTT TRUDEAU INTL A,7025250,2012-12-29 08:00,2012,12,29,08:00,-13.6,-15.1,88,11,12.9,101.19,Cloudy
681,-73.75,45.47,MONTREAL/PIERRE ELLIOTT TRUDEAU INTL A,7025250,2012-12-29 09:00,2012,12,29,09:00,-13.2,-14.8,88,11,12.9,101.13,Cloudy
682,-73.75,45.47,MONTREAL/PIERRE ELLIOTT TRUDEAU INTL A,7025250,2012-12-29 10:00,2012,12,29,10:00,-12.0,-13.3,90,7,6.4,101.15,Fog
683,-73.75,45.47,MONTREAL/PIERRE ELLIOTT TRUDEAU INTL A,7025250,2012-12-29 11:00,2012,12,29,11:00,-10.9,-12.2,90,7,6.4,101.09,"Snow Showers,Fog"
684,-73.75,45.47,MONTREAL/PIERRE ELLIOTT TRUDEAU INTL A,7025250,2012-12-29 12:00,2012,12,29,12:00,-10.5,-11.6,92,11,8.0,100.93,"Snow Showers,Fog"
685,-73.75,45.47,MONTREAL/PIERRE ELLIOTT TRUDEAU INTL A,7025250,2012-12-29 13:00,2012,12,29,13:00,-10.0,-11.1,92,22,9.7,100.63,"Snow Showers,Fog"
686,-73.75,45.47,MONTREAL/PIERRE ELLIOTT TRUDEAU INTL A,7025250,2012-12-29 14:00,2012,12,29,14:00,-9.3,-10.5,91,22,4.8,100.6,"Snow,Fog"
687,-73.75,45.47,MONTREAL/PIERRE ELLIOTT TRUDEAU INTL A,7025250,2012-12-29 15:00,2012,12,29,15:00,-8.8,-10.0,91,20,1.2,100.55,"Snow,Fog"
688,-73.75,45.47,MONTREAL/PIERRE ELLIOTT TRUDEAU INTL A,7025250,2012-12-29 16:00,2012,12,29,16:00,-8.5,-9.9,90,24,1.2,100.49,"Snow,Fog"
689,-73.75,45.47,MONTREAL/PIERRE ELLIOTT TRUDEAU INTL A,7025250,2012-12-29 17:00,2012,12,29,17:00,-9.0,-10.4,90,19,2.4,100.46,"Snow,Fog"
690,-73.75,45.47,MONTREAL/PIERRE ELLIOTT TRUDEAU INTL A,7025250,2012-12-29 18:00,2012,12,29,18:00,-9.3,-10.9,88,26,6.4,100.38,"Snow,Fog"
691,-73.75,45.47,MONTREAL/PIERRE ELLIOTT TRUDEAU INTL A,7025250,2012-12-29 19:00,2012,12,29,19:00,-9.5,-11.2,87,26,3.2,100.33,"Snow,Fog"
692,-73.75,45.47,MONTREAL/PIERRE ELLIOTT TRUDEAU INTL A,7025250,2012-12-29 20:00,2012,12,29,20:00,-9.7,-11.6,86,24,9.7,100.25,"Snow,Fog"
693,-73.75,45.47,MONTREAL/PIERRE ELLIOTT TRUDEAU INTL A,7025250,2012-12-29 21:00,2012,12,29,21:00,-9.8,-11.8,85,24,8.0,100.24,"Snow,Fog"
694,-73.75,45.47,MONTREAL/PIERRE ELLIOTT TRUDEAU INTL A,7025250,2012-12-29 22:00,2012,12,29,22:00,-10.1,-11.6,89,15,2.4,100.2,"Snow,Fog"
695,-73.75,45.47,MONTREAL/PIERRE ELLIOTT TRUDEAU INTL A,7025250,2012-12-29 23:00,2012,12,29,23:00,-10.0,-12.0,85,20,6.4,100.19,"Snow,Fog"
696,-73.75,45.47,MONTREAL/PIERRE ELLIOTT TRUDEAU INTL A,7025250,2012-12-30 00:00,2012,12,30,00:00,-9.6,-11.3,87,13,3.2,100.23,"Snow,Fog"
697,-73.75,45.47,MONTREAL/PIERRE ELLIOTT TRUDEAU INTL A,7025250,2012-12-30 01:00,2012,12,30,01:00,-9.4,-10.5,92,9,2.4,100.22,"Snow,Fog"
698,-73.75,45.47,MONTREAL/PIERRE ELLIOTT TRUDEAU INTL A,7025250,2012-12-30 02:00,2012,12,30,02:00,-9.3,-10.4,92,9,4.0,100.28,"Snow,Fog"
699,-73.75,45.47,MONTREAL/PIERRE ELLIOTT TRUDEAU INTL A,7025250,2012-12-30 03:00,2012,12,30,03:00,-9.1,-10.4,90,11,3.6,100.3,"Snow,Fog"
700,-73.75,45.47,MONTREAL/PIERRE ELLIOTT TRUDEAU INTL A,7025250,2012-12-30 04:00,2012,12,30,04:00,-9.3,-10.6,90,13,9.7,100.28,"Snow,Fog"
701,-73.75,45.47,MONTREAL/PIERRE ELLIOTT TRUDEAU INTL A,7025250,2012-12-30 05:00,2012,12,30,05:00,-9.1,-10.4,90,11,4.0,100.32,"Snow,Fog"
702,-73.75,45.47,MONTREAL/PIERRE ELLIOTT TRUDEAU INTL A,7025250,2012-12-30 06:00,2012,12,30,06:00,-9.3,-10.8,89,17,8.0,100.39,"Snow,Fog"
703,-73.75,45.47,MONTREAL/PIERRE ELLIOTT TRUDEAU INTL A,7025250,2012-12-30 07:00,2012,12,30,07:00,-9.9,-13.2,77,19,25.0,100.48,Mostly Cloudy
704,-73.75,45.47,MONTREAL/PIERRE ELLIOTT TRUDEAU INTL A,7025250,2012-12-30 08:00,2012,12,30,08:00,-11.3,-14.5,77,20,24.1,100.57,Cloudy
705,-73.75,45.47,MONTREAL/PIERRE ELLIOTT TRUDEAU INTL A,7025250,2012-12-30 09:00,2012,12,30,09:00,-11.7,-15.0,76,19,24.1,100.69,Cloudy
706,-73.75,45.47,MONTREAL/PIERRE ELLIOTT TRUDEAU INTL A,7025250,2012-12-30 10:00,2012,12,30,10:00,-12.4,-16.0,74,24,24.1,100.82,Cloudy
707,-73.75,45.47,MONTREAL/PIERRE ELLIOTT TRUDEAU INTL A,7025250,2012-12-30 11:00,2012,12,30,11:00,-11.9,-15.4,75,32,24.1,100.89,Cloudy
708,-73.75,45.47,MONTREAL/PIERRE ELLIOTT TRUDEAU INTL A,7025250,2012-12-30 12:00,2012,12,30,12:00,-12.2,-15.7,75,26,48.3,100.91,Mostly Cloudy
709,-73.75,45.47,MONTREAL/PIERRE ELLIOTT TRUDEAU INTL A,7025250,2012-12-30 13:00,2012,12,30,13:00,-12.4,-16.2,73,37,48.3,100.92,Mostly Cloudy
710,-73.75,45.47,MONTREAL/PIERRE ELLIOTT TRUDEAU INTL A,7025250,2012-12-30 14:00,2012,12,30,14:00,-11.8,-16.1,70,37,48.3,100.96,Mainly Clear
711,-73.75,45.47,MONTREAL/PIERRE ELLIOTT TRUDEAU INTL A,7025250,2012-12-30 15:00,2012,12,30,15:00,-11.3,-15.6,70,32,48.3,101.05,Mainly Clear
712,-73.75,45.47,MONTREAL/PIERRE ELLIOTT TRUDEAU INTL A,7025250,2012-12-30 16:00,2012,12,30,16:00,-11.4,-15.5,72,26,48.3,101.15,Mainly Clear
713,-73.75,45.47,MONTREAL/PIERRE ELLIOTT TRUDEAU INTL A,7025250,2012-12-30 17:00,2012,12,30,17:00,-12.1,-15.8,74,28,25.0,101.26,Mainly Clear
714,-73.75,45.47,MONTREAL/PIERRE ELLIOTT TRUDEAU INTL A,7025250,2012-12-30 18:00,2012,12,30,18:00,-12.6,-16.0,76,24,25.0,101.36,Mainly Clear
715,-73.75,45.47,MONTREAL/PIERRE ELLIOTT TRUDEAU INTL A,7025250,2012-12-30 19:00,2012,12,30,19:00,-13.4,-16.5,77,26,25.0,101.47,Mainly Clear
716,-73.75,45.47,MONTREAL/PIERRE ELLIOTT TRUDEAU INTL A,7025250,2012-12-30 20:00,2012,12,30,20:00,-13.8,-16.5,80,24,25.0,101.52,Clear
717,-73.75,45.47,MONTREAL/PIERRE ELLIOTT TRUDEAU INTL A,7025250,2012-12-30 21:00,2012,12,30,21:00,-13.8,-16.5,80,20,25.0,101.5,Mainly Clear
718,-73.75,45.47,MONTREAL/PIERRE ELLIOTT TRUDEAU INTL A,7025250,2012-12-30 22:00,2012,12,30,22:00,-13.7,-16.3,81,19,25.0,101.54,Mainly Clear
719,-73.75,45.47,MONTREAL/PIERRE ELLIOTT TRUDEAU INTL A,7025250,2012-12-30 23:00,2012,12,30,23:00,-12.1,-15.1,78,28,25.0,101.52,Mostly Cloudy
720,-73.75,45.47,MONTREAL/PIERRE ELLIOTT TRUDEAU INTL A,7025250,2012-12-31 00:00,2012,12,31,00:00,-11.1,-14.4,77,26,25.0,101.51,Cloudy
721,-73.75,45.47,MONTREAL/PIERRE ELLIOTT TRUDEAU INTL A,7025250,2012-12-31 01:00,2012,12,31,01:00,-10.7,-14.0,77,15,25.0,101.5,Cloudy
722,-73.75,45.47,MONTREAL/PIERRE ELLIOTT TRUDEAU INTL A,7025250,2012-12-31 02:00,2012,12,31,02:00,-10.1,-13.4,77,9,25.0,101.45,Cloudy
723,-73.75,45.47,MONTREAL/PIERRE ELLIOTT TRUDEAU INTL A,7025250,2012-12-31 03:00,2012,12,31,03:00,-11.8,-14.4,81,6,25.0,101.42,Mostly Cloudy
724,-73.75,45.47,MONTREAL/PIERRE ELLIOTT TRUDEAU INTL A,7025250,2012-12-31 04:00,2012,12,31,04:00,-10.5,-12.8,83,11,25.0,101.34,Cloudy
725,-73.75,45.47,MONTREAL/PIERRE ELLIOTT TRUDEAU INTL A,7025250,2012-12-31 05:00,2012,12,31,05:00,-10.2,-12.4,84,6,25.0,101.28,Cloudy
726,-73.75,45.47,MONTREAL/PIERRE ELLIOTT TRUDEAU INTL A,7025250,2012-12-31 06:00,2012,12,31,06:00,-9.7,-11.7,85,4,25.0,101.23,Cloudy
727,-73.75,45.47,MONTREAL/PIERRE ELLIOTT TRUDEAU INTL A,7025250,2012-12-31 07:00,2012,12,31,07:00,-9.3,-11.3,85,0,19.3,101.19,Snow Showers
728,-73.75,45.47,MONTREAL/PIERRE ELLIOTT TRUDEAU INTL A,7025250,2012-12-31 08:00,2012,12,31,08:00,-8.6,-10.3,87,4,3.2,101.14,Snow Showers
729,-73.75,45.47,MONTREAL/PIERRE ELLIOTT TRUDEAU INTL A,7025250,2012-12-31 09:00,2012,12,31,09:00,-8.1,-9.6,89,4,2.4,101.09,Snow
730,-73.75,45.47,MONTREAL/PIERRE ELLIOTT TRUDEAU INTL A,7025250,2012-12-31 10:00,2012,12,31,10:00,-7.4,-8.9,89,4,6.4,101.05,"Snow,Fog"
731,-73.75,45.47,MONTREAL/PIERRE ELLIOTT TRUDEAU INTL A,7025250,2012-12-31 11:00,2012,12,31,11:00,-6.7,-7.9,91,9,9.7,100.93,Snow
732,-73.75,45.47,MONTREAL/PIERRE ELLIOTT TRUDEAU INTL A,7025250,2012-12-31 12:00,2012,12,31,12:00,-5.8,-7.5,88,4,12.9,100.78,Snow
733,-73.75,45.47,MONTREAL/PIERRE ELLIOTT TRUDEAU INTL A,7025250,2012-12-31 13:00,2012,12,31,13:00,-4.6,-6.6,86,4,12.9,100.63,Snow
734,-73.75,45.47,MONTREAL/PIERRE ELLIOTT TRUDEAU INTL A,7025250,2012-12-31 14:00,2012,12,31,14:00,-3.4,-5.7,84,6,11.3,100.57,Snow
735,-73.75,45.47,MONTREAL/PIERRE ELLIOTT TRUDEAU INTL A,7025250,2012-12-31 15:00,2012,12,31,15:00,-2.3,-4.6,84,9,9.7,100.47,Snow
736,-73.75,45.47,MONTREAL/PIERRE ELLIOTT TRUDEAU INTL A,7025250,2012-12-31 16:00,2012,12,31,16:00,-1.4,-4.0,82,13,12.9,100.4,Snow
737,-73.75,45.47,MONTREAL/PIERRE ELLIOTT TRUDEAU INTL A,7025250,2012-12-31 17:00,2012,12,31,17:00,-1.1,-3.3,85,19,9.7,100.3,Snow
738,-73.75,45.47,MONTREAL/PIERRE ELLIOTT TRUDEAU INTL A,7025250,2012-12-31 18:00,2012,12,31,18:00,-1.3,-3.1,88,17,9.7,100.19,Snow
739,-73.75,45.47,MONTREAL/PIERRE ELLIOTT TRUDEAU INTL A,7025250,2012-12-31 19:00,2012,12,31,19:00,0.1,-2.7,81,30,9.7,100.13,Snow
740,-73.75,45.47,MONTREAL/PIERRE ELLIOTT TRUDEAU INTL A,7025250,2012-12-31 20:00,2012,12,31,20:00,0.2,-2.4,83,24,9.7,100.03,Snow
741,-73.75,45.47,MONTREAL/PIERRE ELLIOTT TRUDEAU INTL A,7025250,2012-12-31 21:00,2012,12,31,21:00,-0.5,-1.5,93,28,4.8,99.95,Snow
742,-73.75,45.47,MONTREAL/PIERRE ELLIOTT TRUDEAU INTL A,7025250,2012-12-31 22:00,2012,12,31,22:00,-0.2,-1.8,89,28,9.7,99.91,Snow
743,-73.75,45.47,MONTREAL/PIERRE ELLIOTT TRUDEAU INTL A,7025250,2012-12-31 23:00,2012,12,31,23:00,0.0,-2.1,86,30,11.3,99.89,Snow
