,Longitude (x),Latitude (y),Station Name,Climate ID,Date/Time (LST),Year,Month,Day,Time (LST),Temp (°C),Dew Point Temp (°C),Rel Hum (%),Wind Spd (km/h),Visibility (km),Stn Press (kPa),Weather
0,-73.75,45.47,MONTREAL/PIERRE ELLIOTT TRUDEAU INTL A,7025250,2012-11-01 00:00,2012,11,1,00:00,7.8,6.8,93,7,25.0,99.39,Mostly Cloudy
1,-73.75,45.47,MONTREAL/PIERRE ELLIOTT TRUDEAU INTL A,7025250,2012-11-01 01:00,2012,11,1,01:00,7.6,6.8,95,6,25.0,99.37,Cloudy
2,-73.75,45.47,MONTREAL/PIERRE ELLIOTT TRUDEAU INTL A,7025250,2012-11-01 02:00,2012,11,1,02:00,7.6,6.2,91,4,25.0,99.35,Rain Showers
3,-73.75,45.47,MONTREAL/PIERRE ELLIOTT TRUDEAU INTL A,7025250,2012-11-01 03:00,2012,11,1,03:00,7.3,5.5,88,6,19.3,99.33,Rain Showers
4,-73.75,45.47,MONTREAL/PIERRE ELLIOTT TRUDEAU INTL A,7025250,2012-11-01 04:00,2012,11,1,04:00,7.7,4.7,81,0,25.0,99.32,Rain Showers
5,-73.75,45.47,MONTREAL/PIERRE ELLIOTT TRUDEAU INTL A,7025250,2012-11-01 05:00,2012,11,1,05:00,7.7,5.0,83,4,25.0,99.32,Rain
6,-73.75,45.47,MONTREAL/PIERRE ELLIOTT TRUDEAU INTL A,7025250,2012-11-01 06:00,2012,11,1,06:00,7.4,5.4,87,4,25.0,99.31,Cloudy
7,-73.75,45.47,MONTREAL/PIERRE ELLIOTT TRUDEAU INTL A,7025250,2012-11-01 07:00,2012,11,1,07:00,7.3,4.7,84,7,24.1,99.32,Rain
8,-73.75,45.47,MONTREAL/PIERRE ELLIOTT TRUDEAU INTL A,7025250,2012-11-01 08:00,2012,11,1,08:00,7.2,4.5,83,9,24.1,99.33,Rain
9,-73.75,45.47,MONTREAL/PIERRE ELLIOTT TRUDEAU INTL A,7025250,2012-11-01 09:00,2012,11,1,09:00,7.6,5.6,87,9,24.1,99.34,Rain
10,-73.75,45.47,MONTREAL/PIERRE ELLIOTT TRUDEAU INTL A,7025250,2012-11-01 10:00,2012,11,1,10:00,7.7,5.1,84,9,24.1,99.31,Cloudy
11,-73.75,45.47,MONTREAL/PIERRE ELLIOTT TRUDEAU INTL A,7025250,2012-11-01 11:00,2012,11,1,11:00,8.1,4.7,79,11,24.1,99.29,Cloudy
12,-73.75,45.47,MONTREAL/PIERRE ELLIOTT TRUDEAU INTL A,7025250,2012-11-01 12:00,2012,11,1,12:00,8.4,4.9,79,13,24.1,99.25,Cloudy
13,-73.75,45.47,MONTREAL/PIERRE ELLIOTT TRUDEAU INTL A,7025250,2012-11-01 13:00,2012,11,1,13:00,8.4,4.9,79,15,24.1,99.22,Rain
14,-73.75,45.47,MONTREAL/PIERRE ELLIOTT TRUDEAU INTL A,7025250,2012-11-01 14:00,2012,11,1,14:00,8.4,5.3,81,17,19.3,99.22,Drizzle
15,-73.75,45.47,MONTREAL/PIERRE ELLIOTT TRUDEAU INTL A,7025250,2012-11-01 15:00,2012,11,1,15:00,7.7,6.0,89,11,12.9,99.22,Rain
16,-73.75,45.47,MONTREAL/PIERRE ELLIOTT TRUDEAU INTL A,7025250,2012-11-01 16:00,2012,11,1,16:00,8.0,6.2,88,17,19.3,99.23,Rain
17,-73.75,45.47,MONTREAL/PIERRE ELLIOTT TRUDEAU INTL A,7025250,2012-11-01 17:00,2012,11,1,17:00,8.1,5.9,86,17,16.1,99.26,Rain
18,-73.75,45.47,MONTREAL/PIERRE ELLIOTT TRUDEAU INTL A,7025250,2012-11-01 18:00,2012,11,1,18:00,7.5,4.4,81,28,25.0,99.3,Cloudy
19,-73.75,45.47,MONTREAL/PIERRE ELLIOTT TRUDEAU INTL A,7025250,2012-11-01 19:00,2012,11,1,19:00,6.9,4.7,86,22,25.0,99.33,Rain
20,-73.75,45.47,MONTREAL/PIERRE ELLIOTT TRUDEAU INTL A,7025250,2012-11-01 20:00,2012,11,1,20:00,6.7,4.8,88,24,25.0,99.33,Rain
21,-73.75,45.47,MONTREAL/PIERRE ELLIOTT TRUDEAU INTL A,7025250,2012-11-01 21:00,2012,11,1,21:00,6.4,4.5,88,22,25.0,99.35,Rain
22,-73.75,45.47,MONTREAL/PIERRE ELLIOTT TRUDEAU INTL A,7025250,2012-11-01 22:00,2012,11,1,22:00,5.6,3.6,87,20,25.0,99.37,Rain
23,-73.75,45.47,MONTREAL/PIERRE ELLIOTT TRUDEAU INTL A,7025250,2012-11-01 23:00,2012,11,1,23:00,5.5,2.9,83,19,25.0,99.38,Rain
24,-73.75,45.47,MONTREAL/PIERRE ELLIOTT TRUDEAU INTL A,7025250,2012-11-02 00:00,2012,11,2,00:00,5.3,2.8,84,19,25.0,99.4,Cloudy
25,-73.75,45.47,MONTREAL/PIERRE ELLIOTT TRUDEAU INTL A,7025250,2012-11-02 01:00,2012,11,2,01:00,5.1,2.6,84,20,25.0,99.42,Cloudy
26,-73.75,45.47,MONTREAL/PIERRE ELLIOTT TRUDEAU INTL A,7025250,2012-11-02 02:00,2012,11,2,02:00,5.0,2.6,84,22,25.0,99.45,Cloudy
27,-73.75,45.47,MONTREAL/PIERRE ELLIOTT TRUDEAU INTL A,7025250,2012-11-02 03:00,2012,11,2,03:00,4.8,2.8,87,24,25.0,99.45,Cloudy
28,-73.75,45.47,MONTREAL/PIERRE ELLIOTT TRUDEAU INTL A,7025250,2012-11-02 04:00,2012,11,2,04:00,4.7,2.5,86,20,25.0,99.46,Cloudy
29,-73.75,45.47,MONTREAL/PIERRE ELLIOTT TRUDEAU INTL A,7025250,2012-11-02 05:00,2012,11,2,05:00,4.8,2.9,87,19,25.0,99.46,Rain Showers
30,-73.75,45.47,MONTREAL/PIERRE ELLIOTT TRUDEAU INTL A,7025250,2012-11-02 06:00,2012,11,2,06:00,4.4,2.6,88,20,25.0,99.48,Rain
31,-73.75,45.47,MONTREAL/PIERRE ELLIOTT TRUDEAU INTL A,7025250,2012-11-02 07:00,2012,11,2,07:00,4.1,2.4,89,19,25.0,99.53,Rain
32,-73.75,45.47,MONTREAL/PIERRE ELLIOTT TRUDEAU INTL A,7025250,2012-11-02 08:00,2012,11,2,08:00,3.9,2.5,91,17,24.1,99.58,Rain
33,-73.75,45.47,MONTREAL/PIERRE ELLIOTT TRUDEAU INTL A,7025250,2012-11-02 09:00,2012,11,2,09:00,3.7,2.1,89,22,24.1,99.61,Rain
34,-73.75,45.47,MONTREAL/PIERRE ELLIOTT TRUDEAU INTL A,7025250,2012-11-02 10:00,2012,11,2,10:00,3.9,2.4,90,20,24.1,99.64,Rain
35,-73.75,45.47,MONTREAL/PIERRE ELLIOTT TRUDEAU INTL A,7025250,2012-11-02 11:00,2012,11,2,11:00,4.2,2.8,91,22,24.1,99.67,Drizzle
36,-73.75,45.47,MONTREAL/PIERRE ELLIOTT TRUDEAU INTL A,7025250,2012-11-02 12:00,2012,11,2,12:00,4.3,2.9,91,15,24.1,99.68,Drizzle
37,-73.75,45.47,MONTREAL/PIERRE ELLIOTT TRUDEAU INTL A,7025250,2012-11-02 13:00,2012,11,2,13:00,4.3,3.1,92,20,24.1,99.7,Drizzle
38,-73.75,45.47,MONTREAL/PIERRE ELLIOTT TRUDEAU INTL A,7025250,2012-11-02 14:00,2012,11,2,14:00,4.6,3.3,91,20,24.1,99.7,Cloudy
39,-73.75,45.47,MONTREAL/PIERRE ELLIOTT TRUDEAU INTL A,7025250,2012-11-02 15:00,2012,11,2,15:00,4.8,3.4,91,19,24.1,99.74,Cloudy
40,-73.75,45.47,MONTREAL/PIERRE ELLIOTT TRUDEAU INTL A,7025250,2012-11-02 16:00,2012,11,2,16:00,4.9,3.6,91,22,19.3,99.78,Cloudy
41,-73.75,45.47,MONTREAL/PIERRE ELLIOTT TRUDEAU INTL A,7025250,2012-11-02 17:00,2012,11,2,17:00,5.3,3.7,89,19,25.0,99.81,Cloudy
42,-73.75,45.47,MONTREAL/PIERRE ELLIOTT TRUDEAU INTL A,7025250,2012-11-02 18:00,2012,11,2,18:00,5.7,4.0,89,15,25.0,99.87,Cloudy
43,-73.75,45.47,MONTREAL/PIERRE ELLIOTT TRUDEAU INTL A,7025250,2012-11-02 19:00,2012,11,2,19:00,5.9,4.2,89,19,25.0,99.9,Rain Showers
44,-73.75,45.47,MONTREAL/PIERRE ELLIOTT TRUDEAU INTL A,7025250,2012-11-02 20:00,2012,11,2,20:00,5.8,3.7,86,17,25.0,99.94,Rain Showers
45,-73.75,45.47,MONTREAL/PIERRE ELLIOTT TRUDEAU INTL A,7025250,2012-11-02 21:00,2012,11,2,21:00,5.7,3.1,83,17,25.0,99.96,Cloudy
46,-73.75,45.47,MONTREAL/PIERRE ELLIOTT TRUDEAU INTL A,7025250,2012-11-02 22:00,2012,11,2,22:00,5.6,3.1,84,13,25.0,100.0,Rain Showers
47,-73.75,45.47,MONTREAL/PIERRE ELLIOTT TRUDEAU INTL A,7025250,2012-11-02 23:00,2012,11,2,23:00,5.6,2.8,82,13,25.0,100.02,Rain Showers
48,-73.75,45.47,MONTREAL/PIERRE ELLIOTT TRUDEAU INTL A,7025250,2012-11-03 00:00,2012,11,3,00:00,5.3,2.3,81,17,25.0,100.06,Rain Showers
49,-73.75,45.47,MONTREAL/PIERRE ELLIOTT TRUDEAU INTL A,7025250,2012-11-03 01:00,2012,11,3,01:00,4.9,2.2,83,13,25.0,100.1,Rain
50,-73.75,45.47,MONTREAL/PIERRE ELLIOTT TRUDEAU INTL A,7025250,2012-11-03 02:00,2012,11,3,02:00,4.7,1.9,82,17,25.0,100.13,Rain
51,-73.75,45.47,MONTREAL/PIERRE ELLIOTT TRUDEAU INTL A,7025250,2012-11-03 03:00,2012,11,3,03:00,4.5,1.2,79,17,25.0,100.14,Cloudy
52,-73.75,45.47,MONTREAL/PIERRE ELLIOTT TRUDEAU INTL A,7025250,2012-11-03 04:00,2012,11,3,04:00,4.1,0.9,80,20,25.0,100.17,Mostly Cloudy
53,-73.75,45.47,MONTREAL/PIERRE ELLIOTT TRUDEAU INTL A,7025250,2012-11-03 05:00,2012,11,3,05:00,4.0,0.7,79,19,25.0,100.22,Cloudy
54,-73.75,45.47,MONTREAL/PIERRE ELLIOTT TRUDEAU INTL A,7025250,2012-11-03 06:00,2012,11,3,06:00,3.7,0.2,78,17,25.0,100.27,Mostly Cloudy
55,-73.75,45.47,MONTREAL/PIERRE ELLIOTT TRUDEAU INTL A,7025250,2012-11-03 07:00,2012,11,3,07:00,3.5,0.3,80,20,24.1,100.33,Cloudy
56,-73.75,45.47,MONTREAL/PIERRE ELLIOTT TRUDEAU INTL A,7025250,2012-11-03 08:00,2012,11,3,08:00,4.2,1.2,81,20,24.1,100.39,Cloudy
57,-73.75,45.47,MONTREAL/PIERRE ELLIOTT TRUDEAU INTL A,7025250,2012-11-03 09:00,2012,11,3,09:00,4.8,1.0,76,22,25.0,100.42,Cloudy
58,-73.75,45.47,MONTREAL/PIERRE ELLIOTT TRUDEAU INTL A,7025250,2012-11-03 10:00,2012,11,3,10:00,5.1,1.6,78,22,24.1,100.45,Rain Showers
59,-73.75,45.47,MONTREAL/PIERRE ELLIOTT TRUDEAU INTL A,7025250,2012-11-03 11:00,2012,11,3,11:00,5.3,2.2,80,24,24.1,100.45,Rain Showers
60,-73.75,45.47,MONTREAL/PIERRE ELLIOTT TRUDEAU INTL A,7025250,2012-11-03 12:00,2012,11,3,12:00,5.4,2.0,79,22,24.1,100.45,Drizzle
61,-73.75,45.47,MONTREAL/PIERRE ELLIOTT TRUDEAU INTL A,7025250,2012-11-03 13:00,2012,11,3,13:00,5.1,2.6,84,22,24.1,100.46,Drizzle
62,-73.75,45.47,MONTREAL/PIERRE ELLIOTT TRUDEAU INTL A,7025250,2012-11-03 14:00,2012,11,3,14:00,5.5,2.6,82,20,24.1,100.47,Drizzle
63,-73.75,45.47,MONTREAL/PIERRE ELLIOTT TRUDEAU INTL A,7025250,2012-11-03 15:00,2012,11,3,15:00,5.4,2.7,83,24,24.1,100.52,Drizzle
64,-73.75,45.47,MONTREAL/PIERRE ELLIOTT TRUDEAU INTL A,7025250,2012-11-03 16:00,2012,11,3,16:00,5.0,2.7,85,20,24.1,100.57,Drizzle
65,-73.75,45.47,MONTREAL/PIERRE ELLIOTT TRUDEAU INTL A,7025250,2012-11-03 17:00,2012,11,3,17:00,5.0,2.3,83,20,24.1,100.62,Drizzle
66,-73.75,45.47,MONTREAL/PIERRE ELLIOTT TRUDEAU INTL A,7025250,2012-11-03 18:00,2012,11,3,18:00,4.7,2.4,85,13,25.0,100.66,Drizzle
67,-73.75,45.47,MONTREAL/PIERRE ELLIOTT TRUDEAU INTL A,7025250,2012-11-03 19:00,2012,11,3,19:00,4.8,2.3,84,15,25.0,100.69,Drizzle
68,-73.75,45.47,MONTREAL/PIERRE ELLIOTT TRUDEAU INTL A,7025250,2012-11-03 20:00,2012,11,3,20:00,5.0,1.6,79,17,25.0,100.73,Cloudy
69,-73.75,45.47,MONTREAL/PIERRE ELLIOTT TRUDEAU INTL A,7025250,2012-11-03 21:00,2012,11,3,21:00,5.0,0.9,75,15,25.0,100.76,Cloudy
70,-73.75,45.47,MONTREAL/PIERRE ELLIOTT TRUDEAU INTL A,7025250,2012-11-03 22:00,2012,11,3,22:00,4.7,0.5,74,17,25.0,100.79,Cloudy
71,-73.75,45.47,MONTREAL/PIERRE ELLIOTT TRUDEAU INTL A,7025250,2012-11-03 23:00,2012,11,3,23:00,4.3,-0.1,73,17,25.0,100.82,Cloudy
72,-73.75,45.47,MONTREAL/PIERRE ELLIOTT TRUDEAU INTL A,7025250,2012-11-04 00:00,2012,11,4,00:00,3.8,-0.3,75,15,25.0,100.85,Mostly Cloudy
73,-73.75,45.47,MONTREAL/PIERRE ELLIOTT TRUDEAU INTL A,7025250,2012-11-04 01:00,2012,11,4,01:00,3.2,-0.7,76,11,25.0,100.87,Mostly Cloudy
74,-73.75,45.47,MONTREAL/PIERRE ELLIOTT TRUDEAU INTL A,7025250,2012-11-04 02:00,2012,11,4,02:00,3.0,-1.3,73,15,25.0,100.88,Mostly Cloudy
75,-73.75,45.47,MONTREAL/PIERRE ELLIOTT TRUDEAU INTL A,7025250,2012-11-04 03:00,2012,11,4,03:00,3.1,-1.2,73,17,25.0,100.88,Mostly Cloudy
76,-73.75,45.47,MONTREAL/PIERRE ELLIOTT TRUDEAU INTL A,7025250,2012-11-04 04:00,2012,11,4,04:00,2.9,-0.9,76,19,25.0,100.9,Cloudy
77,-73.75,45.47,MONTREAL/PIERRE ELLIOTT TRUDEAU INTL A,7025250,2012-11-04 05:00,2012,11,4,05:00,3.0,-1.0,75,15,25.0,100.96,Cloudy
78,-73.75,45.47,MONTREAL/PIERRE ELLIOTT TRUDEAU INTL A,7025250,2012-11-04 06:00,2012,11,4,06:00,3.0,-1.6,72,17,25.0,100.99,Cloudy
79,-73.75,45.47,MONTREAL/PIERRE ELLIOTT TRUDEAU INTL A,7025250,2012-11-04 07:00,2012,11,4,07:00,2.8,-1.9,71,15,25.0,101.05,Cloudy
80,-73.75,45.47,MONTREAL/PIERRE ELLIOTT TRUDEAU INTL A,7025250,2012-11-04 08:00,2012,11,4,08:00,2.2,-1.2,78,17,24.1,101.11,"Rain Showers,Snow Showers"
81,-73.75,45.47,MONTREAL/PIERRE ELLIOTT TRUDEAU INTL A,7025250,2012-11-04 09:00,2012,11,4,09:00,2.9,-1.2,74,17,24.1,101.12,Snow Showers
82,-73.75,45.47,MONTREAL/PIERRE ELLIOTT TRUDEAU INTL A,7025250,2012-11-04 10:00,2012,11,4,10:00,3.0,-2.2,69,19,24.1,101.1,Mostly Cloudy
83,-73.75,45.47,MONTREAL/PIERRE ELLIOTT TRUDEAU INTL A,7025250,2012-11-04 11:00,2012,11,4,11:00,3.3,-2.3,67,13,24.1,101.08,Cloudy
84,-73.75,45.47,MONTREAL/PIERRE ELLIOTT TRUDEAU INTL A,7025250,2012-11-04 12:00,2012,11,4,12:00,3.7,-2.4,64,13,24.1,101.07,Cloudy
85,-73.75,45.47,MONTREAL/PIERRE ELLIOTT TRUDEAU INTL A,7025250,2012-11-04 13:00,2012,11,4,13:00,3.4,-2.6,65,11,24.1,101.09,Cloudy
86,-73.75,45.47,MONTREAL/PIERRE ELLIOTT TRUDEAU INTL A,7025250,2012-11-04 14:00,2012,11,4,14:00,3.4,-3.3,61,15,24.1,101.08,Cloudy
87,-73.75,45.47,MONTREAL/PIERRE ELLIOTT TRUDEAU INTL A,7025250,2012-11-04 15:00,2012,11,4,15:00,3.6,-3.9,58,17,24.1,101.08,Cloudy
88,-73.75,45.47,MONTREAL/PIERRE ELLIOTT TRUDEAU INTL A,7025250,2012-11-04 16:00,2012,11,4,16:00,3.5,-4.5,56,13,24.1,101.12,Cloudy
89,-73.75,45.47,MONTREAL/PIERRE ELLIOTT TRUDEAU INTL A,7025250,2012-11-04 17:00,2012,11,4,17:00,3.2,-4.1,59,13,24.1,101.17,Cloudy
90,-73.75,45.47,MONTREAL/PIERRE ELLIOTT TRUDEAU INTL A,7025250,2012-11-04 18:00,2012,11,4,18:00,3.0,-4.5,58,11,25.0,101.21,Cloudy
91,-73.75,45.47,MONTREAL/PIERRE ELLIOTT TRUDEAU INTL A,7025250,2012-11-04 19:00,2012,11,4,19:00,2.5,-4.3,61,9,25.0,101.25,Cloudy
92,-73.75,45.47,MONTREAL/PIERRE ELLIOTT TRUDEAU INTL A,7025250,2012-11-04 20:00,2012,11,4,20:00,2.2,-5.2,58,13,25.0,101.28,Cloudy
93,-73.75,45.47,MONTREAL/PIERRE ELLIOTT TRUDEAU INTL A,7025250,2012-11-04 21:00,2012,11,4,21:00,2.0,-5.1,59,13,25.0,101.3,Cloudy
94,-73.75,45.47,MONTREAL/PIERRE ELLIOTT TRUDEAU INTL A,7025250,2012-11-04 22:00,2012,11,4,22:00,1.8,-5.1,60,9,25.0,101.3,Cloudy
95,-73.75,45.47,MONTREAL/PIERRE ELLIOTT TRUDEAU INTL A,7025250,2012-11-04 23:00,2012,11,4,23:00,1.7,-5.0,61,11,25.0,101.27,Cloudy
96,-73.75,45.47,MONTREAL/PIERRE ELLIOTT TRUDEAU INTL A,7025250,2012-11-05 00:00,2012,11,5,00:00,1.5,-4.9,62,9,25.0,101.28,Cloudy
97,-73.75,45.47,MONTREAL/PIERRE ELLIOTT TRUDEAU INTL A,7025250,2012-11-05 01:00,2012,11,5,01:00,1.2,-4.8,64,11,25.0,101.27,Cloudy
98,-73.75,45.47,MONTREAL/PIERRE ELLIOTT TRUDEAU INTL A,7025250,2012-11-05 02:00,2012,11,5,02:00,1.3,-6.0,58,17,25.0,101.29,Cloudy
99,-73.75,45.47,MONTREAL/PIERRE ELLIOTT TRUDEAU INTL A,7025250,2012-11-05 03:00,2012,11,5,03:00,0.8,-7.7,53,17,25.0,101.29,Cloudy
100,-73.75,45.47,MONTREAL/PIERRE ELLIOTT TRUDEAU INTL A,7025250,2012-11-05 04:00,2012,11,5,04:00,0.4,-7.0,58,13,25.0,101.32,Cloudy
101,-73.75,45.47,MONTREAL/PIERRE ELLIOTT TRUDEAU INTL A,7025250,2012-11-05 05:00,2012,11,5,05:00,-1.1,-6.7,66,11,25.0,101.34,Mostly Cloudy
102,-73.75,45.47,MONTREAL/PIERRE ELLIOTT TRUDEAU INTL A,7025250,2012-11-05 06:00,2012,11,5,06:00,-0.6,-5.1,72,11,25.0,101.38,Mostly Cloudy
103,-73.75,45.47,MONTREAL/PIERRE ELLIOTT TRUDEAU INTL A,7025250,2012-11-05 07:00,2012,11,5,07:00,-0.3,-5.9,66,15,24.1,101.4,Mostly Cloudy
104,-73.75,45.47,MONTREAL/PIERRE ELLIOTT TRUDEAU INTL A,7025250,2012-11-05 08:00,2012,11,5,08:00,-0.5,-5.8,67,15,24.1,101.45,Mainly Clear
105,-73.75,45.47,MONTREAL/PIERRE ELLIOTT TRUDEAU INTL A,7025250,2012-11-05 09:00,2012,11,5,09:00,0.8,-6.0,60,17,24.1,101.46,Mainly Clear
106,-73.75,45.47,MONTREAL/PIERRE ELLIOTT TRUDEAU INTL A,7025250,2012-11-05 10:00,2012,11,5,10:00,1.8,-7.0,52,17,48.3,101.49,Mainly Clear
107,-73.75,45.47,MONTREAL/PIERRE ELLIOTT TRUDEAU INTL A,7025250,2012-11-05 11:00,2012,11,5,11:00,1.7,-7.4,51,17,48.3,101.47,Mostly Cloudy
108,-73.75,45.47,MONTREAL/PIERRE ELLIOTT TRUDEAU INTL A,7025250,2012-11-05 12:00,2012,11,5,12:00,1.8,-7.7,49,15,48.3,101.44,Mostly Cloudy
109,-73.75,45.47,MONTREAL/PIERRE ELLIOTT TRUDEAU INTL A,7025250,2012-11-05 13:00,2012,11,5,13:00,1.9,-8.2,47,17,48.3,101.44,Mostly Cloudy
110,-73.75,45.47,MONTREAL/PIERRE ELLIOTT TRUDEAU INTL A,7025250,2012-11-05 14:00,2012,11,5,14:00,1.8,-8.3,47,15,48.3,101.42,Cloudy
111,-73.75,45.47,MONTREAL/PIERRE ELLIOTT TRUDEAU INTL A,7025250,2012-11-05 15:00,2012,11,5,15:00,1.8,-7.6,50,20,24.1,101.41,Mostly Cloudy
112,-73.75,45.47,MONTREAL/PIERRE ELLIOTT TRUDEAU INTL A,7025250,2012-11-05 16:00,2012,11,5,16:00,1.1,-6.0,59,19,24.1,101.44,Snow Showers
113,-73.75,45.47,MONTREAL/PIERRE ELLIOTT TRUDEAU INTL A,7025250,2012-11-05 17:00,2012,11,5,17:00,0.9,-7.8,52,17,25.0,101.49,Mostly Cloudy
114,-73.75,45.47,MONTREAL/PIERRE ELLIOTT TRUDEAU INTL A,7025250,2012-11-05 18:00,2012,11,5,18:00,0.5,-8.6,50,20,25.0,101.57,Mostly Cloudy
115,-73.75,45.47,MONTREAL/PIERRE ELLIOTT TRUDEAU INTL A,7025250,2012-11-05 19:00,2012,11,5,19:00,-0.6,-10.4,47,13,25.0,101.62,Mostly Cloudy
116,-73.75,45.47,MONTREAL/PIERRE ELLIOTT TRUDEAU INTL A,7025250,2012-11-05 20:00,2012,11,5,20:00,-1.0,-9.5,52,7,25.0,101.64,Mostly Cloudy
117,-73.75,45.47,MONTREAL/PIERRE ELLIOTT TRUDEAU INTL A,7025250,2012-11-05 21:00,2012,11,5,21:00,-2.0,-9.1,58,7,25.0,101.66,Mainly Clear
118,-73.75,45.47,MONTREAL/PIERRE ELLIOTT TRUDEAU INTL A,7025250,2012-11-05 22:00,2012,11,5,22:00,-2.2,-9.6,57,11,25.0,101.65,Mainly Clear
119,-73.75,45.47,MONTREAL/PIERRE ELLIOTT TRUDEAU INTL A,7025250,2012-11-05 23:00,2012,11,5,23:00,-3.2,-9.6,61,9,25.0,101.65,Mainly Clear
120,-73.75,45.47,MONTREAL/PIERRE ELLIOTT TRUDEAU INTL A,7025250,2012-11-06 00:00,2012,11,6,00:00,-2.9,-9.9,58,15,25.0,101.68,Mainly Clear
121,-73.75,45.47,MONTREAL/PIERRE ELLIOTT TRUDEAU INTL A,7025250,2012-11-06 01:00,2012,11,6,01:00,-3.6,-10.3,60,13,25.0,101.69,Clear
122,-73.75,45.47,MONTREAL/PIERRE ELLIOTT TRUDEAU INTL A,7025250,2012-11-06 02:00,2012,11,6,02:00,-4.7,-9.7,68,9,25.0,101.72,Clear
123,-73.75,45.47,MONTREAL/PIERRE ELLIOTT TRUDEAU INTL A,7025250,2012-11-06 03:00,2012,11,6,03:00,-5.5,-8.9,77,4,25.0,101.76,Clear
124,-73.75,45.47,MONTREAL/PIERRE ELLIOTT TRUDEAU INTL A,7025250,2012-11-06 04:00,2012,11,6,04:00,-3.3,-9.9,60,0,25.0,101.76,Mostly Cloudy
125,-73.75,45.47,MONTREAL/PIERRE ELLIOTT TRUDEAU INTL A,7025250,2012-11-06 05:00,2012,11,6,05:00,-3.0,-8.9,64,0,25.0,101.79,Mostly Cloudy
126,-73.75,45.47,MONTREAL/PIERRE ELLIOTT TRUDEAU INTL A,7025250,2012-11-06 06:00,2012,11,6,06:00,-3.7,-7.5,75,6,25.0,101.83,Mostly Cloudy
127,-73.75,45.47,MONTREAL/PIERRE ELLIOTT TRUDEAU INTL A,7025250,2012-11-06 07:00,2012,11,6,07:00,-3.4,-7.0,76,6,48.3,101.86,Mostly Cloudy
128,-73.75,45.47,MONTREAL/PIERRE ELLIOTT TRUDEAU INTL A,7025250,2012-11-06 08:00,2012,11,6,08:00,-1.6,-5.6,74,6,48.3,101.89,Mainly Clear
129,-73.75,45.47,MONTREAL/PIERRE ELLIOTT TRUDEAU INTL A,7025250,2012-11-06 09:00,2012,11,6,09:00,-0.2,-5.8,66,7,48.3,101.9,Mainly Clear
130,-73.75,45.47,MONTREAL/PIERRE ELLIOTT TRUDEAU INTL A,7025250,2012-11-06 10:00,2012,11,6,10:00,0.4,-6.1,62,7,48.3,101.93,Mostly Cloudy
131,-73.75,45.47,MONTREAL/PIERRE ELLIOTT TRUDEAU INTL A,7025250,2012-11-06 11:00,2012,11,6,11:00,1.9,-4.5,62,9,48.3,101.94,Mostly Cloudy
132,-73.75,45.47,MONTREAL/PIERRE ELLIOTT TRUDEAU INTL A,7025250,2012-11-06 12:00,2012,11,6,12:00,1.5,-6.4,56,17,48.3,101.89,Cloudy
133,-73.75,45.47,MONTREAL/PIERRE ELLIOTT TRUDEAU INTL A,7025250,2012-11-06 13:00,2012,11,6,13:00,2.3,-7.7,48,15,48.3,101.88,Mostly Cloudy
134,-73.75,45.47,MONTREAL/PIERRE ELLIOTT TRUDEAU INTL A,7025250,2012-11-06 14:00,2012,11,6,14:00,2.1,-7.4,49,9,48.3,101.87,Mostly Cloudy
135,-73.75,45.47,MONTREAL/PIERRE ELLIOTT TRUDEAU INTL A,7025250,2012-11-06 15:00,2012,11,6,15:00,2.6,-7.7,47,15,48.3,101.87,Mostly Cloudy
136,-73.75,45.47,MONTREAL/PIERRE ELLIOTT TRUDEAU INTL A,7025250,2012-11-06 16:00,2012,11,6,16:00,1.9,-8.1,47,13,48.3,101.87,Mostly Cloudy
137,-73.75,45.47,MONTREAL/PIERRE ELLIOTT TRUDEAU INTL A,7025250,2012-11-06 17:00,2012,11,6,17:00,0.0,-7.5,57,6,48.3,101.89,Mainly Clear
138,-73.75,45.47,MONTREAL/PIERRE ELLIOTT TRUDEAU INTL A,7025250,2012-11-06 18:00,2012,11,6,18:00,-0.9,-7.8,59,4,25.0,101.89,Clear
139,-73.75,45.47,MONTREAL/PIERRE ELLIOTT TRUDEAU INTL A,7025250,2012-11-06 19:00,2012,11,6,19:00,-0.3,-7.7,57,0,25.0,101.93,Clear
140,-73.75,45.47,MONTREAL/PIERRE ELLIOTT TRUDEAU INTL A,7025250,2012-11-06 20:00,2012,11,6,20:00,-1.5,-7.3,65,0,25.0,101.94,Clear
141,-73.75,45.47,MONTREAL/PIERRE ELLIOTT TRUDEAU INTL A,7025250,2012-11-06 21:00,2012,11,6,21:00,-0.7,-6.9,63,4,25.0,101.97,Clear
142,-73.75,45.47,MONTREAL/PIERRE ELLIOTT TRUDEAU INTL A,7025250,2012-11-06 22:00,2012,11,6,22:00,-0.9,-6.6,65,4,25.0,101.98,Clear
143,-73.75,45.47,MONTREAL/PIERRE ELLIOTT TRUDEAU INTL A,7025250,2012-11-06 23:00,2012,11,6,23:00,-1.5,-6.4,69,6,25.0,101.96,Clear
144,-73.75,45.47,MONTREAL/PIERRE ELLIOTT TRUDEAU INTL A,7025250,2012-11-07 00:00,2012,11,7,00:00,-0.6,-5.9,67,7,25.0,101.93,Clear
145,-73.75,45.47,MONTREAL/PIERRE ELLIOTT TRUDEAU INTL A,7025250,2012-11-07 01:00,2012,11,7,01:00,-0.9,-6.5,66,9,25.0,101.9,Clear
146,-73.75,45.47,MONTREAL/PIERRE ELLIOTT TRUDEAU INTL A,7025250,2012-11-07 02:00,2012,11,7,02:00,-2.6,-6.9,72,7,25.0,101.94,Clear
147,-73.75,45.47,MONTREAL/PIERRE ELLIOTT TRUDEAU INTL A,7025250,2012-11-07 03:00,2012,11,7,03:00,-3.6,-6.1,83,9,25.0,101.95,Clear
148,-73.75,45.47,MONTREAL/PIERRE ELLIOTT TRUDEAU INTL A,7025250,2012-11-07 04:00,2012,11,7,04:00,-4.0,-6.2,85,11,25.0,102.02,Clear
149,-73.75,45.47,MONTREAL/PIERRE ELLIOTT TRUDEAU INTL A,7025250,2012-11-07 05:00,2012,11,7,05:00,-4.3,-6.5,85,13,25.0,101.98,Clear
150,-73.75,45.47,MONTREAL/PIERRE ELLIOTT TRUDEAU INTL A,7025250,2012-11-07 06:00,2012,11,7,06:00,-4.2,-6.4,85,13,25.0,101.92,Mainly Clear
151,-73.75,45.47,MONTREAL/PIERRE ELLIOTT TRUDEAU INTL A,7025250,2012-11-07 07:00,2012,11,7,07:00,-3.7,-6.3,82,15,24.1,101.96,Mainly Clear
152,-73.75,45.47,MONTREAL/PIERRE ELLIOTT TRUDEAU INTL A,7025250,2012-11-07 08:00,2012,11,7,08:00,-3.1,-6.0,80,17,24.1,102.0,Mainly Clear
153,-73.75,45.47,MONTREAL/PIERRE ELLIOTT TRUDEAU INTL A,7025250,2012-11-07 09:00,2012,11,7,09:00,-1.3,-6.6,67,22,24.1,102.02,Mostly Cloudy
154,-73.75,45.47,MONTREAL/PIERRE ELLIOTT TRUDEAU INTL A,7025250,2012-11-07 10:00,2012,11,7,10:00,0.0,-6.8,60,20,24.1,102.01,Mostly Cloudy
155,-73.75,45.47,MONTREAL/PIERRE ELLIOTT TRUDEAU INTL A,7025250,2012-11-07 11:00,2012,11,7,11:00,1.1,-7.4,53,26,24.1,101.97,Mostly Cloudy
156,-73.75,45.47,MONTREAL/PIERRE ELLIOTT TRUDEAU INTL A,7025250,2012-11-07 12:00,2012,11,7,12:00,2.1,-7.4,49,26,24.1,101.88,Mostly Cloudy
157,-73.75,45.47,MONTREAL/PIERRE ELLIOTT TRUDEAU INTL A,7025250,2012-11-07 13:00,2012,11,7,13:00,2.4,-7.5,48,32,24.1,101.78,Mostly Cloudy
158,-73.75,45.47,MONTREAL/PIERRE ELLIOTT TRUDEAU INTL A,7025250,2012-11-07 14:00,2012,11,7,14:00,2.2,-7.4,49,24,24.1,101.75,Mostly Cloudy
159,-73.75,45.47,MONTREAL/PIERRE ELLIOTT TRUDEAU INTL A,7025250,2012-11-07 15:00,2012,11,7,15:00,1.8,-7.8,49,24,24.1,101.73,Mostly Cloudy
160,-73.75,45.47,MONTREAL/PIERRE ELLIOTT TRUDEAU INTL A,7025250,2012-11-07 16:00,2012,11,7,16:00,1.5,-7.1,53,26,24.1,101.7,Mostly Cloudy
161,-73.75,45.47,MONTREAL/PIERRE ELLIOTT TRUDEAU INTL A,7025250,2012-11-07 17:00,2012,11,7,17:00,1.2,-6.2,58,20,25.0,101.67,Mainly Clear
162,-73.75,45.47,MONTREAL/PIERRE ELLIOTT TRUDEAU INTL A,7025250,2012-11-07 18:00,2012,11,7,18:00,1.0,-5.6,61,19,25.0,101.68,Mostly Cloudy
163,-73.75,45.47,MONTREAL/PIERRE ELLIOTT TRUDEAU INTL A,7025250,2012-11-07 19:00,2012,11,7,19:00,1.4,-6.7,55,20,25.0,101.69,Mainly Clear
164,-73.75,45.47,MONTREAL/PIERRE ELLIOTT TRUDEAU INTL A,7025250,2012-11-07 20:00,2012,11,7,20:00,1.3,-7.8,51,26,25.0,101.65,Mostly Cloudy
165,-73.75,45.47,MONTREAL/PIERRE ELLIOTT TRUDEAU INTL A,7025250,2012-11-07 21:00,2012,11,7,21:00,0.8,-6.4,59,22,25.0,101.64,Mainly Clear
166,-73.75,45.47,MONTREAL/PIERRE ELLIOTT TRUDEAU INTL A,7025250,2012-11-07 22:00,2012,11,7,22:00,0.0,-5.6,66,22,25.0,101.58,Clear
167,-73.75,45.47,MONTREAL/PIERRE ELLIOTT TRUDEAU INTL A,7025250,2012-11-07 23:00,2012,11,7,23:00,-0.7,-4.7,74,22,25.0,101.55,Mostly Cloudy
168,-73.75,45.47,MONTREAL/PIERRE ELLIOTT TRUDEAU INTL A,7025250,2012-11-08 00:00,2012,11,8,00:00,-0.2,-4.5,73,26,25.0,101.54,Mostly Cloudy
169,-73.75,45.47,MONTREAL/PIERRE ELLIOTT TRUDEAU INTL A,7025250,2012-11-08 01:00,2012,11,8,01:00,-0.9,-4.9,74,30,25.0,101.49,Mostly Cloudy
170,-73.75,45.47,MONTREAL/PIERRE ELLIOTT TRUDEAU INTL A,7025250,2012-11-08 02:00,2012,11,8,02:00,-1.0,-6.0,69,33,25.0,101.48,Mostly Cloudy
171,-73.75,45.47,MONTREAL/PIERRE ELLIOTT TRUDEAU INTL A,7025250,2012-11-08 03:00,2012,11,8,03:00,-0.8,-5.8,69,20,25.0,101.46,Mostly Cloudy
172,-73.75,45.47,MONTREAL/PIERRE ELLIOTT TRUDEAU INTL A,7025250,2012-11-08 04:00,2012,11,8,04:00,-1.3,-5.9,71,26,25.0,101.44,Mostly Cloudy
173,-73.75,45.47,MONTREAL/PIERRE ELLIOTT TRUDEAU INTL A,7025250,2012-11-08 05:00,2012,11,8,05:00,-1.3,-6.2,69,22,25.0,101.43,Mainly Clear
174,-73.75,45.47,MONTREAL/PIERRE ELLIOTT TRUDEAU INTL A,7025250,2012-11-08 06:00,2012,11,8,06:00,-1.4,-5.7,72,19,25.0,101.42,Mainly Clear
175,-73.75,45.47,MONTREAL/PIERRE ELLIOTT TRUDEAU INTL A,7025250,2012-11-08 07:00,2012,11,8,07:00,-1.0,-5.1,74,26,24.1,101.44,Mostly Cloudy
176,-73.75,45.47,MONTREAL/PIERRE ELLIOTT TRUDEAU INTL A,7025250,2012-11-08 08:00,2012,11,8,08:00,-0.2,-4.6,72,20,24.1,101.46,Mostly Cloudy
177,-73.75,45.47,MONTREAL/PIERRE ELLIOTT TRUDEAU INTL A,7025250,2012-11-08 09:00,2012,11,8,09:00,0.8,-4.4,68,19,24.1,101.45,Cloudy
178,-73.75,45.47,MONTREAL/PIERRE ELLIOTT TRUDEAU INTL A,7025250,2012-11-08 10:00,2012,11,8,10:00,2.4,-3.9,63,30,24.1,101.41,Mostly Cloudy
179,-73.75,45.47,MONTREAL/PIERRE ELLIOTT TRUDEAU INTL A,7025250,2012-11-08 11:00,2012,11,8,11:00,2.6,-4.0,62,30,24.1,101.38,Mostly Cloudy
180,-73.75,45.47,MONTREAL/PIERRE ELLIOTT TRUDEAU INTL A,7025250,2012-11-08 12:00,2012,11,8,12:00,3.9,-3.6,58,24,24.1,101.29,Mostly Cloudy
181,-73.75,45.47,MONTREAL/PIERRE ELLIOTT TRUDEAU INTL A,7025250,2012-11-08 13:00,2012,11,8,13:00,4.7,-3.3,56,26,24.1,101.24,Mostly Cloudy
182,-73.75,45.47,MONTREAL/PIERRE ELLIOTT TRUDEAU INTL A,7025250,2012-11-08 14:00,2012,11,8,14:00,5.1,-3.4,54,26,24.1,101.21,Mostly Cloudy
183,-73.75,45.47,MONTREAL/PIERRE ELLIOTT TRUDEAU INTL A,7025250,2012-11-08 15:00,2012,11,8,15:00,5.2,-3.3,54,20,24.1,101.18,Mostly Cloudy
184,-73.75,45.47,MONTREAL/PIERRE ELLIOTT TRUDEAU INTL A,7025250,2012-11-08 16:00,2012,11,8,16:00,4.4,-3.8,55,19,24.1,101.17,Mostly Cloudy
185,-73.75,45.47,MONTREAL/PIERRE ELLIOTT TRUDEAU INTL A,7025250,2012-11-08 17:00,2012,11,8,17:00,3.2,-4.2,58,13,24.1,101.2,Mostly Cloudy
186,-73.75,45.47,MONTREAL/PIERRE ELLIOTT TRUDEAU INTL A,7025250,2012-11-08 18:00,2012,11,8,18:00,2.4,-3.0,67,7,25.0,101.25,Mostly Cloudy
187,-73.75,45.47,MONTREAL/PIERRE ELLIOTT TRUDEAU INTL A,7025250,2012-11-08 19:00,2012,11,8,19:00,1.8,-3.3,69,9,25.0,101.27,Mostly Cloudy
188,-73.75,45.47,MONTREAL/PIERRE ELLIOTT TRUDEAU INTL A,7025250,2012-11-08 20:00,2012,11,8,20:00,1.7,-4.8,62,19,25.0,101.28,Mostly Cloudy
189,-73.75,45.47,MONTREAL/PIERRE ELLIOTT TRUDEAU INTL A,7025250,2012-11-08 21:00,2012,11,8,21:00,0.5,-4.6,69,13,25.0,101.24,Mainly Clear
190,-73.75,45.47,MONTREAL/PIERRE ELLIOTT TRUDEAU INTL A,7025250,2012-11-08 22:00,2012,11,8,22:00,-0.3,-4.8,72,11,25.0,101.21,Mainly Clear
191,-73.75,45.47,MONTREAL/PIERRE ELLIOTT TRUDEAU INTL A,7025250,2012-11-08 23:00,2012,11,8,23:00,-1.3,-5.0,76,7,25.0,101.19,Mainly Clear
192,-73.75,45.47,MONTREAL/PIERRE ELLIOTT TRUDEAU INTL A,7025250,2012-11-09 00:00,2012,11,9,00:00,-3.4,-5.7,84,7,25.0,101.21,Mainly Clear
193,-73.75,45.47,MONTREAL/PIERRE ELLIOTT TRUDEAU INTL A,7025250,2012-11-09 01:00,2012,11,9,01:00,-3.7,-5.9,85,7,25.0,101.18,Mainly Clear
194,-73.75,45.47,MONTREAL/PIERRE ELLIOTT TRUDEAU INTL A,7025250,2012-11-09 02:00,2012,11,9,02:00,-4.3,-6.3,86,7,25.0,101.19,Clear
195,-73.75,45.47,MONTREAL/PIERRE ELLIOTT TRUDEAU INTL A,7025250,2012-11-09 03:00,2012,11,9,03:00,-3.6,-5.6,86,7,25.0,101.19,Clear
196,-73.75,45.47,MONTREAL/PIERRE ELLIOTT TRUDEAU INTL A,7025250,2012-11-09 04:00,2012,11,9,04:00,-3.4,-5.2,87,7,25.0,101.2,Clear
197,-73.75,45.47,MONTREAL/PIERRE ELLIOTT TRUDEAU INTL A,7025250,2012-11-09 05:00,2012,11,9,05:00,-5.4,-6.7,91,7,25.0,101.22,Mainly Clear
198,-73.75,45.47,MONTREAL/PIERRE ELLIOTT TRUDEAU INTL A,7025250,2012-11-09 06:00,2012,11,9,06:00,-3.2,-4.8,89,7,25.0,101.25,Mainly Clear
199,-73.75,45.47,MONTREAL/PIERRE ELLIOTT TRUDEAU INTL A,7025250,2012-11-09 07:00,2012,11,9,07:00,-2.5,-4.2,88,7,24.1,101.3,Mostly Cloudy
200,-73.75,45.47,MONTREAL/PIERRE ELLIOTT TRUDEAU INTL A,7025250,2012-11-09 08:00,2012,11,9,08:00,-1.6,-3.6,86,7,48.3,101.36,Mostly Cloudy
201,-73.75,45.47,MONTREAL/PIERRE ELLIOTT TRUDEAU INTL A,7025250,2012-11-09 09:00,2012,11,9,09:00,1.3,-2.4,76,17,48.3,101.34,Mostly Cloudy
202,-73.75,45.47,MONTREAL/PIERRE ELLIOTT TRUDEAU INTL A,7025250,2012-11-09 10:00,2012,11,9,10:00,2.3,-3.3,66,19,48.3,101.36,Cloudy
203,-73.75,45.47,MONTREAL/PIERRE ELLIOTT TRUDEAU INTL A,7025250,2012-11-09 11:00,2012,11,9,11:00,3.3,-4.1,58,20,48.3,101.36,Mostly Cloudy
204,-73.75,45.47,MONTREAL/PIERRE ELLIOTT TRUDEAU INTL A,7025250,2012-11-09 12:00,2012,11,9,12:00,3.4,-3.6,60,22,48.3,101.31,Mostly Cloudy
205,-73.75,45.47,MONTREAL/PIERRE ELLIOTT TRUDEAU INTL A,7025250,2012-11-09 13:00,2012,11,9,13:00,4.0,-3.2,59,20,24.1,101.26,Cloudy
206,-73.75,45.47,MONTREAL/PIERRE ELLIOTT TRUDEAU INTL A,7025250,2012-11-09 14:00,2012,11,9,14:00,4.8,-2.7,58,20,24.1,101.27,Mostly Cloudy
207,-73.75,45.47,MONTREAL/PIERRE ELLIOTT TRUDEAU INTL A,7025250,2012-11-09 15:00,2012,11,9,15:00,4.6,-2.0,62,24,24.1,101.29,Cloudy
208,-73.75,45.47,MONTREAL/PIERRE ELLIOTT TRUDEAU INTL A,7025250,2012-11-09 16:00,2012,11,9,16:00,4.5,-1.9,63,26,24.1,101.32,Cloudy
209,-73.75,45.47,MONTREAL/PIERRE ELLIOTT TRUDEAU INTL A,7025250,2012-11-09 17:00,2012,11,9,17:00,4.6,-1.2,66,22,25.0,101.36,Cloudy
210,-73.75,45.47,MONTREAL/PIERRE ELLIOTT TRUDEAU INTL A,7025250,2012-11-09 18:00,2012,11,9,18:00,4.6,-0.5,69,15,25.0,101.42,Cloudy
211,-73.75,45.47,MONTREAL/PIERRE ELLIOTT TRUDEAU INTL A,7025250,2012-11-09 19:00,2012,11,9,19:00,4.6,-0.3,70,15,25.0,101.45,Cloudy
212,-73.75,45.47,MONTREAL/PIERRE ELLIOTT TRUDEAU INTL A,7025250,2012-11-09 20:00,2012,11,9,20:00,4.2,-0.3,72,11,25.0,101.47,Cloudy
213,-73.75,45.47,MONTREAL/PIERRE ELLIOTT TRUDEAU INTL A,7025250,2012-11-09 21:00,2012,11,9,21:00,4.6,0.5,75,9,25.0,101.54,Cloudy
214,-73.75,45.47,MONTREAL/PIERRE ELLIOTT TRUDEAU INTL A,7025250,2012-11-09 22:00,2012,11,9,22:00,4.5,0.6,76,11,25.0,101.48,Mostly Cloudy
215,-73.75,45.47,MONTREAL/PIERRE ELLIOTT TRUDEAU INTL A,7025250,2012-11-09 23:00,2012,11,9,23:00,4.0,0.8,80,15,25.0,101.5,Mostly Cloudy
216,-73.75,45.47,MONTREAL/PIERRE ELLIOTT TRUDEAU INTL A,7025250,2012-11-10 00:00,2012,11,10,00:00,2.8,0.4,84,13,25.0,101.55,Mostly Cloudy
217,-73.75,45.47,MONTREAL/PIERRE ELLIOTT TRUDEAU INTL A,7025250,2012-11-10 01:00,2012,11,10,01:00,3.6,0.6,81,9,25.0,101.62,Mostly Cloudy
218,-73.75,45.47,MONTREAL/PIERRE ELLIOTT TRUDEAU INTL A,7025250,2012-11-10 02:00,2012,11,10,02:00,2.7,-0.5,79,9,25.0,101.66,Mainly Clear
219,-73.75,45.47,MONTREAL/PIERRE ELLIOTT TRUDEAU INTL A,7025250,2012-11-10 03:00,2012,11,10,03:00,2.6,-2.7,68,11,25.0,101.75,Mainly Clear
220,-73.75,45.47,MONTREAL/PIERRE ELLIOTT TRUDEAU INTL A,7025250,2012-11-10 04:00,2012,11,10,04:00,1.1,-3.5,71,11,25.0,101.84,Mainly Clear
221,-73.75,45.47,MONTREAL/PIERRE ELLIOTT TRUDEAU INTL A,7025250,2012-11-10 05:00,2012,11,10,05:00,0.7,-4.0,71,6,25.0,101.98,Mainly Clear
222,-73.75,45.47,MONTREAL/PIERRE ELLIOTT TRUDEAU INTL A,7025250,2012-11-10 06:00,2012,11,10,06:00,-0.6,-5.2,71,9,25.0,102.07,Mainly Clear
223,-73.75,45.47,MONTREAL/PIERRE ELLIOTT TRUDEAU INTL A,7025250,2012-11-10 07:00,2012,11,10,07:00,-1.4,-6.0,71,13,24.1,102.22,Clear
224,-73.75,45.47,MONTREAL/PIERRE ELLIOTT TRUDEAU INTL A,7025250,2012-11-10 08:00,2012,11,10,08:00,0.4,-4.9,68,13,24.1,102.32,Clear
225,-73.75,45.47,MONTREAL/PIERRE ELLIOTT TRUDEAU INTL A,7025250,2012-11-10 09:00,2012,11,10,09:00,2.0,-5.2,59,15,48.3,102.39,Clear
226,-73.75,45.47,MONTREAL/PIERRE ELLIOTT TRUDEAU INTL A,7025250,2012-11-10 10:00,2012,11,10,10:00,2.4,-5.9,54,7,48.3,102.43,Mainly Clear
227,-73.75,45.47,MONTREAL/PIERRE ELLIOTT TRUDEAU INTL A,7025250,2012-11-10 11:00,2012,11,10,11:00,3.3,-7.3,46,6,48.3,102.45,Mainly Clear
228,-73.75,45.47,MONTREAL/PIERRE ELLIOTT TRUDEAU INTL A,7025250,2012-11-10 12:00,2012,11,10,12:00,4.2,-7.7,42,6,48.3,102.43,Mainly Clear
229,-73.75,45.47,MONTREAL/PIERRE ELLIOTT TRUDEAU INTL A,7025250,2012-11-10 13:00,2012,11,10,13:00,4.7,-8.0,39,6,48.3,102.39,Mostly Cloudy
230,-73.75,45.47,MONTREAL/PIERRE ELLIOTT TRUDEAU INTL A,7025250,2012-11-10 14:00,2012,11,10,14:00,5.6,-7.6,38,4,48.3,102.37,Mostly Cloudy
231,-73.75,45.47,MONTREAL/PIERRE ELLIOTT TRUDEAU INTL A,7025250,2012-11-10 15:00,2012,11,10,15:00,5.2,-6.9,41,11,48.3,102.4,Mostly Cloudy
232,-73.75,45.47,MONTREAL/PIERRE ELLIOTT TRUDEAU INTL A,7025250,2012-11-10 16:00,2012,11,10,16:00,3.6,-8.2,42,9,48.3,102.39,Mostly Cloudy
233,-73.75,45.47,MONTREAL/PIERRE ELLIOTT TRUDEAU INTL A,7025250,2012-11-10 17:00,2012,11,10,17:00,3.5,-7.8,43,7,25.0,102.47,Mostly Cloudy
234,-73.75,45.47,MONTREAL/PIERRE ELLIOTT TRUDEAU INTL A,7025250,2012-11-10 18:00,2012,11,10,18:00,3.4,-7.0,46,7,25.0,102.53,Mostly Cloudy
235,-73.75,45.47,MONTREAL/PIERRE ELLIOTT TRUDEAU INTL A,7025250,2012-11-10 19:00,2012,11,10,19:00,2.6,-6.4,51,7,25.0,102.58,Mainly Clear
236,-73.75,45.47,MONTREAL/PIERRE ELLIOTT TRUDEAU INTL A,7025250,2012-11-10 20:00,2012,11,10,20:00,2.6,-5.3,56,15,25.0,102.56,Mainly Clear
237,-73.75,45.47,MONTREAL/PIERRE ELLIOTT TRUDEAU INTL A,7025250,2012-11-10 21:00,2012,11,10,21:00,1.8,-6.1,56,9,25.0,102.53,Clear
238,-73.75,45.47,MONTREAL/PIERRE ELLIOTT TRUDEAU INTL A,7025250,2012-11-10 22:00,2012,11,10,22:00,0.9,-4.6,67,11,25.0,102.55,Mainly Clear
239,-73.75,45.47,MONTREAL/PIERRE ELLIOTT TRUDEAU INTL A,7025250,2012-11-10 23:00,2012,11,10,23:00,1.1,-6.7,56,11,25.0,102.5,Mainly Clear
240,-73.75,45.47,MONTREAL/PIERRE ELLIOTT TRUDEAU INTL A,7025250,2012-11-11 00:00,2012,11,11,00:00,2.4,-7.2,49,7,25.0,102.45,Mostly Cloudy
241,-73.75,45.47,MONTREAL/PIERRE ELLIOTT TRUDEAU INTL A,7025250,2012-11-11 01:00,2012,11,11,01:00,2.7,-7.3,48,13,25.0,102.34,Mostly Cloudy
242,-73.75,45.47,MONTREAL/PIERRE ELLIOTT TRUDEAU INTL A,7025250,2012-11-11 02:00,2012,11,11,02:00,3.0,-7.8,45,11,25.0,102.33,Cloudy
243,-73.75,45.47,MONTREAL/PIERRE ELLIOTT TRUDEAU INTL A,7025250,2012-11-11 03:00,2012,11,11,03:00,3.1,-7.6,45,17,25.0,102.24,Cloudy
244,-73.75,45.47,MONTREAL/PIERRE ELLIOTT TRUDEAU INTL A,7025250,2012-11-11 04:00,2012,11,11,04:00,0.9,-4.3,68,20,25.0,102.34,Cloudy
245,-73.75,45.47,MONTREAL/PIERRE ELLIOTT TRUDEAU INTL A,7025250,2012-11-11 05:00,2012,11,11,05:00,0.3,-4.0,73,20,25.0,102.23,Rain
246,-73.75,45.47,MONTREAL/PIERRE ELLIOTT TRUDEAU INTL A,7025250,2012-11-11 06:00,2012,11,11,06:00,0.5,-2.3,81,17,25.0,102.26,Rain
247,-73.75,45.47,MONTREAL/PIERRE ELLIOTT TRUDEAU INTL A,7025250,2012-11-11 07:00,2012,11,11,07:00,0.6,-2.1,82,22,24.1,102.3,Cloudy
248,-73.75,45.47,MONTREAL/PIERRE ELLIOTT TRUDEAU INTL A,7025250,2012-11-11 08:00,2012,11,11,08:00,0.6,-2.0,83,20,24.1,102.34,Cloudy
249,-73.75,45.47,MONTREAL/PIERRE ELLIOTT TRUDEAU INTL A,7025250,2012-11-11 09:00,2012,11,11,09:00,1.1,-2.0,80,20,24.1,102.29,Cloudy
250,-73.75,45.47,MONTREAL/PIERRE ELLIOTT TRUDEAU INTL A,7025250,2012-11-11 10:00,2012,11,11,10:00,1.7,-0.6,85,17,24.1,102.31,Rain Showers
251,-73.75,45.47,MONTREAL/PIERRE ELLIOTT TRUDEAU INTL A,7025250,2012-11-11 11:00,2012,11,11,11:00,2.9,-0.2,80,22,24.1,102.21,Rain Showers
252,-73.75,45.47,MONTREAL/PIERRE ELLIOTT TRUDEAU INTL A,7025250,2012-11-11 12:00,2012,11,11,12:00,3.7,0.3,78,24,24.1,102.15,Mostly Cloudy
253,-73.75,45.47,MONTREAL/PIERRE ELLIOTT TRUDEAU INTL A,7025250,2012-11-11 13:00,2012,11,11,13:00,5.5,1.4,75,17,48.3,102.11,Mainly Clear
254,-73.75,45.47,MONTREAL/PIERRE ELLIOTT TRUDEAU INTL A,7025250,2012-11-11 14:00,2012,11,11,14:00,6.3,1.6,72,20,48.3,102.08,Clear
255,-73.75,45.47,MONTREAL/PIERRE ELLIOTT TRUDEAU INTL A,7025250,2012-11-11 15:00,2012,11,11,15:00,7.0,1.9,70,19,48.3,102.07,Mainly Clear
256,-73.75,45.47,MONTREAL/PIERRE ELLIOTT TRUDEAU INTL A,7025250,2012-11-11 16:00,2012,11,11,16:00,6.6,1.8,71,20,24.1,102.07,Mostly Cloudy
257,-73.75,45.47,MONTREAL/PIERRE ELLIOTT TRUDEAU INTL A,7025250,2012-11-11 17:00,2012,11,11,17:00,4.8,1.5,79,17,25.0,102.12,Mostly Cloudy
258,-73.75,45.47,MONTREAL/PIERRE ELLIOTT TRUDEAU INTL A,7025250,2012-11-11 18:00,2012,11,11,18:00,3.3,1.1,85,13,25.0,102.13,Mainly Clear
259,-73.75,45.47,MONTREAL/PIERRE ELLIOTT TRUDEAU INTL A,7025250,2012-11-11 19:00,2012,11,11,19:00,1.9,0.2,88,17,25.0,102.14,Clear
260,-73.75,45.47,MONTREAL/PIERRE ELLIOTT TRUDEAU INTL A,7025250,2012-11-11 20:00,2012,11,11,20:00,1.5,-0.1,89,15,25.0,102.15,Clear
261,-73.75,45.47,MONTREAL/PIERRE ELLIOTT TRUDEAU INTL A,7025250,2012-11-11 21:00,2012,11,11,21:00,1.3,-0.3,89,15,25.0,102.13,Mainly Clear
262,-73.75,45.47,MONTREAL/PIERRE ELLIOTT TRUDEAU INTL A,7025250,2012-11-11 22:00,2012,11,11,22:00,1.0,-0.5,90,13,25.0,102.07,Clear
263,-73.75,45.47,MONTREAL/PIERRE ELLIOTT TRUDEAU INTL A,7025250,2012-11-11 23:00,2012,11,11,23:00,1.1,-0.3,90,15,25.0,102.04,Clear
264,-73.75,45.47,MONTREAL/PIERRE ELLIOTT TRUDEAU INTL A,7025250,2012-11-12 00:00,2012,11,12,00:00,0.9,-0.3,92,19,19.3,101.99,Mainly Clear
265,-73.75,45.47,MONTREAL/PIERRE ELLIOTT TRUDEAU INTL A,7025250,2012-11-12 01:00,2012,11,12,01:00,0.6,-0.8,90,17,25.0,101.97,Mainly Clear
266,-73.75,45.47,MONTREAL/PIERRE ELLIOTT TRUDEAU INTL A,7025250,2012-11-12 02:00,2012,11,12,02:00,0.4,-0.7,92,15,19.3,101.98,Mainly Clear
267,-73.75,45.47,MONTREAL/PIERRE ELLIOTT TRUDEAU INTL A,7025250,2012-11-12 03:00,2012,11,12,03:00,0.2,-0.9,92,15,19.3,101.94,Clear
268,-73.75,45.47,MONTREAL/PIERRE ELLIOTT TRUDEAU INTL A,7025250,2012-11-12 04:00,2012,11,12,04:00,-0.3,-1.1,94,11,19.3,101.95,Clear
269,-73.75,45.47,MONTREAL/PIERRE ELLIOTT TRUDEAU INTL A,7025250,2012-11-12 05:00,2012,11,12,05:00,-0.2,-1.2,93,11,19.3,101.91,Clear
270,-73.75,45.47,MONTREAL/PIERRE ELLIOTT TRUDEAU INTL A,7025250,2012-11-12 06:00,2012,11,12,06:00,-0.3,-1.2,94,13,19.3,101.87,Mainly Clear
271,-73.75,45.47,MONTREAL/PIERRE ELLIOTT TRUDEAU INTL A,7025250,2012-11-12 07:00,2012,11,12,07:00,-0.2,-1.0,94,11,16.1,101.9,Mainly Clear
272,-73.75,45.47,MONTREAL/PIERRE ELLIOTT TRUDEAU INTL A,7025250,2012-11-12 08:00,2012,11,12,08:00,1.0,0.0,93,9,19.3,101.88,Mainly Clear
273,-73.75,45.47,MONTREAL/PIERRE ELLIOTT TRUDEAU INTL A,7025250,2012-11-12 09:00,2012,11,12,09:00,4.2,1.8,84,7,19.3,101.83,Mainly Clear
274,-73.75,45.47,MONTREAL/PIERRE ELLIOTT TRUDEAU INTL A,7025250,2012-11-12 10:00,2012,11,12,10:00,7.2,3.3,76,6,19.3,101.78,Mostly Cloudy
275,-73.75,45.47,MONTREAL/PIERRE ELLIOTT TRUDEAU INTL A,7025250,2012-11-12 11:00,2012,11,12,11:00,11.8,5.3,64,6,19.3,101.71,Mostly Cloudy
276,-73.75,45.47,MONTREAL/PIERRE ELLIOTT TRUDEAU INTL A,7025250,2012-11-12 12:00,2012,11,12,12:00,17.5,8.5,55,13,19.3,101.61,Mostly Cloudy
277,-73.75,45.47,MONTREAL/PIERRE ELLIOTT TRUDEAU INTL A,7025250,2012-11-12 13:00,2012,11,12,13:00,16.9,8.4,57,22,24.1,101.52,Mostly Cloudy
278,-73.75,45.47,MONTREAL/PIERRE ELLIOTT TRUDEAU INTL A,7025250,2012-11-12 14:00,2012,11,12,14:00,16.3,8.2,59,22,24.1,101.43,Cloudy
279,-73.75,45.47,MONTREAL/PIERRE ELLIOTT TRUDEAU INTL A,7025250,2012-11-12 15:00,2012,11,12,15:00,17.0,8.4,57,20,24.1,101.33,Cloudy
280,-73.75,45.47,MONTREAL/PIERRE ELLIOTT TRUDEAU INTL A,7025250,2012-11-12 16:00,2012,11,12,16:00,16.7,8.0,56,22,24.1,101.21,Cloudy
281,-73.75,45.47,MONTREAL/PIERRE ELLIOTT TRUDEAU INTL A,7025250,2012-11-12 17:00,2012,11,12,17:00,17.1,7.5,53,33,25.0,101.13,Mostly Cloudy
282,-73.75,45.47,MONTREAL/PIERRE ELLIOTT TRUDEAU INTL A,7025250,2012-11-12 18:00,2012,11,12,18:00,17.1,7.3,52,35,25.0,101.09,Mainly Clear
283,-73.75,45.47,MONTREAL/PIERRE ELLIOTT TRUDEAU INTL A,7025250,2012-11-12 19:00,2012,11,12,19:00,17.1,7.8,54,32,25.0,100.98,Mainly Clear
284,-73.75,45.47,MONTREAL/PIERRE ELLIOTT TRUDEAU INTL A,7025250,2012-11-12 20:00,2012,11,12,20:00,16.4,7.5,56,33,25.0,100.91,Mostly Cloudy
285,-73.75,45.47,MONTREAL/PIERRE ELLIOTT TRUDEAU INTL A,7025250,2012-11-12 21:00,2012,11,12,21:00,15.9,7.7,58,30,25.0,100.9,Cloudy
286,-73.75,45.47,MONTREAL/PIERRE ELLIOTT TRUDEAU INTL A,7025250,2012-11-12 22:00,2012,11,12,22:00,16.0,8.2,60,26,25.0,100.87,Cloudy
287,-73.75,45.47,MONTREAL/PIERRE ELLIOTT TRUDEAU INTL A,7025250,2012-11-12 23:00,2012,11,12,23:00,15.6,8.9,64,24,25.0,100.84,Cloudy
288,-73.75,45.47,MONTREAL/PIERRE ELLIOTT TRUDEAU INTL A,7025250,2012-11-13 00:00,2012,11,13,00:00,14.8,10.0,73,48,25.0,100.94,Rain
289,-73.75,45.47,MONTREAL/PIERRE ELLIOTT TRUDEAU INTL A,7025250,2012-11-13 01:00,2012,11,13,01:00,9.1,7.4,89,37,12.9,101.25,Rain
290,-73.75,45.47,MONTREAL/PIERRE ELLIOTT TRUDEAU INTL A,7025250,2012-11-13 02:00,2012,11,13,02:00,8.0,6.2,88,35,25.0,101.36,Rain
291,-73.75,45.47,MONTREAL/PIERRE ELLIOTT TRUDEAU INTL A,7025250,2012-11-13 03:00,2012,11,13,03:00,7.9,5.6,85,41,25.0,101.45,Rain
292,-73.75,45.47,MONTREAL/PIERRE ELLIOTT TRUDEAU INTL A,7025250,2012-11-13 04:00,2012,11,13,04:00,6.2,4.1,86,28,25.0,101.53,Rain
293,-73.75,45.47,MONTREAL/PIERRE ELLIOTT TRUDEAU INTL A,7025250,2012-11-13 05:00,2012,11,13,05:00,5.6,3.4,86,30,25.0,101.6,Rain
294,-73.75,45.47,MONTREAL/PIERRE ELLIOTT TRUDEAU INTL A,7025250,2012-11-13 06:00,2012,11,13,06:00,5.7,3.3,85,30,25.0,101.76,Cloudy
295,-73.75,45.47,MONTREAL/PIERRE ELLIOTT TRUDEAU INTL A,7025250,2012-11-13 07:00,2012,11,13,07:00,5.4,2.3,80,30,24.1,101.78,Cloudy
296,-73.75,45.47,MONTREAL/PIERRE ELLIOTT TRUDEAU INTL A,7025250,2012-11-13 08:00,2012,11,13,08:00,5.2,0.9,74,33,24.1,101.89,Mostly Cloudy
297,-73.75,45.47,MONTREAL/PIERRE ELLIOTT TRUDEAU INTL A,7025250,2012-11-13 09:00,2012,11,13,09:00,4.6,-1.2,66,32,24.1,101.95,Mostly Cloudy
298,-73.75,45.47,MONTREAL/PIERRE ELLIOTT TRUDEAU INTL A,7025250,2012-11-13 10:00,2012,11,13,10:00,4.7,-1.3,65,37,24.1,102.07,Mostly Cloudy
299,-73.75,45.47,MONTREAL/PIERRE ELLIOTT TRUDEAU INTL A,7025250,2012-11-13 11:00,2012,11,13,11:00,4.8,-2.0,61,30,48.3,102.09,Mostly Cloudy
300,-73.75,45.47,MONTREAL/PIERRE ELLIOTT TRUDEAU INTL A,7025250,2012-11-13 12:00,2012,11,13,12:00,6.1,-1.8,57,28,48.3,102.08,Mostly Cloudy
301,-73.75,45.47,MONTREAL/PIERRE ELLIOTT TRUDEAU INTL A,7025250,2012-11-13 13:00,2012,11,13,13:00,5.3,-3.2,54,33,48.3,102.13,Mostly Cloudy
302,-73.75,45.47,MONTREAL/PIERRE ELLIOTT TRUDEAU INTL A,7025250,2012-11-13 14:00,2012,11,13,14:00,5.6,-6.5,41,30,24.1,102.18,Mainly Clear
303,-73.75,45.47,MONTREAL/PIERRE ELLIOTT TRUDEAU INTL A,7025250,2012-11-13 15:00,2012,11,13,15:00,5.4,-2.9,55,28,24.1,102.25,Mainly Clear
304,-73.75,45.47,MONTREAL/PIERRE ELLIOTT TRUDEAU INTL A,7025250,2012-11-13 16:00,2012,11,13,16:00,4.9,-5.1,48,24,24.1,102.33,Mainly Clear
305,-73.75,45.47,MONTREAL/PIERRE ELLIOTT TRUDEAU INTL A,7025250,2012-11-13 17:00,2012,11,13,17:00,3.7,-6.1,49,13,25.0,102.41,Clear
306,-73.75,45.47,MONTREAL/PIERRE ELLIOTT TRUDEAU INTL A,7025250,2012-11-13 18:00,2012,11,13,18:00,2.5,-5.5,56,11,25.0,102.54,Clear
307,-73.75,45.47,MONTREAL/PIERRE ELLIOTT TRUDEAU INTL A,7025250,2012-11-13 19:00,2012,11,13,19:00,0.8,-5.6,62,11,25.0,102.6,Clear
308,-73.75,45.47,MONTREAL/PIERRE ELLIOTT TRUDEAU INTL A,7025250,2012-11-13 20:00,2012,11,13,20:00,-0.7,-6.0,67,9,25.0,102.68,Clear
309,-73.75,45.47,MONTREAL/PIERRE ELLIOTT TRUDEAU INTL A,7025250,2012-11-13 21:00,2012,11,13,21:00,-1.0,-6.0,69,7,25.0,102.75,Clear
310,-73.75,45.47,MONTREAL/PIERRE ELLIOTT TRUDEAU INTL A,7025250,2012-11-13 22:00,2012,11,13,22:00,-0.9,-5.7,70,7,25.0,102.81,Clear
311,-73.75,45.47,MONTREAL/PIERRE ELLIOTT TRUDEAU INTL A,7025250,2012-11-13 23:00,2012,11,13,23:00,-1.5,-5.9,72,7,25.0,102.84,Clear
312,-73.75,45.47,MONTREAL/PIERRE ELLIOTT TRUDEAU INTL A,7025250,2012-11-14 00:00,2012,11,14,00:00,-0.1,-6.0,64,4,25.0,102.91,Clear
313,-73.75,45.47,MONTREAL/PIERRE ELLIOTT TRUDEAU INTL A,7025250,2012-11-14 01:00,2012,11,14,01:00,-0.7,-5.7,69,6,25.0,102.91,Clear
314,-73.75,45.47,MONTREAL/PIERRE ELLIOTT TRUDEAU INTL A,7025250,2012-11-14 02:00,2012,11,14,02:00,-2.3,-6.1,75,6,25.0,102.97,Clear
315,-73.75,45.47,MONTREAL/PIERRE ELLIOTT TRUDEAU INTL A,7025250,2012-11-14 03:00,2012,11,14,03:00,-2.4,-6.7,72,6,25.0,102.99,Clear
316,-73.75,45.47,MONTREAL/PIERRE ELLIOTT TRUDEAU INTL A,7025250,2012-11-14 04:00,2012,11,14,04:00,-4.0,-7.0,80,4,25.0,103.01,Clear
317,-73.75,45.47,MONTREAL/PIERRE ELLIOTT TRUDEAU INTL A,7025250,2012-11-14 05:00,2012,11,14,05:00,-4.7,-6.6,87,4,25.0,103.09,Clear
318,-73.75,45.47,MONTREAL/PIERRE ELLIOTT TRUDEAU INTL A,7025250,2012-11-14 06:00,2012,11,14,06:00,-3.6,-6.1,83,4,25.0,103.15,Clear
319,-73.75,45.47,MONTREAL/PIERRE ELLIOTT TRUDEAU INTL A,7025250,2012-11-14 07:00,2012,11,14,07:00,-5.2,-7.0,87,4,48.3,103.25,Clear
320,-73.75,45.47,MONTREAL/PIERRE ELLIOTT TRUDEAU INTL A,7025250,2012-11-14 08:00,2012,11,14,08:00,-3.0,-4.9,87,4,48.3,103.29,Clear
321,-73.75,45.47,MONTREAL/PIERRE ELLIOTT TRUDEAU INTL A,7025250,2012-11-14 09:00,2012,11,14,09:00,0.6,-3.1,76,6,24.1,103.31,Clear
322,-73.75,45.47,MONTREAL/PIERRE ELLIOTT TRUDEAU INTL A,7025250,2012-11-14 10:00,2012,11,14,10:00,2.4,-4.3,61,2,24.1,103.34,Clear
323,-73.75,45.47,MONTREAL/PIERRE ELLIOTT TRUDEAU INTL A,7025250,2012-11-14 11:00,2012,11,14,11:00,4.6,-5.0,50,4,24.1,103.31,Clear
324,-73.75,45.47,MONTREAL/PIERRE ELLIOTT TRUDEAU INTL A,7025250,2012-11-14 12:00,2012,11,14,12:00,4.8,-6.4,44,7,24.1,103.25,Mainly Clear
325,-73.75,45.47,MONTREAL/PIERRE ELLIOTT TRUDEAU INTL A,7025250,2012-11-14 13:00,2012,11,14,13:00,4.8,-6.6,43,4,48.3,103.2,Mainly Clear
326,-73.75,45.47,MONTREAL/PIERRE ELLIOTT TRUDEAU INTL A,7025250,2012-11-14 14:00,2012,11,14,14:00,5.2,-6.2,44,6,48.3,103.15,Clear
327,-73.75,45.47,MONTREAL/PIERRE ELLIOTT TRUDEAU INTL A,7025250,2012-11-14 15:00,2012,11,14,15:00,4.6,-7.4,41,6,48.3,103.15,Clear
328,-73.75,45.47,MONTREAL/PIERRE ELLIOTT TRUDEAU INTL A,7025250,2012-11-14 16:00,2012,11,14,16:00,4.2,-7.4,43,6,48.3,103.16,Mainly Clear
329,-73.75,45.47,MONTREAL/PIERRE ELLIOTT TRUDEAU INTL A,7025250,2012-11-14 17:00,2012,11,14,17:00,3.6,-7.2,45,7,24.1,103.15,Mainly Clear
330,-73.75,45.47,MONTREAL/PIERRE ELLIOTT TRUDEAU INTL A,7025250,2012-11-14 18:00,2012,11,14,18:00,2.8,-6.3,51,7,25.0,103.16,Clear
331,-73.75,45.47,MONTREAL/PIERRE ELLIOTT TRUDEAU INTL A,7025250,2012-11-14 19:00,2012,11,14,19:00,2.5,-5.9,54,9,25.0,103.17,Clear
332,-73.75,45.47,MONTREAL/PIERRE ELLIOTT TRUDEAU INTL A,7025250,2012-11-14 20:00,2012,11,14,20:00,2.1,-5.8,56,11,25.0,103.18,Clear
333,-73.75,45.47,MONTREAL/PIERRE ELLIOTT TRUDEAU INTL A,7025250,2012-11-14 21:00,2012,11,14,21:00,1.8,-6.1,56,7,25.0,103.16,Clear
334,-73.75,45.47,MONTREAL/PIERRE ELLIOTT TRUDEAU INTL A,7025250,2012-11-14 22:00,2012,11,14,22:00,1.4,-5.7,59,13,25.0,103.15,Clear
335,-73.75,45.47,MONTREAL/PIERRE ELLIOTT TRUDEAU INTL A,7025250,2012-11-14 23:00,2012,11,14,23:00,0.4,-6.2,61,11,25.0,103.12,Clear
336,-73.75,45.47,MONTREAL/PIERRE ELLIOTT TRUDEAU INTL A,7025250,2012-11-15 00:00,2012,11,15,00:00,-1.4,-6.1,70,13,25.0,103.1,Clear
337,-73.75,45.47,MONTREAL/PIERRE ELLIOTT TRUDEAU INTL A,7025250,2012-11-15 01:00,2012,11,15,01:00,-2.0,-5.1,79,9,25.0,103.06,Mainly Clear
338,-73.75,45.47,MONTREAL/PIERRE ELLIOTT TRUDEAU INTL A,7025250,2012-11-15 02:00,2012,11,15,02:00,-2.3,-5.1,81,13,25.0,103.0,Mainly Clear
339,-73.75,45.47,MONTREAL/PIERRE ELLIOTT TRUDEAU INTL A,7025250,2012-11-15 03:00,2012,11,15,03:00,-2.9,-5.4,83,9,25.0,103.01,Mainly Clear
340,-73.75,45.47,MONTREAL/PIERRE ELLIOTT TRUDEAU INTL A,7025250,2012-11-15 04:00,2012,11,15,04:00,-3.6,-6.3,82,9,25.0,103.0,Clear
341,-73.75,45.47,MONTREAL/PIERRE ELLIOTT TRUDEAU INTL A,7025250,2012-11-15 05:00,2012,11,15,05:00,-2.9,-6.0,79,13,25.0,102.94,Mainly Clear
342,-73.75,45.47,MONTREAL/PIERRE ELLIOTT TRUDEAU INTL A,7025250,2012-11-15 06:00,2012,11,15,06:00,-3.1,-6.1,80,15,25.0,102.91,Mainly Clear
343,-73.75,45.47,MONTREAL/PIERRE ELLIOTT TRUDEAU INTL A,7025250,2012-11-15 07:00,2012,11,15,07:00,-2.9,-5.9,80,13,24.1,102.94,Mostly Cloudy
344,-73.75,45.47,MONTREAL/PIERRE ELLIOTT TRUDEAU INTL A,7025250,2012-11-15 08:00,2012,11,15,08:00,-2.1,-5.1,80,11,24.1,102.99,Cloudy
345,-73.75,45.47,MONTREAL/PIERRE ELLIOTT TRUDEAU INTL A,7025250,2012-11-15 09:00,2012,11,15,09:00,-1.0,-4.8,75,19,24.1,102.93,Cloudy
346,-73.75,45.47,MONTREAL/PIERRE ELLIOTT TRUDEAU INTL A,7025250,2012-11-15 10:00,2012,11,15,10:00,0.3,-4.6,70,15,24.1,102.84,Cloudy
347,-73.75,45.47,MONTREAL/PIERRE ELLIOTT TRUDEAU INTL A,7025250,2012-11-15 11:00,2012,11,15,11:00,1.3,-4.8,64,11,24.1,102.79,Cloudy
348,-73.75,45.47,MONTREAL/PIERRE ELLIOTT TRUDEAU INTL A,7025250,2012-11-15 12:00,2012,11,15,12:00,1.8,-4.7,62,15,24.1,102.73,Cloudy
349,-73.75,45.47,MONTREAL/PIERRE ELLIOTT TRUDEAU INTL A,7025250,2012-11-15 13:00,2012,11,15,13:00,2.6,-5.6,55,13,24.1,102.65,Mostly Cloudy
350,-73.75,45.47,MONTREAL/PIERRE ELLIOTT TRUDEAU INTL A,7025250,2012-11-15 14:00,2012,11,15,14:00,2.6,-5.5,55,11,24.1,102.59,Mostly Cloudy
351,-73.75,45.47,MONTREAL/PIERRE ELLIOTT TRUDEAU INTL A,7025250,2012-11-15 15:00,2012,11,15,15:00,2.4,-5.8,55,13,24.1,102.55,Mainly Clear
352,-73.75,45.47,MONTREAL/PIERRE ELLIOTT TRUDEAU INTL A,7025250,2012-11-15 16:00,2012,11,15,16:00,1.8,-5.5,58,11,24.1,102.53,Mainly Clear
353,-73.75,45.47,MONTREAL/PIERRE ELLIOTT TRUDEAU INTL A,7025250,2012-11-15 17:00,2012,11,15,17:00,1.2,-5.9,59,9,25.0,102.53,Mainly Clear
354,-73.75,45.47,MONTREAL/PIERRE ELLIOTT TRUDEAU INTL A,7025250,2012-11-15 18:00,2012,11,15,18:00,1.0,-5.9,60,7,25.0,102.54,Clear
355,-73.75,45.47,MONTREAL/PIERRE ELLIOTT TRUDEAU INTL A,7025250,2012-11-15 19:00,2012,11,15,19:00,0.5,-5.8,63,7,25.0,102.51,Clear
356,-73.75,45.47,MONTREAL/PIERRE ELLIOTT TRUDEAU INTL A,7025250,2012-11-15 20:00,2012,11,15,20:00,-0.7,-5.7,69,4,25.0,102.46,Clear
357,-73.75,45.47,MONTREAL/PIERRE ELLIOTT TRUDEAU INTL A,7025250,2012-11-15 21:00,2012,11,15,21:00,-2.9,-6.3,77,6,25.0,102.46,Clear
358,-73.75,45.47,MONTREAL/PIERRE ELLIOTT TRUDEAU INTL A,7025250,2012-11-15 22:00,2012,11,15,22:00,-1.7,-5.2,77,4,25.0,102.42,Clear
359,-73.75,45.47,MONTREAL/PIERRE ELLIOTT TRUDEAU INTL A,7025250,2012-11-15 23:00,2012,11,15,23:00,-4.3,-6.3,86,6,25.0,102.44,Clear
360,-73.75,45.47,MONTREAL/PIERRE ELLIOTT TRUDEAU INTL A,7025250,2012-11-16 00:00,2012,11,16,00:00,-3.1,-5.5,83,4,25.0,102.42,Clear
361,-73.75,45.47,MONTREAL/PIERRE ELLIOTT TRUDEAU INTL A,7025250,2012-11-16 01:00,2012,11,16,01:00,-5.3,-6.9,88,4,19.3,102.4,Clear
362,-73.75,45.47,MONTREAL/PIERRE ELLIOTT TRUDEAU INTL A,7025250,2012-11-16 02:00,2012,11,16,02:00,-4.5,-6.3,87,0,19.3,102.42,Clear
363,-73.75,45.47,MONTREAL/PIERRE ELLIOTT TRUDEAU INTL A,7025250,2012-11-16 03:00,2012,11,16,03:00,-3.6,-5.1,89,0,19.3,102.4,Clear
364,-73.75,45.47,MONTREAL/PIERRE ELLIOTT TRUDEAU INTL A,7025250,2012-11-16 04:00,2012,11,16,04:00,-6.7,-8.1,90,0,19.3,102.42,Clear
365,-73.75,45.47,MONTREAL/PIERRE ELLIOTT TRUDEAU INTL A,7025250,2012-11-16 05:00,2012,11,16,05:00,-6.5,-7.7,91,4,19.3,102.48,Clear
366,-73.75,45.47,MONTREAL/PIERRE ELLIOTT TRUDEAU INTL A,7025250,2012-11-16 06:00,2012,11,16,06:00,-5.4,-6.4,93,4,16.1,102.48,Mostly Cloudy
367,-73.75,45.47,MONTREAL/PIERRE ELLIOTT TRUDEAU INTL A,7025250,2012-11-16 07:00,2012,11,16,07:00,-5.2,-6.5,91,4,16.1,102.49,Mostly Cloudy
368,-73.75,45.47,MONTREAL/PIERRE ELLIOTT TRUDEAU INTL A,7025250,2012-11-16 08:00,2012,11,16,08:00,-3.2,-4.8,89,0,19.3,102.54,Mostly Cloudy
369,-73.75,45.47,MONTREAL/PIERRE ELLIOTT TRUDEAU INTL A,7025250,2012-11-16 09:00,2012,11,16,09:00,0.4,-1.7,86,9,19.3,102.55,Mostly Cloudy
370,-73.75,45.47,MONTREAL/PIERRE ELLIOTT TRUDEAU INTL A,7025250,2012-11-16 10:00,2012,11,16,10:00,2.0,-2.0,75,13,24.1,102.57,Mainly Clear
371,-73.75,45.47,MONTREAL/PIERRE ELLIOTT TRUDEAU INTL A,7025250,2012-11-16 11:00,2012,11,16,11:00,3.1,-2.5,67,15,24.1,102.53,Mostly Cloudy
372,-73.75,45.47,MONTREAL/PIERRE ELLIOTT TRUDEAU INTL A,7025250,2012-11-16 12:00,2012,11,16,12:00,3.9,-2.8,62,17,24.1,102.48,Mainly Clear
373,-73.75,45.47,MONTREAL/PIERRE ELLIOTT TRUDEAU INTL A,7025250,2012-11-16 13:00,2012,11,16,13:00,4.9,-2.6,58,15,24.1,102.49,Mainly Clear
374,-73.75,45.47,MONTREAL/PIERRE ELLIOTT TRUDEAU INTL A,7025250,2012-11-16 14:00,2012,11,16,14:00,5.3,-2.1,59,13,24.1,102.5,Mainly Clear
375,-73.75,45.47,MONTREAL/PIERRE ELLIOTT TRUDEAU INTL A,7025250,2012-11-16 15:00,2012,11,16,15:00,5.5,-1.9,59,9,24.1,102.5,Mostly Cloudy
376,-73.75,45.47,MONTREAL/PIERRE ELLIOTT TRUDEAU INTL A,7025250,2012-11-16 16:00,2012,11,16,16:00,4.8,-2.0,61,13,24.1,102.55,Mostly Cloudy
377,-73.75,45.47,MONTREAL/PIERRE ELLIOTT TRUDEAU INTL A,7025250,2012-11-16 17:00,2012,11,16,17:00,4.4,-1.3,66,13,25.0,102.61,Cloudy
378,-73.75,45.47,MONTREAL/PIERRE ELLIOTT TRUDEAU INTL A,7025250,2012-11-16 18:00,2012,11,16,18:00,4.2,-1.5,66,15,25.0,102.66,Cloudy
379,-73.75,45.47,MONTREAL/PIERRE ELLIOTT TRUDEAU INTL A,7025250,2012-11-16 19:00,2012,11,16,19:00,3.7,-1.7,68,13,25.0,102.69,Mostly Cloudy
380,-73.75,45.47,MONTREAL/PIERRE ELLIOTT TRUDEAU INTL A,7025250,2012-11-16 20:00,2012,11,16,20:00,3.3,-1.7,70,9,25.0,102.75,Mostly Cloudy
381,-73.75,45.47,MONTREAL/PIERRE ELLIOTT TRUDEAU INTL A,7025250,2012-11-16 21:00,2012,11,16,21:00,0.8,-2.5,79,9,25.0,102.79,Mainly Clear
382,-73.75,45.47,MONTREAL/PIERRE ELLIOTT TRUDEAU INTL A,7025250,2012-11-16 22:00,2012,11,16,22:00,-0.9,-3.1,85,11,25.0,102.81,Mainly Clear
383,-73.75,45.47,MONTREAL/PIERRE ELLIOTT TRUDEAU INTL A,7025250,2012-11-16 23:00,2012,11,16,23:00,-1.5,-3.5,86,13,25.0,102.84,Mainly Clear
384,-73.75,45.47,MONTREAL/PIERRE ELLIOTT TRUDEAU INTL A,7025250,2012-11-17 00:00,2012,11,17,00:00,-1.1,-3.5,84,9,25.0,102.9,Clear
385,-73.75,45.47,MONTREAL/PIERRE ELLIOTT TRUDEAU INTL A,7025250,2012-11-17 01:00,2012,11,17,01:00,-1.3,-3.5,85,9,25.0,102.94,Clear
386,-73.75,45.47,MONTREAL/PIERRE ELLIOTT TRUDEAU INTL A,7025250,2012-11-17 02:00,2012,11,17,02:00,-2.4,-4.2,87,11,25.0,103.05,Mainly Clear
387,-73.75,45.47,MONTREAL/PIERRE ELLIOTT TRUDEAU INTL A,7025250,2012-11-17 03:00,2012,11,17,03:00,-2.0,-5.0,80,11,25.0,103.13,Clear
388,-73.75,45.47,MONTREAL/PIERRE ELLIOTT TRUDEAU INTL A,7025250,2012-11-17 04:00,2012,11,17,04:00,-3.1,-6.5,77,17,25.0,103.17,Clear
389,-73.75,45.47,MONTREAL/PIERRE ELLIOTT TRUDEAU INTL A,7025250,2012-11-17 05:00,2012,11,17,05:00,-2.2,-7.3,68,13,25.0,103.24,Clear
390,-73.75,45.47,MONTREAL/PIERRE ELLIOTT TRUDEAU INTL A,7025250,2012-11-17 06:00,2012,11,17,06:00,-2.6,-8.2,65,13,25.0,103.28,Clear
391,-73.75,45.47,MONTREAL/PIERRE ELLIOTT TRUDEAU INTL A,7025250,2012-11-17 07:00,2012,11,17,07:00,-3.2,-8.2,68,13,24.1,103.39,Mainly Clear
392,-73.75,45.47,MONTREAL/PIERRE ELLIOTT TRUDEAU INTL A,7025250,2012-11-17 08:00,2012,11,17,08:00,-2.7,-8.2,66,15,24.1,103.47,Mainly Clear
393,-73.75,45.47,MONTREAL/PIERRE ELLIOTT TRUDEAU INTL A,7025250,2012-11-17 09:00,2012,11,17,09:00,-2.1,-8.9,60,15,24.1,103.51,Mainly Clear
394,-73.75,45.47,MONTREAL/PIERRE ELLIOTT TRUDEAU INTL A,7025250,2012-11-17 10:00,2012,11,17,10:00,-1.0,-8.9,55,7,48.3,103.52,Mostly Cloudy
395,-73.75,45.47,MONTREAL/PIERRE ELLIOTT TRUDEAU INTL A,7025250,2012-11-17 11:00,2012,11,17,11:00,-0.1,-9.1,51,4,48.3,103.5,Mostly Cloudy
396,-73.75,45.47,MONTREAL/PIERRE ELLIOTT TRUDEAU INTL A,7025250,2012-11-17 12:00,2012,11,17,12:00,1.2,-9.0,46,4,48.3,103.47,Mainly Clear
397,-73.75,45.47,MONTREAL/PIERRE ELLIOTT TRUDEAU INTL A,7025250,2012-11-17 13:00,2012,11,17,13:00,2.3,-8.3,45,4,48.3,103.43,Mainly Clear
398,-73.75,45.47,MONTREAL/PIERRE ELLIOTT TRUDEAU INTL A,7025250,2012-11-17 14:00,2012,11,17,14:00,2.8,-7.4,47,6,48.3,103.43,Mainly Clear
399,-73.75,45.47,MONTREAL/PIERRE ELLIOTT TRUDEAU INTL A,7025250,2012-11-17 15:00,2012,11,17,15:00,2.4,-7.4,48,6,48.3,103.43,Mainly Clear
400,-73.75,45.47,MONTREAL/PIERRE ELLIOTT TRUDEAU INTL A,7025250,2012-11-17 16:00,2012,11,17,16:00,2.0,-7.3,50,4,48.3,103.46,Mainly Clear
401,-73.75,45.47,MONTREAL/PIERRE ELLIOTT TRUDEAU INTL A,7025250,2012-11-17 17:00,2012,11,17,17:00,0.9,-7.7,53,4,25.0,103.46,Clear
402,-73.75,45.47,MONTREAL/PIERRE ELLIOTT TRUDEAU INTL A,7025250,2012-11-17 18:00,2012,11,17,18:00,-1.7,-7.9,63,4,25.0,103.5,Mainly Clear
403,-73.75,45.47,MONTREAL/PIERRE ELLIOTT TRUDEAU INTL A,7025250,2012-11-17 19:00,2012,11,17,19:00,-2.1,-7.2,68,4,25.0,103.51,Clear
404,-73.75,45.47,MONTREAL/PIERRE ELLIOTT TRUDEAU INTL A,7025250,2012-11-17 20:00,2012,11,17,20:00,-0.1,-7.0,60,7,25.0,103.49,Clear
405,-73.75,45.47,MONTREAL/PIERRE ELLIOTT TRUDEAU INTL A,7025250,2012-11-17 21:00,2012,11,17,21:00,-1.4,-6.5,68,7,25.0,103.51,Clear
406,-73.75,45.47,MONTREAL/PIERRE ELLIOTT TRUDEAU INTL A,7025250,2012-11-17 22:00,2012,11,17,22:00,-1.0,-6.3,67,7,25.0,103.54,Clear
407,-73.75,45.47,MONTREAL/PIERRE ELLIOTT TRUDEAU INTL A,7025250,2012-11-17 23:00,2012,11,17,23:00,-1.3,-6.7,67,9,25.0,103.56,Clear
408,-73.75,45.47,MONTREAL/PIERRE ELLIOTT TRUDEAU INTL A,7025250,2012-11-18 00:00,2012,11,18,00:00,-1.6,-6.2,71,0,25.0,103.58,Clear
409,-73.75,45.47,MONTREAL/PIERRE ELLIOTT TRUDEAU INTL A,7025250,2012-11-18 01:00,2012,11,18,01:00,-3.2,-6.9,76,0,25.0,103.59,Clear
410,-73.75,45.47,MONTREAL/PIERRE ELLIOTT TRUDEAU INTL A,7025250,2012-11-18 02:00,2012,11,18,02:00,-4.6,-6.9,84,0,25.0,103.63,Clear
411,-73.75,45.47,MONTREAL/PIERRE ELLIOTT TRUDEAU INTL A,7025250,2012-11-18 03:00,2012,11,18,03:00,-3.9,-6.1,85,7,25.0,103.61,Clear
412,-73.75,45.47,MONTREAL/PIERRE ELLIOTT TRUDEAU INTL A,7025250,2012-11-18 04:00,2012,11,18,04:00,-4.8,-6.9,85,7,25.0,103.59,Clear
413,-73.75,45.47,MONTREAL/PIERRE ELLIOTT TRUDEAU INTL A,7025250,2012-11-18 05:00,2012,11,18,05:00,-5.0,-7.4,83,7,25.0,103.61,Clear
414,-73.75,45.47,MONTREAL/PIERRE ELLIOTT TRUDEAU INTL A,7025250,2012-11-18 06:00,2012,11,18,06:00,-5.4,-7.4,86,9,25.0,103.59,Mainly Clear
415,-73.75,45.47,MONTREAL/PIERRE ELLIOTT TRUDEAU INTL A,7025250,2012-11-18 07:00,2012,11,18,07:00,-6.4,-8.4,86,9,24.1,103.63,Mostly Cloudy
416,-73.75,45.47,MONTREAL/PIERRE ELLIOTT TRUDEAU INTL A,7025250,2012-11-18 08:00,2012,11,18,08:00,-4.5,-6.4,87,7,24.1,103.65,Cloudy
417,-73.75,45.47,MONTREAL/PIERRE ELLIOTT TRUDEAU INTL A,7025250,2012-11-18 09:00,2012,11,18,09:00,-2.4,-5.4,80,9,24.1,103.65,Cloudy
418,-73.75,45.47,MONTREAL/PIERRE ELLIOTT TRUDEAU INTL A,7025250,2012-11-18 10:00,2012,11,18,10:00,-0.5,-6.8,62,7,24.1,103.65,Mostly Cloudy
419,-73.75,45.47,MONTREAL/PIERRE ELLIOTT TRUDEAU INTL A,7025250,2012-11-18 11:00,2012,11,18,11:00,1.9,-6.5,54,7,48.3,103.59,Mostly Cloudy
420,-73.75,45.47,MONTREAL/PIERRE ELLIOTT TRUDEAU INTL A,7025250,2012-11-18 12:00,2012,11,18,12:00,4.1,-10.1,35,4,48.3,103.51,Mostly Cloudy
421,-73.75,45.47,MONTREAL/PIERRE ELLIOTT TRUDEAU INTL A,7025250,2012-11-18 13:00,2012,11,18,13:00,4.0,-11.6,31,6,48.3,103.46,Mostly Cloudy
422,-73.75,45.47,MONTREAL/PIERRE ELLIOTT TRUDEAU INTL A,7025250,2012-11-18 14:00,2012,11,18,14:00,4.5,-10.6,32,7,48.3,103.39,Mostly Cloudy
423,-73.75,45.47,MONTREAL/PIERRE ELLIOTT TRUDEAU INTL A,7025250,2012-11-18 15:00,2012,11,18,15:00,4.5,-11.9,29,9,48.3,103.38,Mostly Cloudy
424,-73.75,45.47,MONTREAL/PIERRE ELLIOTT TRUDEAU INTL A,7025250,2012-11-18 16:00,2012,11,18,16:00,2.7,-9.3,41,9,24.1,103.36,Mostly Cloudy
425,-73.75,45.47,MONTREAL/PIERRE ELLIOTT TRUDEAU INTL A,7025250,2012-11-18 17:00,2012,11,18,17:00,1.5,-8.5,47,9,25.0,103.36,Mostly Cloudy
426,-73.75,45.47,MONTREAL/PIERRE ELLIOTT TRUDEAU INTL A,7025250,2012-11-18 18:00,2012,11,18,18:00,2.6,-7.5,47,9,25.0,103.36,Mostly Cloudy
427,-73.75,45.47,MONTREAL/PIERRE ELLIOTT TRUDEAU INTL A,7025250,2012-11-18 19:00,2012,11,18,19:00,1.1,-7.0,55,4,25.0,103.36,Mostly Cloudy
428,-73.75,45.47,MONTREAL/PIERRE ELLIOTT TRUDEAU INTL A,7025250,2012-11-18 20:00,2012,11,18,20:00,-1.8,-6.8,69,6,25.0,103.3,Mostly Cloudy
429,-73.75,45.47,MONTREAL/PIERRE ELLIOTT TRUDEAU INTL A,7025250,2012-11-18 21:00,2012,11,18,21:00,-0.6,-7.1,61,11,25.0,103.27,Mainly Clear
430,-73.75,45.47,MONTREAL/PIERRE ELLIOTT TRUDEAU INTL A,7025250,2012-11-18 22:00,2012,11,18,22:00,-1.3,-6.9,66,11,25.0,103.25,Cloudy
431,-73.75,45.47,MONTREAL/PIERRE ELLIOTT TRUDEAU INTL A,7025250,2012-11-18 23:00,2012,11,18,23:00,-2.1,-6.0,75,11,25.0,103.22,Cloudy
432,-73.75,45.47,MONTREAL/PIERRE ELLIOTT TRUDEAU INTL A,7025250,2012-11-19 00:00,2012,11,19,00:00,-1.8,-5.7,75,7,25.0,103.2,Mostly Cloudy
433,-73.75,45.47,MONTREAL/PIERRE ELLIOTT TRUDEAU INTL A,7025250,2012-11-19 01:00,2012,11,19,01:00,-2.4,-5.9,77,6,25.0,103.15,Cloudy
434,-73.75,45.47,MONTREAL/PIERRE ELLIOTT TRUDEAU INTL A,7025250,2012-11-19 02:00,2012,11,19,02:00,-3.1,-6.4,78,13,25.0,103.11,Mostly Cloudy
435,-73.75,45.47,MONTREAL/PIERRE ELLIOTT TRUDEAU INTL A,7025250,2012-11-19 03:00,2012,11,19,03:00,-3.6,-6.9,78,9,25.0,103.11,Mostly Cloudy
436,-73.75,45.47,MONTREAL/PIERRE ELLIOTT TRUDEAU INTL A,7025250,2012-11-19 04:00,2012,11,19,04:00,-3.7,-6.9,78,6,25.0,103.05,Mostly Cloudy
437,-73.75,45.47,MONTREAL/PIERRE ELLIOTT TRUDEAU INTL A,7025250,2012-11-19 05:00,2012,11,19,05:00,-4.0,-7.1,79,9,25.0,103.03,Mainly Clear
438,-73.75,45.47,MONTREAL/PIERRE ELLIOTT TRUDEAU INTL A,7025250,2012-11-19 06:00,2012,11,19,06:00,-4.3,-7.0,81,7,25.0,103.01,Clear
439,-73.75,45.47,MONTREAL/PIERRE ELLIOTT TRUDEAU INTL A,7025250,2012-11-19 07:00,2012,11,19,07:00,-4.6,-7.1,83,9,16.1,102.99,Clear
440,-73.75,45.47,MONTREAL/PIERRE ELLIOTT TRUDEAU INTL A,7025250,2012-11-19 08:00,2012,11,19,08:00,-2.8,-5.9,79,11,24.1,102.99,Mainly Clear
441,-73.75,45.47,MONTREAL/PIERRE ELLIOTT TRUDEAU INTL A,7025250,2012-11-19 09:00,2012,11,19,09:00,-0.5,-4.5,74,7,24.1,102.92,Clear
442,-73.75,45.47,MONTREAL/PIERRE ELLIOTT TRUDEAU INTL A,7025250,2012-11-19 10:00,2012,11,19,10:00,1.3,-3.4,71,7,19.3,102.9,Mainly Clear
443,-73.75,45.47,MONTREAL/PIERRE ELLIOTT TRUDEAU INTL A,7025250,2012-11-19 11:00,2012,11,19,11:00,2.4,-3.4,65,6,24.1,102.83,Mainly Clear
444,-73.75,45.47,MONTREAL/PIERRE ELLIOTT TRUDEAU INTL A,7025250,2012-11-19 12:00,2012,11,19,12:00,4.9,-2.7,58,4,24.1,102.72,Clear
445,-73.75,45.47,MONTREAL/PIERRE ELLIOTT TRUDEAU INTL A,7025250,2012-11-19 13:00,2012,11,19,13:00,4.9,-0.4,69,6,19.3,102.64,Mainly Clear
446,-73.75,45.47,MONTREAL/PIERRE ELLIOTT TRUDEAU INTL A,7025250,2012-11-19 14:00,2012,11,19,14:00,5.9,-0.9,62,6,19.3,102.54,Mainly Clear
447,-73.75,45.47,MONTREAL/PIERRE ELLIOTT TRUDEAU INTL A,7025250,2012-11-19 15:00,2012,11,19,15:00,6.2,-1.2,59,4,24.1,102.5,Mainly Clear
448,-73.75,45.47,MONTREAL/PIERRE ELLIOTT TRUDEAU INTL A,7025250,2012-11-19 16:00,2012,11,19,16:00,3.7,-2.0,66,6,24.1,102.45,Mainly Clear
449,-73.75,45.47,MONTREAL/PIERRE ELLIOTT TRUDEAU INTL A,7025250,2012-11-19 17:00,2012,11,19,17:00,3.0,-1.5,72,4,25.0,102.42,Clear
450,-73.75,45.47,MONTREAL/PIERRE ELLIOTT TRUDEAU INTL A,7025250,2012-11-19 18:00,2012,11,19,18:00,1.1,-1.9,80,4,19.3,102.39,Mainly Clear
451,-73.75,45.47,MONTREAL/PIERRE ELLIOTT TRUDEAU INTL A,7025250,2012-11-19 19:00,2012,11,19,19:00,0.1,-2.9,80,4,25.0,102.33,Mainly Clear
452,-73.75,45.47,MONTREAL/PIERRE ELLIOTT TRUDEAU INTL A,7025250,2012-11-19 20:00,2012,11,19,20:00,-1.4,-3.6,85,6,25.0,102.29,Clear
453,-73.75,45.47,MONTREAL/PIERRE ELLIOTT TRUDEAU INTL A,7025250,2012-11-19 21:00,2012,11,19,21:00,-2.5,-3.8,91,4,19.3,102.23,Mainly Clear
454,-73.75,45.47,MONTREAL/PIERRE ELLIOTT TRUDEAU INTL A,7025250,2012-11-19 22:00,2012,11,19,22:00,-3.3,-4.3,93,6,12.9,102.21,Clear
455,-73.75,45.47,MONTREAL/PIERRE ELLIOTT TRUDEAU INTL A,7025250,2012-11-19 23:00,2012,11,19,23:00,-0.7,-2.2,90,6,9.7,102.16,Fog
456,-73.75,45.47,MONTREAL/PIERRE ELLIOTT TRUDEAU INTL A,7025250,2012-11-20 00:00,2012,11,20,00:00,-3.3,-4.5,91,7,9.7,102.12,Fog
457,-73.75,45.47,MONTREAL/PIERRE ELLIOTT TRUDEAU INTL A,7025250,2012-11-20 01:00,2012,11,20,01:00,-3.6,-4.3,95,7,9.7,102.08,Fog
458,-73.75,45.47,MONTREAL/PIERRE ELLIOTT TRUDEAU INTL A,7025250,2012-11-20 02:00,2012,11,20,02:00,-1.8,-3.5,88,6,8.0,102.08,Fog
459,-73.75,45.47,MONTREAL/PIERRE ELLIOTT TRUDEAU INTL A,7025250,2012-11-20 03:00,2012,11,20,03:00,-3.6,-4.5,93,6,9.7,102.08,Fog
460,-73.75,45.47,MONTREAL/PIERRE ELLIOTT TRUDEAU INTL A,7025250,2012-11-20 04:00,2012,11,20,04:00,-2.9,-4.5,89,6,6.4,102.02,Fog
461,-73.75,45.47,MONTREAL/PIERRE ELLIOTT TRUDEAU INTL A,7025250,2012-11-20 05:00,2012,11,20,05:00,-2.9,-4.5,89,6,6.4,102.0,Fog
462,-73.75,45.47,MONTREAL/PIERRE ELLIOTT TRUDEAU INTL A,7025250,2012-11-20 06:00,2012,11,20,06:00,-2.9,-4.8,87,6,6.4,102.01,Fog
463,-73.75,45.47,MONTREAL/PIERRE ELLIOTT TRUDEAU INTL A,7025250,2012-11-20 07:00,2012,11,20,07:00,-3.4,-5.2,87,7,4.8,102.02,Fog
464,-73.75,45.47,MONTREAL/PIERRE ELLIOTT TRUDEAU INTL A,7025250,2012-11-20 08:00,2012,11,20,08:00,-2.0,-4.4,84,9,9.7,102.03,Haze
465,-73.75,45.47,MONTREAL/PIERRE ELLIOTT TRUDEAU INTL A,7025250,2012-11-20 09:00,2012,11,20,09:00,-0.7,-3.6,81,6,9.7,102.01,Haze
466,-73.75,45.47,MONTREAL/PIERRE ELLIOTT TRUDEAU INTL A,7025250,2012-11-20 10:00,2012,11,20,10:00,1.9,-1.9,76,9,12.9,102.0,Mostly Cloudy
467,-73.75,45.47,MONTREAL/PIERRE ELLIOTT TRUDEAU INTL A,7025250,2012-11-20 11:00,2012,11,20,11:00,3.0,-2.2,69,6,11.3,101.96,Cloudy
468,-73.75,45.47,MONTREAL/PIERRE ELLIOTT TRUDEAU INTL A,7025250,2012-11-20 12:00,2012,11,20,12:00,4.6,-1.9,63,2,11.3,101.88,Cloudy
469,-73.75,45.47,MONTREAL/PIERRE ELLIOTT TRUDEAU INTL A,7025250,2012-11-20 13:00,2012,11,20,13:00,5.5,-1.0,63,4,11.3,101.83,Mostly Cloudy
470,-73.75,45.47,MONTREAL/PIERRE ELLIOTT TRUDEAU INTL A,7025250,2012-11-20 14:00,2012,11,20,14:00,5.8,-1.6,59,6,12.9,101.77,Mostly Cloudy
471,-73.75,45.47,MONTREAL/PIERRE ELLIOTT TRUDEAU INTL A,7025250,2012-11-20 15:00,2012,11,20,15:00,5.9,-1.5,59,11,16.1,101.77,Cloudy
472,-73.75,45.47,MONTREAL/PIERRE ELLIOTT TRUDEAU INTL A,7025250,2012-11-20 16:00,2012,11,20,16:00,5.6,-1.6,60,6,16.1,101.78,Cloudy
473,-73.75,45.47,MONTREAL/PIERRE ELLIOTT TRUDEAU INTL A,7025250,2012-11-20 17:00,2012,11,20,17:00,4.2,-0.4,72,7,16.1,101.79,Cloudy
474,-73.75,45.47,MONTREAL/PIERRE ELLIOTT TRUDEAU INTL A,7025250,2012-11-20 18:00,2012,11,20,18:00,2.4,-0.9,79,6,19.3,101.82,Mostly Cloudy
475,-73.75,45.47,MONTREAL/PIERRE ELLIOTT TRUDEAU INTL A,7025250,2012-11-20 19:00,2012,11,20,19:00,1.9,-1.1,80,7,16.1,101.85,Mostly Cloudy
476,-73.75,45.47,MONTREAL/PIERRE ELLIOTT TRUDEAU INTL A,7025250,2012-11-20 20:00,2012,11,20,20:00,3.4,-2.0,68,9,19.3,101.86,Mostly Cloudy
477,-73.75,45.47,MONTREAL/PIERRE ELLIOTT TRUDEAU INTL A,7025250,2012-11-20 21:00,2012,11,20,21:00,1.9,-2.5,73,9,25.0,101.84,Mostly Cloudy
478,-73.75,45.47,MONTREAL/PIERRE ELLIOTT TRUDEAU INTL A,7025250,2012-11-20 22:00,2012,11,20,22:00,1.9,-2.3,74,7,25.0,101.81,Mostly Cloudy
479,-73.75,45.47,MONTREAL/PIERRE ELLIOTT TRUDEAU INTL A,7025250,2012-11-20 23:00,2012,11,20,23:00,2.0,-2.3,73,9,25.0,101.83,Mostly Cloudy
480,-73.75,45.47,MONTREAL/PIERRE ELLIOTT TRUDEAU INTL A,7025250,2012-11-21 00:00,2012,11,21,00:00,3.1,-2.1,69,6,25.0,101.8,Mostly Cloudy
481,-73.75,45.47,MONTREAL/PIERRE ELLIOTT TRUDEAU INTL A,7025250,2012-11-21 01:00,2012,11,21,01:00,0.6,-2.3,81,6,25.0,101.82,Mostly Cloudy
482,-73.75,45.47,MONTREAL/PIERRE ELLIOTT TRUDEAU INTL A,7025250,2012-11-21 02:00,2012,11,21,02:00,0.4,-2.5,81,7,25.0,101.82,Mainly Clear
483,-73.75,45.47,MONTREAL/PIERRE ELLIOTT TRUDEAU INTL A,7025250,2012-11-21 03:00,2012,11,21,03:00,-0.7,-3.3,83,9,25.0,101.83,Mainly Clear
484,-73.75,45.47,MONTREAL/PIERRE ELLIOTT TRUDEAU INTL A,7025250,2012-11-21 04:00,2012,11,21,04:00,-1.9,-3.7,87,9,25.0,101.85,Mainly Clear
485,-73.75,45.47,MONTREAL/PIERRE ELLIOTT TRUDEAU INTL A,7025250,2012-11-21 05:00,2012,11,21,05:00,-1.4,-3.4,86,11,25.0,101.86,Mostly Cloudy
486,-73.75,45.47,MONTREAL/PIERRE ELLIOTT TRUDEAU INTL A,7025250,2012-11-21 06:00,2012,11,21,06:00,-1.6,-3.6,86,4,12.9,101.92,Mostly Cloudy
487,-73.75,45.47,MONTREAL/PIERRE ELLIOTT TRUDEAU INTL A,7025250,2012-11-21 07:00,2012,11,21,07:00,-0.1,-2.8,82,11,9.7,102.0,Haze
488,-73.75,45.47,MONTREAL/PIERRE ELLIOTT TRUDEAU INTL A,7025250,2012-11-21 08:00,2012,11,21,08:00,0.4,-2.2,83,7,12.9,102.01,Mostly Cloudy
489,-73.75,45.47,MONTREAL/PIERRE ELLIOTT TRUDEAU INTL A,7025250,2012-11-21 09:00,2012,11,21,09:00,2.9,-1.6,72,7,16.1,102.01,Mostly Cloudy
490,-73.75,45.47,MONTREAL/PIERRE ELLIOTT TRUDEAU INTL A,7025250,2012-11-21 10:00,2012,11,21,10:00,5.2,-1.5,62,4,19.3,101.98,Mainly Clear
491,-73.75,45.47,MONTREAL/PIERRE ELLIOTT TRUDEAU INTL A,7025250,2012-11-21 11:00,2012,11,21,11:00,6.3,-0.3,63,4,19.3,101.93,Mainly Clear
492,-73.75,45.47,MONTREAL/PIERRE ELLIOTT TRUDEAU INTL A,7025250,2012-11-21 12:00,2012,11,21,12:00,7.2,-0.4,58,6,19.3,101.89,Mainly Clear
493,-73.75,45.47,MONTREAL/PIERRE ELLIOTT TRUDEAU INTL A,7025250,2012-11-21 13:00,2012,11,21,13:00,7.4,-0.6,57,7,19.3,101.89,Mainly Clear
494,-73.75,45.47,MONTREAL/PIERRE ELLIOTT TRUDEAU INTL A,7025250,2012-11-21 14:00,2012,11,21,14:00,8.3,-1.6,50,4,19.3,101.86,Mainly Clear
495,-73.75,45.47,MONTREAL/PIERRE ELLIOTT TRUDEAU INTL A,7025250,2012-11-21 15:00,2012,11,21,15:00,8.2,-2.1,48,4,19.3,101.87,Mainly Clear
496,-73.75,45.47,MONTREAL/PIERRE ELLIOTT TRUDEAU INTL A,7025250,2012-11-21 16:00,2012,11,21,16:00,5.5,-1.5,61,7,24.1,101.86,Mainly Clear
497,-73.75,45.47,MONTREAL/PIERRE ELLIOTT TRUDEAU INTL A,7025250,2012-11-21 17:00,2012,11,21,17:00,2.8,-2.0,71,7,25.0,101.85,Mainly Clear
498,-73.75,45.47,MONTREAL/PIERRE ELLIOTT TRUDEAU INTL A,7025250,2012-11-21 18:00,2012,11,21,18:00,2.1,-1.0,80,6,25.0,101.89,Mainly Clear
499,-73.75,45.47,MONTREAL/PIERRE ELLIOTT TRUDEAU INTL A,7025250,2012-11-21 19:00,2012,11,21,19:00,2.5,-0.8,79,4,25.0,101.89,Mainly Clear
500,-73.75,45.47,MONTREAL/PIERRE ELLIOTT TRUDEAU INTL A,7025250,2012-11-21 20:00,2012,11,21,20:00,1.4,-0.9,85,6,25.0,101.9,Mostly Cloudy
501,-73.75,45.47,MONTREAL/PIERRE ELLIOTT TRUDEAU INTL A,7025250,2012-11-21 21:00,2012,11,21,21:00,2.2,-0.5,82,6,25.0,101.88,Mainly Clear
502,-73.75,45.47,MONTREAL/PIERRE ELLIOTT TRUDEAU INTL A,7025250,2012-11-21 22:00,2012,11,21,22:00,0.9,-1.4,85,4,19.3,101.88,Mostly Cloudy
503,-73.75,45.47,MONTREAL/PIERRE ELLIOTT TRUDEAU INTL A,7025250,2012-11-21 23:00,2012,11,21,23:00,1.0,-0.7,88,4,19.3,101.86,Mainly Clear
504,-73.75,45.47,MONTREAL/PIERRE ELLIOTT TRUDEAU INTL A,7025250,2012-11-22 00:00,2012,11,22,00:00,1.3,0.4,94,4,16.1,101.87,Mainly Clear
505,-73.75,45.47,MONTREAL/PIERRE ELLIOTT TRUDEAU INTL A,7025250,2012-11-22 01:00,2012,11,22,01:00,1.5,0.6,94,6,16.1,101.83,Clear
506,-73.75,45.47,MONTREAL/PIERRE ELLIOTT TRUDEAU INTL A,7025250,2012-11-22 02:00,2012,11,22,02:00,1.3,-0.1,90,4,16.1,101.85,Clear
507,-73.75,45.47,MONTREAL/PIERRE ELLIOTT TRUDEAU INTL A,7025250,2012-11-22 03:00,2012,11,22,03:00,1.1,-0.9,86,4,16.1,101.86,Clear
508,-73.75,45.47,MONTREAL/PIERRE ELLIOTT TRUDEAU INTL A,7025250,2012-11-22 04:00,2012,11,22,04:00,-0.9,-2.3,90,4,12.9,101.84,Clear
509,-73.75,45.47,MONTREAL/PIERRE ELLIOTT TRUDEAU INTL A,7025250,2012-11-22 05:00,2012,11,22,05:00,-1.4,-3.3,87,6,16.1,101.85,Clear
510,-73.75,45.47,MONTREAL/PIERRE ELLIOTT TRUDEAU INTL A,7025250,2012-11-22 06:00,2012,11,22,06:00,-0.3,-2.6,84,9,19.3,101.84,Clear
511,-73.75,45.47,MONTREAL/PIERRE ELLIOTT TRUDEAU INTL A,7025250,2012-11-22 07:00,2012,11,22,07:00,0.8,-2.6,78,4,24.1,101.85,Mainly Clear
512,-73.75,45.47,MONTREAL/PIERRE ELLIOTT TRUDEAU INTL A,7025250,2012-11-22 08:00,2012,11,22,08:00,1.7,-1.9,77,4,24.1,101.87,Mainly Clear
513,-73.75,45.47,MONTREAL/PIERRE ELLIOTT TRUDEAU INTL A,7025250,2012-11-22 09:00,2012,11,22,09:00,3.3,-0.8,74,6,24.1,101.81,Clear
514,-73.75,45.47,MONTREAL/PIERRE ELLIOTT TRUDEAU INTL A,7025250,2012-11-22 10:00,2012,11,22,10:00,6.4,-1.2,58,0,24.1,101.8,Clear
515,-73.75,45.47,MONTREAL/PIERRE ELLIOTT TRUDEAU INTL A,7025250,2012-11-22 11:00,2012,11,22,11:00,8.4,-0.8,52,6,24.1,101.72,Mainly Clear
516,-73.75,45.47,MONTREAL/PIERRE ELLIOTT TRUDEAU INTL A,7025250,2012-11-22 12:00,2012,11,22,12:00,10.8,-1.5,42,13,24.1,101.6,Mainly Clear
517,-73.75,45.47,MONTREAL/PIERRE ELLIOTT TRUDEAU INTL A,7025250,2012-11-22 13:00,2012,11,22,13:00,11.6,-3.2,35,13,24.1,101.52,Mainly Clear
518,-73.75,45.47,MONTREAL/PIERRE ELLIOTT TRUDEAU INTL A,7025250,2012-11-22 14:00,2012,11,22,14:00,12.1,-2.6,36,9,24.1,101.45,Mainly Clear
519,-73.75,45.47,MONTREAL/PIERRE ELLIOTT TRUDEAU INTL A,7025250,2012-11-22 15:00,2012,11,22,15:00,10.7,-1.2,44,15,24.1,101.39,Mainly Clear
520,-73.75,45.47,MONTREAL/PIERRE ELLIOTT TRUDEAU INTL A,7025250,2012-11-22 16:00,2012,11,22,16:00,9.2,0.4,54,15,24.1,101.37,Mainly Clear
521,-73.75,45.47,MONTREAL/PIERRE ELLIOTT TRUDEAU INTL A,7025250,2012-11-22 17:00,2012,11,22,17:00,7.1,0.1,61,15,25.0,101.35,Mainly Clear
522,-73.75,45.47,MONTREAL/PIERRE ELLIOTT TRUDEAU INTL A,7025250,2012-11-22 18:00,2012,11,22,18:00,6.9,0.5,64,15,25.0,101.34,Mainly Clear
523,-73.75,45.47,MONTREAL/PIERRE ELLIOTT TRUDEAU INTL A,7025250,2012-11-22 19:00,2012,11,22,19:00,6.3,0.6,67,6,25.0,101.3,Mainly Clear
524,-73.75,45.47,MONTREAL/PIERRE ELLIOTT TRUDEAU INTL A,7025250,2012-11-22 20:00,2012,11,22,20:00,5.9,0.4,68,7,25.0,101.28,Mainly Clear
525,-73.75,45.47,MONTREAL/PIERRE ELLIOTT TRUDEAU INTL A,7025250,2012-11-22 21:00,2012,11,22,21:00,5.6,0.8,71,17,25.0,101.24,Mainly Clear
526,-73.75,45.47,MONTREAL/PIERRE ELLIOTT TRUDEAU INTL A,7025250,2012-11-22 22:00,2012,11,22,22:00,3.4,-0.9,73,13,25.0,101.16,Mainly Clear
527,-73.75,45.47,MONTREAL/PIERRE ELLIOTT TRUDEAU INTL A,7025250,2012-11-22 23:00,2012,11,22,23:00,4.4,-1.3,66,11,25.0,101.11,Mainly Clear
528,-73.75,45.47,MONTREAL/PIERRE ELLIOTT TRUDEAU INTL A,7025250,2012-11-23 00:00,2012,11,23,00:00,4.5,-1.5,65,15,25.0,101.06,Clear
529,-73.75,45.47,MONTREAL/PIERRE ELLIOTT TRUDEAU INTL A,7025250,2012-11-23 01:00,2012,11,23,01:00,2.7,-1.0,77,17,25.0,100.96,Mainly Clear
530,-73.75,45.47,MONTREAL/PIERRE ELLIOTT TRUDEAU INTL A,7025250,2012-11-23 02:00,2012,11,23,02:00,2.6,-1.3,75,11,25.0,100.96,Mainly Clear
531,-73.75,45.47,MONTREAL/PIERRE ELLIOTT TRUDEAU INTL A,7025250,2012-11-23 03:00,2012,11,23,03:00,2.8,-2.2,70,6,25.0,100.9,Mainly Clear
532,-73.75,45.47,MONTREAL/PIERRE ELLIOTT TRUDEAU INTL A,7025250,2012-11-23 04:00,2012,11,23,04:00,1.2,-2.5,76,11,25.0,100.79,Mainly Clear
533,-73.75,45.47,MONTREAL/PIERRE ELLIOTT TRUDEAU INTL A,7025250,2012-11-23 05:00,2012,11,23,05:00,2.5,-2.4,70,11,25.0,100.69,Mostly Cloudy
534,-73.75,45.47,MONTREAL/PIERRE ELLIOTT TRUDEAU INTL A,7025250,2012-11-23 06:00,2012,11,23,06:00,3.7,-2.1,66,13,25.0,100.61,Mostly Cloudy
535,-73.75,45.47,MONTREAL/PIERRE ELLIOTT TRUDEAU INTL A,7025250,2012-11-23 07:00,2012,11,23,07:00,4.1,-1.5,67,13,48.3,100.54,Mostly Cloudy
536,-73.75,45.47,MONTREAL/PIERRE ELLIOTT TRUDEAU INTL A,7025250,2012-11-23 08:00,2012,11,23,08:00,4.3,-1.1,68,17,48.3,100.47,Cloudy
537,-73.75,45.47,MONTREAL/PIERRE ELLIOTT TRUDEAU INTL A,7025250,2012-11-23 09:00,2012,11,23,09:00,6.2,-1.2,59,20,48.3,100.34,Mostly Cloudy
538,-73.75,45.47,MONTREAL/PIERRE ELLIOTT TRUDEAU INTL A,7025250,2012-11-23 10:00,2012,11,23,10:00,8.2,0.3,57,17,24.1,100.25,Mostly Cloudy
539,-73.75,45.47,MONTREAL/PIERRE ELLIOTT TRUDEAU INTL A,7025250,2012-11-23 11:00,2012,11,23,11:00,10.4,0.4,50,24,24.1,100.11,Mostly Cloudy
540,-73.75,45.47,MONTREAL/PIERRE ELLIOTT TRUDEAU INTL A,7025250,2012-11-23 12:00,2012,11,23,12:00,12.1,1.5,48,22,24.1,99.93,Mostly Cloudy
541,-73.75,45.47,MONTREAL/PIERRE ELLIOTT TRUDEAU INTL A,7025250,2012-11-23 13:00,2012,11,23,13:00,10.9,1.3,51,24,48.3,99.8,Cloudy
542,-73.75,45.47,MONTREAL/PIERRE ELLIOTT TRUDEAU INTL A,7025250,2012-11-23 14:00,2012,11,23,14:00,10.4,1.5,54,24,48.3,99.71,Cloudy
543,-73.75,45.47,MONTREAL/PIERRE ELLIOTT TRUDEAU INTL A,7025250,2012-11-23 15:00,2012,11,23,15:00,10.4,2.5,58,17,16.1,99.79,Rain
544,-73.75,45.47,MONTREAL/PIERRE ELLIOTT TRUDEAU INTL A,7025250,2012-11-23 16:00,2012,11,23,16:00,9.2,6.4,83,30,12.9,99.83,Rain
545,-73.75,45.47,MONTREAL/PIERRE ELLIOTT TRUDEAU INTL A,7025250,2012-11-23 17:00,2012,11,23,17:00,8.8,6.8,87,22,16.1,99.78,Rain
546,-73.75,45.47,MONTREAL/PIERRE ELLIOTT TRUDEAU INTL A,7025250,2012-11-23 18:00,2012,11,23,18:00,8.6,7.0,90,19,25.0,99.73,Cloudy
547,-73.75,45.47,MONTREAL/PIERRE ELLIOTT TRUDEAU INTL A,7025250,2012-11-23 19:00,2012,11,23,19:00,8.7,6.6,87,20,25.0,99.7,Mostly Cloudy
548,-73.75,45.47,MONTREAL/PIERRE ELLIOTT TRUDEAU INTL A,7025250,2012-11-23 20:00,2012,11,23,20:00,10.0,5.4,73,39,25.0,99.71,Cloudy
549,-73.75,45.47,MONTREAL/PIERRE ELLIOTT TRUDEAU INTL A,7025250,2012-11-23 21:00,2012,11,23,21:00,9.3,4.1,70,39,25.0,99.72,Cloudy
550,-73.75,45.47,MONTREAL/PIERRE ELLIOTT TRUDEAU INTL A,7025250,2012-11-23 22:00,2012,11,23,22:00,8.6,3.0,68,26,25.0,99.7,Rain Showers
551,-73.75,45.47,MONTREAL/PIERRE ELLIOTT TRUDEAU INTL A,7025250,2012-11-23 23:00,2012,11,23,23:00,7.9,1.6,64,26,25.0,99.65,Cloudy
552,-73.75,45.47,MONTREAL/PIERRE ELLIOTT TRUDEAU INTL A,7025250,2012-11-24 00:00,2012,11,24,00:00,7.5,0.4,61,19,25.0,99.59,Cloudy
553,-73.75,45.47,MONTREAL/PIERRE ELLIOTT TRUDEAU INTL A,7025250,2012-11-24 01:00,2012,11,24,01:00,5.3,2.3,81,32,25.0,99.6,Rain Showers
554,-73.75,45.47,MONTREAL/PIERRE ELLIOTT TRUDEAU INTL A,7025250,2012-11-24 02:00,2012,11,24,02:00,5.1,2.1,81,30,25.0,99.61,Rain Showers
555,-73.75,45.47,MONTREAL/PIERRE ELLIOTT TRUDEAU INTL A,7025250,2012-11-24 03:00,2012,11,24,03:00,4.6,-0.6,69,28,25.0,99.59,Cloudy
556,-73.75,45.47,MONTREAL/PIERRE ELLIOTT TRUDEAU INTL A,7025250,2012-11-24 04:00,2012,11,24,04:00,4.1,-2.2,63,37,25.0,99.56,Mostly Cloudy
557,-73.75,45.47,MONTREAL/PIERRE ELLIOTT TRUDEAU INTL A,7025250,2012-11-24 05:00,2012,11,24,05:00,3.0,-1.9,70,35,25.0,99.57,Mainly Clear
558,-73.75,45.47,MONTREAL/PIERRE ELLIOTT TRUDEAU INTL A,7025250,2012-11-24 06:00,2012,11,24,06:00,2.8,-1.8,72,28,25.0,99.58,Mostly Cloudy
559,-73.75,45.47,MONTREAL/PIERRE ELLIOTT TRUDEAU INTL A,7025250,2012-11-24 07:00,2012,11,24,07:00,2.6,-1.7,73,32,25.0,99.54,Mostly Cloudy
560,-73.75,45.47,MONTREAL/PIERRE ELLIOTT TRUDEAU INTL A,7025250,2012-11-24 08:00,2012,11,24,08:00,2.2,-2.0,74,30,25.0,99.57,Mostly Cloudy
561,-73.75,45.47,MONTREAL/PIERRE ELLIOTT TRUDEAU INTL A,7025250,2012-11-24 09:00,2012,11,24,09:00,1.6,-0.9,83,33,24.1,99.58,Rain Showers
562,-73.75,45.47,MONTREAL/PIERRE ELLIOTT TRUDEAU INTL A,7025250,2012-11-24 10:00,2012,11,24,10:00,1.8,-2.5,73,30,24.1,99.62,Snow Showers
563,-73.75,45.47,MONTREAL/PIERRE ELLIOTT TRUDEAU INTL A,7025250,2012-11-24 11:00,2012,11,24,11:00,1.6,-3.7,68,33,24.1,99.6,Snow Showers
564,-73.75,45.47,MONTREAL/PIERRE ELLIOTT TRUDEAU INTL A,7025250,2012-11-24 12:00,2012,11,24,12:00,1.8,-5.0,61,30,24.1,99.6,Snow Showers
565,-73.75,45.47,MONTREAL/PIERRE ELLIOTT TRUDEAU INTL A,7025250,2012-11-24 13:00,2012,11,24,13:00,1.5,-7.4,52,37,24.1,99.64,Cloudy
566,-73.75,45.47,MONTREAL/PIERRE ELLIOTT TRUDEAU INTL A,7025250,2012-11-24 14:00,2012,11,24,14:00,1.3,-6.3,57,39,24.1,99.65,Mostly Cloudy
567,-73.75,45.47,MONTREAL/PIERRE ELLIOTT TRUDEAU INTL A,7025250,2012-11-24 15:00,2012,11,24,15:00,0.7,-6.4,59,35,2.4,99.7,Snow Pellets
568,-73.75,45.47,MONTREAL/PIERRE ELLIOTT TRUDEAU INTL A,7025250,2012-11-24 16:00,2012,11,24,16:00,-0.5,-5.1,71,28,24.1,99.74,Mostly Cloudy
569,-73.75,45.47,MONTREAL/PIERRE ELLIOTT TRUDEAU INTL A,7025250,2012-11-24 17:00,2012,11,24,17:00,-0.6,-5.3,70,37,12.9,99.81,Snow Showers
570,-73.75,45.47,MONTREAL/PIERRE ELLIOTT TRUDEAU INTL A,7025250,2012-11-24 18:00,2012,11,24,18:00,-0.4,-5.5,68,28,25.0,99.85,Snow Showers
571,-73.75,45.47,MONTREAL/PIERRE ELLIOTT TRUDEAU INTL A,7025250,2012-11-24 19:00,2012,11,24,19:00,-0.9,-5.0,74,22,19.3,99.9,Snow Showers
572,-73.75,45.47,MONTREAL/PIERRE ELLIOTT TRUDEAU INTL A,7025250,2012-11-24 20:00,2012,11,24,20:00,-0.9,-5.8,69,32,25.0,99.92,Cloudy
573,-73.75,45.47,MONTREAL/PIERRE ELLIOTT TRUDEAU INTL A,7025250,2012-11-24 21:00,2012,11,24,21:00,-1.5,-7.8,62,28,25.0,99.96,Mostly Cloudy
574,-73.75,45.47,MONTREAL/PIERRE ELLIOTT TRUDEAU INTL A,7025250,2012-11-24 22:00,2012,11,24,22:00,-1.8,-8.3,61,24,25.0,100.0,Mostly Cloudy
575,-73.75,45.47,MONTREAL/PIERRE ELLIOTT TRUDEAU INTL A,7025250,2012-11-24 23:00,2012,11,24,23:00,-2.1,-8.8,60,32,25.0,100.0,Mostly Cloudy
576,-73.75,45.47,MONTREAL/PIERRE ELLIOTT TRUDEAU INTL A,7025250,2012-11-25 00:00,2012,11,25,00:00,-2.6,-9.0,61,30,25.0,100.04,Mostly Cloudy
577,-73.75,45.47,MONTREAL/PIERRE ELLIOTT TRUDEAU INTL A,7025250,2012-11-25 01:00,2012,11,25,01:00,-2.9,-9.3,61,26,25.0,100.08,Mainly Clear
578,-73.75,45.47,MONTREAL/PIERRE ELLIOTT TRUDEAU INTL A,7025250,2012-11-25 02:00,2012,11,25,02:00,-3.3,-9.4,63,33,25.0,100.15,Clear
579,-73.75,45.47,MONTREAL/PIERRE ELLIOTT TRUDEAU INTL A,7025250,2012-11-25 03:00,2012,11,25,03:00,-3.6,-9.8,62,26,25.0,100.19,Mainly Clear
580,-73.75,45.47,MONTREAL/PIERRE ELLIOTT TRUDEAU INTL A,7025250,2012-11-25 04:00,2012,11,25,04:00,-4.1,-9.3,67,30,25.0,100.2,Mainly Clear
581,-73.75,45.47,MONTREAL/PIERRE ELLIOTT TRUDEAU INTL A,7025250,2012-11-25 05:00,2012,11,25,05:00,-4.3,-10.0,64,32,25.0,100.25,Mainly Clear
582,-73.75,45.47,MONTREAL/PIERRE ELLIOTT TRUDEAU INTL A,7025250,2012-11-25 06:00,2012,11,25,06:00,-4.3,-9.7,66,28,25.0,100.26,Mainly Clear
583,-73.75,45.47,MONTREAL/PIERRE ELLIOTT TRUDEAU INTL A,7025250,2012-11-25 07:00,2012,11,25,07:00,-4.8,-9.5,70,26,25.0,100.27,Mainly Clear
584,-73.75,45.47,MONTREAL/PIERRE ELLIOTT TRUDEAU INTL A,7025250,2012-11-25 08:00,2012,11,25,08:00,-4.3,-9.4,68,24,24.1,100.3,Mainly Clear
585,-73.75,45.47,MONTREAL/PIERRE ELLIOTT TRUDEAU INTL A,7025250,2012-11-25 09:00,2012,11,25,09:00,-3.8,-9.4,65,33,24.1,100.33,Mainly Clear
586,-73.75,45.47,MONTREAL/PIERRE ELLIOTT TRUDEAU INTL A,7025250,2012-11-25 10:00,2012,11,25,10:00,-3.0,-9.5,61,32,48.3,100.33,Mostly Cloudy
587,-73.75,45.47,MONTREAL/PIERRE ELLIOTT TRUDEAU INTL A,7025250,2012-11-25 11:00,2012,11,25,11:00,-2.9,-9.6,60,35,48.3,100.28,Snow Showers
588,-73.75,45.47,MONTREAL/PIERRE ELLIOTT TRUDEAU INTL A,7025250,2012-11-25 12:00,2012,11,25,12:00,-2.5,-9.9,57,33,48.3,100.21,Cloudy
589,-73.75,45.47,MONTREAL/PIERRE ELLIOTT TRUDEAU INTL A,7025250,2012-11-25 13:00,2012,11,25,13:00,-2.1,-9.9,55,32,48.3,100.19,Cloudy
590,-73.75,45.47,MONTREAL/PIERRE ELLIOTT TRUDEAU INTL A,7025250,2012-11-25 14:00,2012,11,25,14:00,-1.8,-10.3,52,30,48.3,100.22,Mostly Cloudy
591,-73.75,45.47,MONTREAL/PIERRE ELLIOTT TRUDEAU INTL A,7025250,2012-11-25 15:00,2012,11,25,15:00,-1.8,-10.9,50,28,48.3,100.22,Mostly Cloudy
592,-73.75,45.47,MONTREAL/PIERRE ELLIOTT TRUDEAU INTL A,7025250,2012-11-25 16:00,2012,11,25,16:00,-2.1,-10.9,51,24,48.3,100.24,Mostly Cloudy
593,-73.75,45.47,MONTREAL/PIERRE ELLIOTT TRUDEAU INTL A,7025250,2012-11-25 17:00,2012,11,25,17:00,-3.1,-11.8,51,24,25.0,100.27,Clear
594,-73.75,45.47,MONTREAL/PIERRE ELLIOTT TRUDEAU INTL A,7025250,2012-11-25 18:00,2012,11,25,18:00,-3.4,-11.5,53,20,25.0,100.35,Clear
595,-73.75,45.47,MONTREAL/PIERRE ELLIOTT TRUDEAU INTL A,7025250,2012-11-25 19:00,2012,11,25,19:00,-3.7,-11.0,57,22,25.0,100.39,Clear
596,-73.75,45.47,MONTREAL/PIERRE ELLIOTT TRUDEAU INTL A,7025250,2012-11-25 20:00,2012,11,25,20:00,-3.7,-10.7,58,17,25.0,100.42,Mostly Cloudy
597,-73.75,45.47,MONTREAL/PIERRE ELLIOTT TRUDEAU INTL A,7025250,2012-11-25 21:00,2012,11,25,21:00,-3.4,-10.3,59,15,25.0,100.46,Mostly Cloudy
598,-73.75,45.47,MONTREAL/PIERRE ELLIOTT TRUDEAU INTL A,7025250,2012-11-25 22:00,2012,11,25,22:00,-3.6,-10.3,60,13,25.0,100.47,Mostly Cloudy
599,-73.75,45.47,MONTREAL/PIERRE ELLIOTT TRUDEAU INTL A,7025250,2012-11-25 23:00,2012,11,25,23:00,-4.2,-10.5,61,15,25.0,100.5,Mostly Cloudy
600,-73.75,45.47,MONTREAL/PIERRE ELLIOTT TRUDEAU INTL A,7025250,2012-11-26 00:00,2012,11,26,00:00,-4.9,-10.1,67,9,25.0,100.52,Mostly Cloudy
601,-73.75,45.47,MONTREAL/PIERRE ELLIOTT TRUDEAU INTL A,7025250,2012-11-26 01:00,2012,11,26,01:00,-6.5,-10.6,73,7,25.0,100.53,Mainly Clear
602,-73.75,45.47,MONTREAL/PIERRE ELLIOTT TRUDEAU INTL A,7025250,2012-11-26 02:00,2012,11,26,02:00,-5.0,-10.0,68,7,25.0,100.57,Mainly Clear
603,-73.75,45.47,MONTREAL/PIERRE ELLIOTT TRUDEAU INTL A,7025250,2012-11-26 03:00,2012,11,26,03:00,-4.5,-9.3,69,7,25.0,100.62,Cloudy
604,-73.75,45.47,MONTREAL/PIERRE ELLIOTT TRUDEAU INTL A,7025250,2012-11-26 04:00,2012,11,26,04:00,-4.3,-9.3,68,9,25.0,100.66,Cloudy
605,-73.75,45.47,MONTREAL/PIERRE ELLIOTT TRUDEAU INTL A,7025250,2012-11-26 05:00,2012,11,26,05:00,-4.3,-10.4,62,13,25.0,100.72,Cloudy
606,-73.75,45.47,MONTREAL/PIERRE ELLIOTT TRUDEAU INTL A,7025250,2012-11-26 06:00,2012,11,26,06:00,-4.5,-10.9,61,11,25.0,100.77,Cloudy
607,-73.75,45.47,MONTREAL/PIERRE ELLIOTT TRUDEAU INTL A,7025250,2012-11-26 07:00,2012,11,26,07:00,-4.7,-10.5,64,11,25.0,100.9,Cloudy
608,-73.75,45.47,MONTREAL/PIERRE ELLIOTT TRUDEAU INTL A,7025250,2012-11-26 08:00,2012,11,26,08:00,-5.5,-10.6,67,19,24.1,101.03,Mainly Clear
609,-73.75,45.47,MONTREAL/PIERRE ELLIOTT TRUDEAU INTL A,7025250,2012-11-26 09:00,2012,11,26,09:00,-4.2,-11.0,59,17,48.3,101.14,Mainly Clear
610,-73.75,45.47,MONTREAL/PIERRE ELLIOTT TRUDEAU INTL A,7025250,2012-11-26 10:00,2012,11,26,10:00,-3.4,-11.3,54,19,48.3,101.25,Clear
611,-73.75,45.47,MONTREAL/PIERRE ELLIOTT TRUDEAU INTL A,7025250,2012-11-26 11:00,2012,11,26,11:00,-2.5,-10.9,52,22,48.3,101.3,Clear
612,-73.75,45.47,MONTREAL/PIERRE ELLIOTT TRUDEAU INTL A,7025250,2012-11-26 12:00,2012,11,26,12:00,-1.3,-10.6,49,24,48.3,101.33,Mainly Clear
613,-73.75,45.47,MONTREAL/PIERRE ELLIOTT TRUDEAU INTL A,7025250,2012-11-26 13:00,2012,11,26,13:00,-1.0,-10.6,48,24,48.3,101.34,Clear
614,-73.75,45.47,MONTREAL/PIERRE ELLIOTT TRUDEAU INTL A,7025250,2012-11-26 14:00,2012,11,26,14:00,-0.8,-11.3,45,24,48.3,101.38,Clear
615,-73.75,45.47,MONTREAL/PIERRE ELLIOTT TRUDEAU INTL A,7025250,2012-11-26 15:00,2012,11,26,15:00,-0.9,-9.9,50,26,48.3,101.48,Clear
616,-73.75,45.47,MONTREAL/PIERRE ELLIOTT TRUDEAU INTL A,7025250,2012-11-26 16:00,2012,11,26,16:00,-1.8,-9.0,58,24,48.3,101.56,Clear
617,-73.75,45.47,MONTREAL/PIERRE ELLIOTT TRUDEAU INTL A,7025250,2012-11-26 17:00,2012,11,26,17:00,-3.0,-9.5,61,20,25.0,101.67,Clear
618,-73.75,45.47,MONTREAL/PIERRE ELLIOTT TRUDEAU INTL A,7025250,2012-11-26 18:00,2012,11,26,18:00,-3.4,-9.5,63,20,25.0,101.75,Clear
619,-73.75,45.47,MONTREAL/PIERRE ELLIOTT TRUDEAU INTL A,7025250,2012-11-26 19:00,2012,11,26,19:00,-3.8,-10.0,62,15,25.0,101.81,Clear
620,-73.75,45.47,MONTREAL/PIERRE ELLIOTT TRUDEAU INTL A,7025250,2012-11-26 20:00,2012,11,26,20:00,-4.6,-10.0,66,13,25.0,101.85,Clear
621,-73.75,45.47,MONTREAL/PIERRE ELLIOTT TRUDEAU INTL A,7025250,2012-11-26 21:00,2012,11,26,21:00,-7.3,-10.3,79,7,25.0,101.87,Clear
622,-73.75,45.47,MONTREAL/PIERRE ELLIOTT TRUDEAU INTL A,7025250,2012-11-26 22:00,2012,11,26,22:00,-5.4,-9.6,72,0,25.0,101.9,Clear
623,-73.75,45.47,MONTREAL/PIERRE ELLIOTT TRUDEAU INTL A,7025250,2012-11-26 23:00,2012,11,26,23:00,-5.8,-9.7,74,4,25.0,101.94,Clear
624,-73.75,45.47,MONTREAL/PIERRE ELLIOTT TRUDEAU INTL A,7025250,2012-11-27 00:00,2012,11,27,00:00,-7.4,-9.9,82,4,25.0,101.97,Clear
625,-73.75,45.47,MONTREAL/PIERRE ELLIOTT TRUDEAU INTL A,7025250,2012-11-27 01:00,2012,11,27,01:00,-9.0,-11.0,85,4,25.0,101.98,Clear
626,-73.75,45.47,MONTREAL/PIERRE ELLIOTT TRUDEAU INTL A,7025250,2012-11-27 02:00,2012,11,27,02:00,-7.0,-9.3,84,4,25.0,102.04,Mainly Clear
627,-73.75,45.47,MONTREAL/PIERRE ELLIOTT TRUDEAU INTL A,7025250,2012-11-27 03:00,2012,11,27,03:00,-6.1,-8.5,83,7,25.0,102.03,Cloudy
628,-73.75,45.47,MONTREAL/PIERRE ELLIOTT TRUDEAU INTL A,7025250,2012-11-27 04:00,2012,11,27,04:00,-4.8,-8.1,78,7,25.0,102.01,Cloudy
629,-73.75,45.47,MONTREAL/PIERRE ELLIOTT TRUDEAU INTL A,7025250,2012-11-27 05:00,2012,11,27,05:00,-4.4,-9.0,70,7,25.0,102.02,Cloudy
630,-73.75,45.47,MONTREAL/PIERRE ELLIOTT TRUDEAU INTL A,7025250,2012-11-27 06:00,2012,11,27,06:00,-4.4,-8.7,72,6,25.0,102.04,Cloudy
631,-73.75,45.47,MONTREAL/PIERRE ELLIOTT TRUDEAU INTL A,7025250,2012-11-27 07:00,2012,11,27,07:00,-4.4,-8.8,71,9,24.1,102.05,Mostly Cloudy
632,-73.75,45.47,MONTREAL/PIERRE ELLIOTT TRUDEAU INTL A,7025250,2012-11-27 08:00,2012,11,27,08:00,-5.2,-8.4,78,9,24.1,102.15,Mostly Cloudy
633,-73.75,45.47,MONTREAL/PIERRE ELLIOTT TRUDEAU INTL A,7025250,2012-11-27 09:00,2012,11,27,09:00,-4.3,-8.6,72,9,24.1,102.13,Mostly Cloudy
634,-73.75,45.47,MONTREAL/PIERRE ELLIOTT TRUDEAU INTL A,7025250,2012-11-27 10:00,2012,11,27,10:00,-3.1,-7.8,70,9,24.1,102.2,Mostly Cloudy
635,-73.75,45.47,MONTREAL/PIERRE ELLIOTT TRUDEAU INTL A,7025250,2012-11-27 11:00,2012,11,27,11:00,-2.4,-7.8,66,6,24.1,102.2,Mostly Cloudy
636,-73.75,45.47,MONTREAL/PIERRE ELLIOTT TRUDEAU INTL A,7025250,2012-11-27 12:00,2012,11,27,12:00,-0.7,-7.4,60,4,24.1,102.16,Mainly Clear
637,-73.75,45.47,MONTREAL/PIERRE ELLIOTT TRUDEAU INTL A,7025250,2012-11-27 13:00,2012,11,27,13:00,0.3,-7.2,57,7,24.1,102.12,Mainly Clear
638,-73.75,45.47,MONTREAL/PIERRE ELLIOTT TRUDEAU INTL A,7025250,2012-11-27 14:00,2012,11,27,14:00,0.5,-6.9,58,6,24.1,102.08,Mainly Clear
639,-73.75,45.47,MONTREAL/PIERRE ELLIOTT TRUDEAU INTL A,7025250,2012-11-27 15:00,2012,11,27,15:00,0.4,-6.8,58,7,24.1,102.07,Mainly Clear
640,-73.75,45.47,MONTREAL/PIERRE ELLIOTT TRUDEAU INTL A,7025250,2012-11-27 16:00,2012,11,27,16:00,-0.5,-6.9,62,7,24.1,102.08,Clear
641,-73.75,45.47,MONTREAL/PIERRE ELLIOTT TRUDEAU INTL A,7025250,2012-11-27 17:00,2012,11,27,17:00,-2.2,-7.0,70,6,25.0,102.09,Clear
642,-73.75,45.47,MONTREAL/PIERRE ELLIOTT TRUDEAU INTL A,7025250,2012-11-27 18:00,2012,11,27,18:00,-2.8,-7.0,73,4,25.0,102.15,Clear
643,-73.75,45.47,MONTREAL/PIERRE ELLIOTT TRUDEAU INTL A,7025250,2012-11-27 19:00,2012,11,27,19:00,-2.8,-6.7,74,6,25.0,102.16,Clear
644,-73.75,45.47,MONTREAL/PIERRE ELLIOTT TRUDEAU INTL A,7025250,2012-11-27 20:00,2012,11,27,20:00,-4.5,-7.5,80,6,25.0,102.14,Clear
645,-73.75,45.47,MONTREAL/PIERRE ELLIOTT TRUDEAU INTL A,7025250,2012-11-27 21:00,2012,11,27,21:00,-3.0,-6.5,77,7,25.0,102.13,Mainly Clear
646,-73.75,45.47,MONTREAL/PIERRE ELLIOTT TRUDEAU INTL A,7025250,2012-11-27 22:00,2012,11,27,22:00,-3.4,-6.0,82,7,25.0,102.1,Mostly Cloudy
647,-73.75,45.47,MONTREAL/PIERRE ELLIOTT TRUDEAU INTL A,7025250,2012-11-27 23:00,2012,11,27,23:00,-3.8,-6.5,81,7,25.0,102.07,Mostly Cloudy
648,-73.75,45.47,MONTREAL/PIERRE ELLIOTT TRUDEAU INTL A,7025250,2012-11-28 00:00,2012,11,28,00:00,-3.8,-6.2,83,7,25.0,102.03,Mainly Clear
649,-73.75,45.47,MONTREAL/PIERRE ELLIOTT TRUDEAU INTL A,7025250,2012-11-28 01:00,2012,11,28,01:00,-4.0,-6.0,86,6,25.0,101.99,Mainly Clear
650,-73.75,45.47,MONTREAL/PIERRE ELLIOTT TRUDEAU INTL A,7025250,2012-11-28 02:00,2012,11,28,02:00,-3.6,-6.1,83,4,25.0,101.99,Mostly Cloudy
651,-73.75,45.47,MONTREAL/PIERRE ELLIOTT TRUDEAU INTL A,7025250,2012-11-28 03:00,2012,11,28,03:00,-3.4,-5.9,83,11,25.0,101.96,Mostly Cloudy
652,-73.75,45.47,MONTREAL/PIERRE ELLIOTT TRUDEAU INTL A,7025250,2012-11-28 04:00,2012,11,28,04:00,-3.4,-5.5,85,4,25.0,101.93,Mostly Cloudy
653,-73.75,45.47,MONTREAL/PIERRE ELLIOTT TRUDEAU INTL A,7025250,2012-11-28 05:00,2012,11,28,05:00,-3.2,-5.0,87,7,25.0,101.92,Cloudy
654,-73.75,45.47,MONTREAL/PIERRE ELLIOTT TRUDEAU INTL A,7025250,2012-11-28 06:00,2012,11,28,06:00,-3.4,-5.2,87,11,25.0,101.89,Cloudy
655,-73.75,45.47,MONTREAL/PIERRE ELLIOTT TRUDEAU INTL A,7025250,2012-11-28 07:00,2012,11,28,07:00,-3.1,-5.3,85,9,24.1,101.86,Cloudy
656,-73.75,45.47,MONTREAL/PIERRE ELLIOTT TRUDEAU INTL A,7025250,2012-11-28 08:00,2012,11,28,08:00,-3.1,-5.0,87,4,24.1,101.85,Cloudy
657,-73.75,45.47,MONTREAL/PIERRE ELLIOTT TRUDEAU INTL A,7025250,2012-11-28 09:00,2012,11,28,09:00,-1.1,-3.4,84,6,24.1,101.79,Mostly Cloudy
658,-73.75,45.47,MONTREAL/PIERRE ELLIOTT TRUDEAU INTL A,7025250,2012-11-28 10:00,2012,11,28,10:00,0.0,-4.1,74,4,24.1,101.76,Mostly Cloudy
659,-73.75,45.47,MONTREAL/PIERRE ELLIOTT TRUDEAU INTL A,7025250,2012-11-28 11:00,2012,11,28,11:00,0.5,-4.2,71,6,24.1,101.66,Cloudy
660,-73.75,45.47,MONTREAL/PIERRE ELLIOTT TRUDEAU INTL A,7025250,2012-11-28 12:00,2012,11,28,12:00,1.0,-6.4,58,9,24.1,101.55,Cloudy
661,-73.75,45.47,MONTREAL/PIERRE ELLIOTT TRUDEAU INTL A,7025250,2012-11-28 13:00,2012,11,28,13:00,1.8,-4.3,64,20,19.3,101.47,Cloudy
662,-73.75,45.47,MONTREAL/PIERRE ELLIOTT TRUDEAU INTL A,7025250,2012-11-28 14:00,2012,11,28,14:00,0.7,-1.3,86,19,3.2,101.42,Snow Showers
663,-73.75,45.47,MONTREAL/PIERRE ELLIOTT TRUDEAU INTL A,7025250,2012-11-28 15:00,2012,11,28,15:00,0.0,-0.8,94,15,2.4,101.37,Snow Showers
664,-73.75,45.47,MONTREAL/PIERRE ELLIOTT TRUDEAU INTL A,7025250,2012-11-28 16:00,2012,11,28,16:00,0.6,-0.9,90,20,6.4,101.37,Snow Showers
665,-73.75,45.47,MONTREAL/PIERRE ELLIOTT TRUDEAU INTL A,7025250,2012-11-28 17:00,2012,11,28,17:00,0.4,-0.7,92,22,4.8,101.36,Snow
666,-73.75,45.47,MONTREAL/PIERRE ELLIOTT TRUDEAU INTL A,7025250,2012-11-28 18:00,2012,11,28,18:00,0.8,-0.6,90,24,8.0,101.35,Snow
667,-73.75,45.47,MONTREAL/PIERRE ELLIOTT TRUDEAU INTL A,7025250,2012-11-28 19:00,2012,11,28,19:00,1.0,-0.7,88,22,12.9,101.35,Snow Showers
668,-73.75,45.47,MONTREAL/PIERRE ELLIOTT TRUDEAU INTL A,7025250,2012-11-28 20:00,2012,11,28,20:00,0.9,-0.9,88,20,16.1,101.36,Snow Showers
669,-73.75,45.47,MONTREAL/PIERRE ELLIOTT TRUDEAU INTL A,7025250,2012-11-28 21:00,2012,11,28,21:00,0.4,-1.9,85,24,16.1,101.38,Snow Showers
670,-73.75,45.47,MONTREAL/PIERRE ELLIOTT TRUDEAU INTL A,7025250,2012-11-28 22:00,2012,11,28,22:00,-0.7,-6.1,67,30,25.0,101.45,Mostly Cloudy
671,-73.75,45.47,MONTREAL/PIERRE ELLIOTT TRUDEAU INTL A,7025250,2012-11-28 23:00,2012,11,28,23:00,-2.6,-7.5,69,20,25.0,101.56,Mainly Clear
672,-73.75,45.47,MONTREAL/PIERRE ELLIOTT TRUDEAU INTL A,7025250,2012-11-29 00:00,2012,11,29,00:00,-3.9,-8.6,70,28,25.0,101.62,Clear
673,-73.75,45.47,MONTREAL/PIERRE ELLIOTT TRUDEAU INTL A,7025250,2012-11-29 01:00,2012,11,29,01:00,-5.1,-10.6,65,22,25.0,101.71,Clear
674,-73.75,45.47,MONTREAL/PIERRE ELLIOTT TRUDEAU INTL A,7025250,2012-11-29 02:00,2012,11,29,02:00,-6.3,-11.9,64,17,25.0,101.8,Clear
675,-73.75,45.47,MONTREAL/PIERRE ELLIOTT TRUDEAU INTL A,7025250,2012-11-29 03:00,2012,11,29,03:00,-7.4,-12.2,68,17,25.0,101.87,Clear
676,-73.75,45.47,MONTREAL/PIERRE ELLIOTT TRUDEAU INTL A,7025250,2012-11-29 04:00,2012,11,29,04:00,-8.4,-12.4,73,9,25.0,101.86,Clear
677,-73.75,45.47,MONTREAL/PIERRE ELLIOTT TRUDEAU INTL A,7025250,2012-11-29 05:00,2012,11,29,05:00,-8.4,-11.7,77,6,25.0,101.85,Mainly Clear
678,-73.75,45.47,MONTREAL/PIERRE ELLIOTT TRUDEAU INTL A,7025250,2012-11-29 06:00,2012,11,29,06:00,-6.0,-10.2,72,13,25.0,101.84,Mostly Cloudy
679,-73.75,45.47,MONTREAL/PIERRE ELLIOTT TRUDEAU INTL A,7025250,2012-11-29 07:00,2012,11,29,07:00,-5.0,-10.6,65,11,24.1,101.81,Cloudy
680,-73.75,45.47,MONTREAL/PIERRE ELLIOTT TRUDEAU INTL A,7025250,2012-11-29 08:00,2012,11,29,08:00,-4.8,-8.3,76,13,19.3,101.77,Snow
681,-73.75,45.47,MONTREAL/PIERRE ELLIOTT TRUDEAU INTL A,7025250,2012-11-29 09:00,2012,11,29,09:00,-4.6,-7.0,83,19,9.7,101.67,Snow
682,-73.75,45.47,MONTREAL/PIERRE ELLIOTT TRUDEAU INTL A,7025250,2012-11-29 10:00,2012,11,29,10:00,-4.7,-6.8,85,20,4.8,101.56,Snow
683,-73.75,45.47,MONTREAL/PIERRE ELLIOTT TRUDEAU INTL A,7025250,2012-11-29 11:00,2012,11,29,11:00,-3.5,-5.2,88,15,19.3,101.46,Snow
684,-73.75,45.47,MONTREAL/PIERRE ELLIOTT TRUDEAU INTL A,7025250,2012-11-29 12:00,2012,11,29,12:00,-1.8,-4.2,84,15,6.4,101.35,Snow
685,-73.75,45.47,MONTREAL/PIERRE ELLIOTT TRUDEAU INTL A,7025250,2012-11-29 13:00,2012,11,29,13:00,-1.4,-3.4,86,17,24.1,101.33,Snow
686,-73.75,45.47,MONTREAL/PIERRE ELLIOTT TRUDEAU INTL A,7025250,2012-11-29 14:00,2012,11,29,14:00,-0.8,-3.3,83,22,24.1,101.33,Snow
687,-73.75,45.47,MONTREAL/PIERRE ELLIOTT TRUDEAU INTL A,7025250,2012-11-29 15:00,2012,11,29,15:00,-1.2,-4.6,78,22,24.1,101.4,Snow
688,-73.75,45.47,MONTREAL/PIERRE ELLIOTT TRUDEAU INTL A,7025250,2012-11-29 16:00,2012,11,29,16:00,-1.4,-5.4,74,15,24.1,101.5,Cloudy
689,-73.75,45.47,MONTREAL/PIERRE ELLIOTT TRUDEAU INTL A,7025250,2012-11-29 17:00,2012,11,29,17:00,-2.2,-8.3,63,24,25.0,101.63,Cloudy
690,-73.75,45.47,MONTREAL/PIERRE ELLIOTT TRUDEAU INTL A,7025250,2012-11-29 18:00,2012,11,29,18:00,-4.2,-11.8,55,28,25.0,101.78,Snow Showers
691,-73.75,45.47,MONTREAL/PIERRE ELLIOTT TRUDEAU INTL A,7025250,2012-11-29 19:00,2012,11,29,19:00,-4.9,-11.9,58,22,25.0,101.9,Cloudy
692,-73.75,45.47,MONTREAL/PIERRE ELLIOTT TRUDEAU INTL A,7025250,2012-11-29 20:00,2012,11,29,20:00,-5.7,-12.1,61,20,25.0,102.08,Cloudy
693,-73.75,45.47,MONTREAL/PIERRE ELLIOTT TRUDEAU INTL A,7025250,2012-11-29 21:00,2012,11,29,21:00,-6.4,-12.3,63,19,25.0,102.18,Cloudy
694,-73.75,45.47,MONTREAL/PIERRE ELLIOTT TRUDEAU INTL A,7025250,2012-11-29 22:00,2012,11,29,22:00,-7.3,-14.0,59,17,25.0,102.29,Mostly Cloudy
695,-73.75,45.47,MONTREAL/PIERRE ELLIOTT TRUDEAU INTL A,7025250,2012-11-29 23:00,2012,11,29,23:00,-9.4,-15.3,62,20,25.0,102.42,Mainly Clear
696,-73.75,45.47,MONTREAL/PIERRE ELLIOTT TRUDEAU INTL A,7025250,2012-11-30 00:00,2012,11,30,00:00,-10.6,-16.1,64,19,25.0,102.52,Clear
697,-73.75,45.47,MONTREAL/PIERRE ELLIOTT TRUDEAU INTL A,7025250,2012-11-30 01:00,2012,11,30,01:00,-12.0,-16.5,69,9,25.0,102.6,Clear
698,-73.75,45.47,MONTREAL/PIERRE ELLIOTT TRUDEAU INTL A,7025250,2012-11-30 02:00,2012,11,30,02:00,-13.5,-16.9,76,6,25.0,102.72,Clear
699,-73.75,45.47,MONTREAL/PIERRE ELLIOTT TRUDEAU INTL A,7025250,2012-11-30 03:00,2012,11,30,03:00,-12.6,-16.7,71,4,25.0,102.78,Clear
700,-73.75,45.47,MONTREAL/PIERRE ELLIOTT TRUDEAU INTL A,7025250,2012-11-30 04:00,2012,11,30,04:00,-12.4,-17.0,68,4,25.0,102.82,Clear
701,-73.75,45.47,MONTREAL/PIERRE ELLIOTT TRUDEAU INTL A,7025250,2012-11-30 05:00,2012,11,30,05:00,-13.6,-17.0,75,6,25.0,102.9,Clear
702,-73.75,45.47,MONTREAL/PIERRE ELLIOTT TRUDEAU INTL A,7025250,2012-11-30 06:00,2012,11,30,06:00,-13.0,-16.6,74,9,25.0,102.96,Mainly Clear
703,-73.75,45.47,MONTREAL/PIERRE ELLIOTT TRUDEAU INTL A,7025250,2012-11-30 07:00,2012,11,30,07:00,-13.4,-17.3,72,9,24.1,103.03,Mainly Clear
704,-73.75,45.47,MONTREAL/PIERRE ELLIOTT TRUDEAU INTL A,7025250,2012-11-30 08:00,2012,11,30,08:00,-12.8,-16.7,73,13,48.3,103.12,Mainly Clear
705,-73.75,45.47,MONTREAL/PIERRE ELLIOTT TRUDEAU INTL A,7025250,2012-11-30 09:00,2012,11,30,09:00,-11.9,-16.0,72,7,48.3,103.16,Mainly Clear
706,-73.75,45.47,MONTREAL/PIERRE ELLIOTT TRUDEAU INTL A,7025250,2012-11-30 10:00,2012,11,30,10:00,-10.4,-16.3,62,11,48.3,103.2,Mostly Cloudy
707,-73.75,45.47,MONTREAL/PIERRE ELLIOTT TRUDEAU INTL A,7025250,2012-11-30 11:00,2012,11,30,11:00,-9.9,-15.9,61,9,48.3,103.18,Mostly Cloudy
708,-73.75,45.47,MONTREAL/PIERRE ELLIOTT TRUDEAU INTL A,7025250,2012-11-30 12:00,2012,11,30,12:00,-9.3,-15.2,62,0,48.3,103.16,Mostly Cloudy
709,-73.75,45.47,MONTREAL/PIERRE ELLIOTT TRUDEAU INTL A,7025250,2012-11-30 13:00,2012,11,30,13:00,-9.0,-15.2,61,6,48.3,103.15,Mostly Cloudy
710,-73.75,45.47,MONTREAL/PIERRE ELLIOTT TRUDEAU INTL A,7025250,2012-11-30 14:00,2012,11,30,14:00,-9.0,-15.6,59,6,48.3,103.15,Mostly Cloudy
711,-73.75,45.47,MONTREAL/PIERRE ELLIOTT TRUDEAU INTL A,7025250,2012-11-30 15:00,2012,11,30,15:00,-8.8,-15.8,57,11,48.3,103.14,Cloudy
712,-73.75,45.47,MONTREAL/PIERRE ELLIOTT TRUDEAU INTL A,7025250,2012-11-30 16:00,2012,11,30,16:00,-9.1,-15.8,58,11,24.1,103.16,Cloudy
713,-73.75,45.47,MONTREAL/PIERRE ELLIOTT TRUDEAU INTL A,7025250,2012-11-30 17:00,2012,11,30,17:00,-9.3,-15.6,60,15,25.0,103.2,Cloudy
714,-73.75,45.47,MONTREAL/PIERRE ELLIOTT TRUDEAU INTL A,7025250,2012-11-30 18:00,2012,11,30,18:00,-9.5,-15.5,62,13,25.0,103.24,Cloudy
715,-73.75,45.47,MONTREAL/PIERRE ELLIOTT TRUDEAU INTL A,7025250,2012-11-30 19:00,2012,11,30,19:00,-9.7,-15.8,61,15,25.0,103.24,Mostly Cloudy
716,-73.75,45.47,MONTREAL/PIERRE ELLIOTT TRUDEAU INTL A,7025250,2012-11-30 20:00,2012,11,30,20:00,-10.0,-16.3,60,15,25.0,103.26,Cloudy
717,-73.75,45.47,MONTREAL/PIERRE ELLIOTT TRUDEAU INTL A,7025250,2012-11-30 21:00,2012,11,30,21:00,-10.4,-16.9,59,19,25.0,103.3,Mainly Clear
718,-73.75,45.47,MONTREAL/PIERRE ELLIOTT TRUDEAU INTL A,7025250,2012-11-30 22:00,2012,11,30,22:00,-10.7,-16.8,61,19,25.0,103.29,Mainly Clear
719,-73.75,45.47,MONTREAL/PIERRE ELLIOTT TRUDEAU INTL A,7025250,2012-11-30 23:00,2012,11,30,23:00,-10.8,-16.1,65,17,25.0,103.25,Mainly Clear
