,Longitude (x),Latitude (y),Station Name,Climate ID,Date/Time (LST),Year,Month,Day,Time (LST),Temp (°C),Dew Point Temp (°C),Rel Hum (%),Wind Spd (km/h),Visibility (km),Stn Press (kPa),Weather
0,-73.75,45.47,MONTREAL/PIERRE ELLIOTT TRUDEAU INTL A,7025250,2012-04-01 00:00,2012,4,1,00:00,0.4,-6.6,59,0,25.0,100.75,Clear
1,-73.75,45.47,MONTREAL/PIERRE ELLIOTT TRUDEAU INTL A,7025250,2012-04-01 01:00,2012,4,1,01:00,-1.5,-7.3,65,4,25.0,100.77,Clear
2,-73.75,45.47,MONTREAL/PIERRE ELLIOTT TRUDEAU INTL A,7025250,2012-04-01 02:00,2012,4,1,02:00,0.1,-6.9,59,0,25.0,100.7,Clear
3,-73.75,45.47,MONTREAL/PIERRE ELLIOTT TRUDEAU INTL A,7025250,2012-04-01 03:00,2012,4,1,03:00,-1.0,-6.2,68,0,25.0,100.67,Clear
4,-73.75,45.47,MONTREAL/PIERRE ELLIOTT TRUDEAU INTL A,7025250,2012-04-01 04:00,2012,4,1,04:00,-1.0,-5.3,73,0,25.0,100.66,Mainly Clear
5,-73.75,45.47,MONTREAL/PIERRE ELLIOTT TRUDEAU INTL A,7025250,2012-04-01 05:00,2012,4,1,05:00,-0.4,-4.5,74,4,25.0,100.65,Mostly Cloudy
6,-73.75,45.47,MONTREAL/PIERRE ELLIOTT TRUDEAU INTL A,7025250,2012-04-01 06:00,2012,4,1,06:00,0.5,-3.2,76,6,48.3,100.62,Cloudy
7,-73.75,45.47,MONTREAL/PIERRE ELLIOTT TRUDEAU INTL A,7025250,2012-04-01 07:00,2012,4,1,07:00,1.2,-3.6,70,6,48.3,100.6,Cloudy
8,-73.75,45.47,MONTREAL/PIERRE ELLIOTT TRUDEAU INTL A,7025250,2012-04-01 08:00,2012,4,1,08:00,3.2,-4.5,57,11,48.3,100.53,Cloudy
9,-73.75,45.47,MONTREAL/PIERRE ELLIOTT TRUDEAU INTL A,7025250,2012-04-01 09:00,2012,4,1,09:00,3.7,-3.9,58,9,48.3,100.49,Cloudy
10,-73.75,45.47,MONTREAL/PIERRE ELLIOTT TRUDEAU INTL A,7025250,2012-04-01 10:00,2012,4,1,10:00,4.1,-2.8,61,7,48.3,100.46,Cloudy
11,-73.75,45.47,MONTREAL/PIERRE ELLIOTT TRUDEAU INTL A,7025250,2012-04-01 11:00,2012,4,1,11:00,4.8,-0.3,70,4,24.1,100.43,Rain Showers
12,-73.75,45.47,MONTREAL/PIERRE ELLIOTT TRUDEAU INTL A,7025250,2012-04-01 12:00,2012,4,1,12:00,5.8,0.2,67,0,24.1,100.35,Rain
13,-73.75,45.47,MONTREAL/PIERRE ELLIOTT TRUDEAU INTL A,7025250,2012-04-01 13:00,2012,4,1,13:00,5.9,0.0,66,7,24.1,100.24,Rain
14,-73.75,45.47,MONTREAL/PIERRE ELLIOTT TRUDEAU INTL A,7025250,2012-04-01 14:00,2012,4,1,14:00,4.7,1.1,77,9,24.1,100.2,Rain
15,-73.75,45.47,MONTREAL/PIERRE ELLIOTT TRUDEAU INTL A,7025250,2012-04-01 15:00,2012,4,1,15:00,3.8,1.5,85,19,24.1,100.14,Rain
16,-73.75,45.47,MONTREAL/PIERRE ELLIOTT TRUDEAU INTL A,7025250,2012-04-01 16:00,2012,4,1,16:00,3.0,0.7,85,17,24.1,100.1,Rain
17,-73.75,45.47,MONTREAL/PIERRE ELLIOTT TRUDEAU INTL A,7025250,2012-04-01 17:00,2012,4,1,17:00,2.8,0.5,85,22,24.1,100.12,Rain
18,-73.75,45.47,MONTREAL/PIERRE ELLIOTT TRUDEAU INTL A,7025250,2012-04-01 18:00,2012,4,1,18:00,2.5,0.3,85,11,24.1,100.11,Rain
19,-73.75,45.47,MONTREAL/PIERRE ELLIOTT TRUDEAU INTL A,7025250,2012-04-01 19:00,2012,4,1,19:00,2.6,0.2,84,0,25.0,100.14,Rain
20,-73.75,45.47,MONTREAL/PIERRE ELLIOTT TRUDEAU INTL A,7025250,2012-04-01 20:00,2012,4,1,20:00,2.6,0.2,84,11,19.3,100.18,Rain
21,-73.75,45.47,MONTREAL/PIERRE ELLIOTT TRUDEAU INTL A,7025250,2012-04-01 21:00,2012,4,1,21:00,2.6,0.7,87,13,16.1,100.21,Rain
22,-73.75,45.47,MONTREAL/PIERRE ELLIOTT TRUDEAU INTL A,7025250,2012-04-01 22:00,2012,4,1,22:00,2.5,0.7,88,13,25.0,100.22,Cloudy
23,-73.75,45.47,MONTREAL/PIERRE ELLIOTT TRUDEAU INTL A,7025250,2012-04-01 23:00,2012,4,1,23:00,2.0,0.3,88,7,25.0,100.21,Cloudy
24,-73.75,45.47,MONTREAL/PIERRE ELLIOTT TRUDEAU INTL A,7025250,2012-04-02 00:00,2012,4,2,00:00,0.4,-1.2,89,11,16.1,100.22,Mainly Clear
25,-73.75,45.47,MONTREAL/PIERRE ELLIOTT TRUDEAU INTL A,7025250,2012-04-02 01:00,2012,4,2,01:00,-0.1,-1.4,91,7,9.7,100.27,Fog
26,-73.75,45.47,MONTREAL/PIERRE ELLIOTT TRUDEAU INTL A,7025250,2012-04-02 02:00,2012,4,2,02:00,-0.4,-1.8,90,0,12.9,100.31,Clear
27,-73.75,45.47,MONTREAL/PIERRE ELLIOTT TRUDEAU INTL A,7025250,2012-04-02 03:00,2012,4,2,03:00,-1.4,-2.8,90,0,8.0,100.33,Fog
28,-73.75,45.47,MONTREAL/PIERRE ELLIOTT TRUDEAU INTL A,7025250,2012-04-02 04:00,2012,4,2,04:00,-1.2,-2.2,93,4,9.7,100.38,Fog
29,-73.75,45.47,MONTREAL/PIERRE ELLIOTT TRUDEAU INTL A,7025250,2012-04-02 05:00,2012,4,2,05:00,-1.7,-2.5,94,6,25.0,100.47,Clear
30,-73.75,45.47,MONTREAL/PIERRE ELLIOTT TRUDEAU INTL A,7025250,2012-04-02 06:00,2012,4,2,06:00,-1.8,-3.5,88,6,24.1,100.56,Clear
31,-73.75,45.47,MONTREAL/PIERRE ELLIOTT TRUDEAU INTL A,7025250,2012-04-02 07:00,2012,4,2,07:00,0.2,-2.1,84,6,48.3,100.65,Clear
32,-73.75,45.47,MONTREAL/PIERRE ELLIOTT TRUDEAU INTL A,7025250,2012-04-02 08:00,2012,4,2,08:00,2.1,-4.5,62,13,48.3,100.69,Clear
33,-73.75,45.47,MONTREAL/PIERRE ELLIOTT TRUDEAU INTL A,7025250,2012-04-02 09:00,2012,4,2,09:00,3.4,-7.3,45,22,48.3,100.72,Clear
34,-73.75,45.47,MONTREAL/PIERRE ELLIOTT TRUDEAU INTL A,7025250,2012-04-02 10:00,2012,4,2,10:00,4.5,-8.5,38,28,48.3,100.73,Clear
35,-73.75,45.47,MONTREAL/PIERRE ELLIOTT TRUDEAU INTL A,7025250,2012-04-02 11:00,2012,4,2,11:00,4.6,-7.8,40,24,48.3,100.72,Clear
36,-73.75,45.47,MONTREAL/PIERRE ELLIOTT TRUDEAU INTL A,7025250,2012-04-02 12:00,2012,4,2,12:00,6.2,-7.8,36,17,48.3,100.65,Clear
37,-73.75,45.47,MONTREAL/PIERRE ELLIOTT TRUDEAU INTL A,7025250,2012-04-02 13:00,2012,4,2,13:00,6.7,-7.2,36,24,48.3,100.64,Clear
38,-73.75,45.47,MONTREAL/PIERRE ELLIOTT TRUDEAU INTL A,7025250,2012-04-02 14:00,2012,4,2,14:00,7.3,-8.5,32,26,48.3,100.62,Clear
39,-73.75,45.47,MONTREAL/PIERRE ELLIOTT TRUDEAU INTL A,7025250,2012-04-02 15:00,2012,4,2,15:00,7.9,-10.0,27,19,48.3,100.6,Clear
40,-73.75,45.47,MONTREAL/PIERRE ELLIOTT TRUDEAU INTL A,7025250,2012-04-02 16:00,2012,4,2,16:00,7.9,-12.0,23,28,48.3,100.59,Clear
41,-73.75,45.47,MONTREAL/PIERRE ELLIOTT TRUDEAU INTL A,7025250,2012-04-02 17:00,2012,4,2,17:00,8.0,-12.2,22,30,48.3,100.61,Mainly Clear
42,-73.75,45.47,MONTREAL/PIERRE ELLIOTT TRUDEAU INTL A,7025250,2012-04-02 18:00,2012,4,2,18:00,6.9,-13.6,22,19,48.3,100.65,Clear
43,-73.75,45.47,MONTREAL/PIERRE ELLIOTT TRUDEAU INTL A,7025250,2012-04-02 19:00,2012,4,2,19:00,4.9,-12.6,27,13,25.0,100.69,Clear
44,-73.75,45.47,MONTREAL/PIERRE ELLIOTT TRUDEAU INTL A,7025250,2012-04-02 20:00,2012,4,2,20:00,3.5,-13.1,28,13,25.0,100.75,Clear
45,-73.75,45.47,MONTREAL/PIERRE ELLIOTT TRUDEAU INTL A,7025250,2012-04-02 21:00,2012,4,2,21:00,3.1,-13.0,30,11,25.0,100.78,Clear
46,-73.75,45.47,MONTREAL/PIERRE ELLIOTT TRUDEAU INTL A,7025250,2012-04-02 22:00,2012,4,2,22:00,0.6,-12.8,36,9,25.0,100.84,Clear
47,-73.75,45.47,MONTREAL/PIERRE ELLIOTT TRUDEAU INTL A,7025250,2012-04-02 23:00,2012,4,2,23:00,1.0,-12.8,35,13,25.0,100.83,Clear
48,-73.75,45.47,MONTREAL/PIERRE ELLIOTT TRUDEAU INTL A,7025250,2012-04-03 00:00,2012,4,3,00:00,-0.3,-11.9,41,6,25.0,100.84,Clear
49,-73.75,45.47,MONTREAL/PIERRE ELLIOTT TRUDEAU INTL A,7025250,2012-04-03 01:00,2012,4,3,01:00,-1.1,-11.4,45,9,25.0,100.86,Clear
50,-73.75,45.47,MONTREAL/PIERRE ELLIOTT TRUDEAU INTL A,7025250,2012-04-03 02:00,2012,4,3,02:00,-0.9,-13.2,39,6,25.0,100.84,Clear
51,-73.75,45.47,MONTREAL/PIERRE ELLIOTT TRUDEAU INTL A,7025250,2012-04-03 03:00,2012,4,3,03:00,-3.0,-12.0,50,9,25.0,100.87,Clear
52,-73.75,45.47,MONTREAL/PIERRE ELLIOTT TRUDEAU INTL A,7025250,2012-04-03 04:00,2012,4,3,04:00,-2.1,-11.8,47,13,25.0,100.92,Clear
53,-73.75,45.47,MONTREAL/PIERRE ELLIOTT TRUDEAU INTL A,7025250,2012-04-03 05:00,2012,4,3,05:00,-2.6,-12.4,47,6,25.0,100.99,Clear
54,-73.75,45.47,MONTREAL/PIERRE ELLIOTT TRUDEAU INTL A,7025250,2012-04-03 06:00,2012,4,3,06:00,-2.0,-12.4,45,6,48.3,101.03,Clear
55,-73.75,45.47,MONTREAL/PIERRE ELLIOTT TRUDEAU INTL A,7025250,2012-04-03 07:00,2012,4,3,07:00,0.3,-11.3,41,11,48.3,101.09,Clear
56,-73.75,45.47,MONTREAL/PIERRE ELLIOTT TRUDEAU INTL A,7025250,2012-04-03 08:00,2012,4,3,08:00,1.7,-11.7,36,19,48.3,101.08,Clear
57,-73.75,45.47,MONTREAL/PIERRE ELLIOTT TRUDEAU INTL A,7025250,2012-04-03 09:00,2012,4,3,09:00,2.5,-11.0,36,15,48.3,101.07,Clear
58,-73.75,45.47,MONTREAL/PIERRE ELLIOTT TRUDEAU INTL A,7025250,2012-04-03 10:00,2012,4,3,10:00,4.3,-10.3,34,17,48.3,100.98,Clear
59,-73.75,45.47,MONTREAL/PIERRE ELLIOTT TRUDEAU INTL A,7025250,2012-04-03 11:00,2012,4,3,11:00,6.4,-9.1,32,11,48.3,100.91,Mainly Clear
60,-73.75,45.47,MONTREAL/PIERRE ELLIOTT TRUDEAU INTL A,7025250,2012-04-03 12:00,2012,4,3,12:00,7.1,-8.6,32,11,48.3,100.82,Mostly Cloudy
61,-73.75,45.47,MONTREAL/PIERRE ELLIOTT TRUDEAU INTL A,7025250,2012-04-03 13:00,2012,4,3,13:00,8.7,-9.1,27,11,48.3,100.76,Mostly Cloudy
62,-73.75,45.47,MONTREAL/PIERRE ELLIOTT TRUDEAU INTL A,7025250,2012-04-03 14:00,2012,4,3,14:00,10.0,-8.9,25,13,48.3,100.65,Mostly Cloudy
63,-73.75,45.47,MONTREAL/PIERRE ELLIOTT TRUDEAU INTL A,7025250,2012-04-03 15:00,2012,4,3,15:00,10.9,-9.0,24,24,48.3,100.54,Mainly Clear
64,-73.75,45.47,MONTREAL/PIERRE ELLIOTT TRUDEAU INTL A,7025250,2012-04-03 16:00,2012,4,3,16:00,10.8,-9.1,24,30,48.3,100.51,Mainly Clear
65,-73.75,45.47,MONTREAL/PIERRE ELLIOTT TRUDEAU INTL A,7025250,2012-04-03 17:00,2012,4,3,17:00,9.7,-9.0,26,28,48.3,100.52,Mostly Cloudy
66,-73.75,45.47,MONTREAL/PIERRE ELLIOTT TRUDEAU INTL A,7025250,2012-04-03 18:00,2012,4,3,18:00,8.9,-9.6,26,20,48.3,100.49,Mostly Cloudy
67,-73.75,45.47,MONTREAL/PIERRE ELLIOTT TRUDEAU INTL A,7025250,2012-04-03 19:00,2012,4,3,19:00,8.4,-9.7,27,13,25.0,100.5,Cloudy
68,-73.75,45.47,MONTREAL/PIERRE ELLIOTT TRUDEAU INTL A,7025250,2012-04-03 20:00,2012,4,3,20:00,7.8,-9.2,29,9,25.0,100.42,Mostly Cloudy
69,-73.75,45.47,MONTREAL/PIERRE ELLIOTT TRUDEAU INTL A,7025250,2012-04-03 21:00,2012,4,3,21:00,7.1,-8.2,33,7,25.0,100.36,Mostly Cloudy
70,-73.75,45.47,MONTREAL/PIERRE ELLIOTT TRUDEAU INTL A,7025250,2012-04-03 22:00,2012,4,3,22:00,6.9,-8.5,32,11,25.0,100.34,Cloudy
71,-73.75,45.47,MONTREAL/PIERRE ELLIOTT TRUDEAU INTL A,7025250,2012-04-03 23:00,2012,4,3,23:00,6.9,-9.2,31,11,25.0,100.29,Cloudy
72,-73.75,45.47,MONTREAL/PIERRE ELLIOTT TRUDEAU INTL A,7025250,2012-04-04 00:00,2012,4,4,00:00,6.0,-8.2,35,9,25.0,100.22,Mostly Cloudy
73,-73.75,45.47,MONTREAL/PIERRE ELLIOTT TRUDEAU INTL A,7025250,2012-04-04 01:00,2012,4,4,01:00,5.6,-8.6,35,4,25.0,100.2,Cloudy
74,-73.75,45.47,MONTREAL/PIERRE ELLIOTT TRUDEAU INTL A,7025250,2012-04-04 02:00,2012,4,4,02:00,6.0,-7.8,36,9,25.0,100.15,Mostly Cloudy
75,-73.75,45.47,MONTREAL/PIERRE ELLIOTT TRUDEAU INTL A,7025250,2012-04-04 03:00,2012,4,4,03:00,5.4,-4.1,50,11,25.0,100.05,Mostly Cloudy
76,-73.75,45.47,MONTREAL/PIERRE ELLIOTT TRUDEAU INTL A,7025250,2012-04-04 04:00,2012,4,4,04:00,5.2,-3.6,53,7,25.0,100.01,Mostly Cloudy
77,-73.75,45.47,MONTREAL/PIERRE ELLIOTT TRUDEAU INTL A,7025250,2012-04-04 05:00,2012,4,4,05:00,4.6,-2.8,59,9,24.1,99.94,Mostly Cloudy
78,-73.75,45.47,MONTREAL/PIERRE ELLIOTT TRUDEAU INTL A,7025250,2012-04-04 06:00,2012,4,4,06:00,4.2,-3.0,59,11,48.3,99.89,Mostly Cloudy
79,-73.75,45.47,MONTREAL/PIERRE ELLIOTT TRUDEAU INTL A,7025250,2012-04-04 07:00,2012,4,4,07:00,4.8,-4.1,52,17,48.3,99.85,Mostly Cloudy
80,-73.75,45.47,MONTREAL/PIERRE ELLIOTT TRUDEAU INTL A,7025250,2012-04-04 08:00,2012,4,4,08:00,5.5,-5.9,44,20,48.3,99.83,Mostly Cloudy
81,-73.75,45.47,MONTREAL/PIERRE ELLIOTT TRUDEAU INTL A,7025250,2012-04-04 09:00,2012,4,4,09:00,6.5,-6.5,39,28,48.3,99.83,Mostly Cloudy
82,-73.75,45.47,MONTREAL/PIERRE ELLIOTT TRUDEAU INTL A,7025250,2012-04-04 10:00,2012,4,4,10:00,8.7,-3.7,41,30,48.3,99.78,Mainly Clear
83,-73.75,45.47,MONTREAL/PIERRE ELLIOTT TRUDEAU INTL A,7025250,2012-04-04 11:00,2012,4,4,11:00,9.3,-2.6,43,28,48.3,99.75,Mainly Clear
84,-73.75,45.47,MONTREAL/PIERRE ELLIOTT TRUDEAU INTL A,7025250,2012-04-04 12:00,2012,4,4,12:00,8.9,-2.9,43,24,48.3,99.71,Mostly Cloudy
85,-73.75,45.47,MONTREAL/PIERRE ELLIOTT TRUDEAU INTL A,7025250,2012-04-04 13:00,2012,4,4,13:00,8.7,-3.5,42,33,24.1,99.71,Cloudy
86,-73.75,45.47,MONTREAL/PIERRE ELLIOTT TRUDEAU INTL A,7025250,2012-04-04 14:00,2012,4,4,14:00,8.5,-3.4,43,26,24.1,99.72,Cloudy
87,-73.75,45.47,MONTREAL/PIERRE ELLIOTT TRUDEAU INTL A,7025250,2012-04-04 15:00,2012,4,4,15:00,8.0,-3.2,45,26,24.1,99.75,Cloudy
88,-73.75,45.47,MONTREAL/PIERRE ELLIOTT TRUDEAU INTL A,7025250,2012-04-04 16:00,2012,4,4,16:00,8.3,-3.0,45,20,24.1,99.75,Cloudy
89,-73.75,45.47,MONTREAL/PIERRE ELLIOTT TRUDEAU INTL A,7025250,2012-04-04 17:00,2012,4,4,17:00,8.1,-4.6,40,26,24.1,99.81,Mostly Cloudy
90,-73.75,45.47,MONTREAL/PIERRE ELLIOTT TRUDEAU INTL A,7025250,2012-04-04 18:00,2012,4,4,18:00,7.6,-4.6,42,22,24.1,99.87,Mostly Cloudy
91,-73.75,45.47,MONTREAL/PIERRE ELLIOTT TRUDEAU INTL A,7025250,2012-04-04 19:00,2012,4,4,19:00,6.5,-3.8,48,19,24.1,99.98,Mainly Clear
92,-73.75,45.47,MONTREAL/PIERRE ELLIOTT TRUDEAU INTL A,7025250,2012-04-04 20:00,2012,4,4,20:00,6.0,-3.8,49,19,25.0,100.07,Mostly Cloudy
93,-73.75,45.47,MONTREAL/PIERRE ELLIOTT TRUDEAU INTL A,7025250,2012-04-04 21:00,2012,4,4,21:00,4.9,-4.4,51,19,25.0,100.13,Mostly Cloudy
94,-73.75,45.47,MONTREAL/PIERRE ELLIOTT TRUDEAU INTL A,7025250,2012-04-04 22:00,2012,4,4,22:00,3.7,-4.5,55,19,25.0,100.2,Mostly Cloudy
95,-73.75,45.47,MONTREAL/PIERRE ELLIOTT TRUDEAU INTL A,7025250,2012-04-04 23:00,2012,4,4,23:00,3.6,-4.6,55,19,25.0,100.24,Mostly Cloudy
96,-73.75,45.47,MONTREAL/PIERRE ELLIOTT TRUDEAU INTL A,7025250,2012-04-05 00:00,2012,4,5,00:00,3.2,-4.9,55,15,25.0,100.34,Mostly Cloudy
97,-73.75,45.47,MONTREAL/PIERRE ELLIOTT TRUDEAU INTL A,7025250,2012-04-05 01:00,2012,4,5,01:00,2.3,-5.8,55,17,25.0,100.37,Mainly Clear
98,-73.75,45.47,MONTREAL/PIERRE ELLIOTT TRUDEAU INTL A,7025250,2012-04-05 02:00,2012,4,5,02:00,2.3,-5.9,55,11,25.0,100.4,Mostly Cloudy
99,-73.75,45.47,MONTREAL/PIERRE ELLIOTT TRUDEAU INTL A,7025250,2012-04-05 03:00,2012,4,5,03:00,1.9,-4.6,62,13,25.0,100.41,Mostly Cloudy
100,-73.75,45.47,MONTREAL/PIERRE ELLIOTT TRUDEAU INTL A,7025250,2012-04-05 04:00,2012,4,5,04:00,1.5,-5.2,61,17,25.0,100.47,Mostly Cloudy
101,-73.75,45.47,MONTREAL/PIERRE ELLIOTT TRUDEAU INTL A,7025250,2012-04-05 05:00,2012,4,5,05:00,1.5,-6.7,54,17,25.0,100.51,Mostly Cloudy
102,-73.75,45.47,MONTREAL/PIERRE ELLIOTT TRUDEAU INTL A,7025250,2012-04-05 06:00,2012,4,5,06:00,1.5,-7.2,52,19,24.1,100.6,Cloudy
103,-73.75,45.47,MONTREAL/PIERRE ELLIOTT TRUDEAU INTL A,7025250,2012-04-05 07:00,2012,4,5,07:00,2.3,-6.9,51,19,24.1,100.68,Mostly Cloudy
104,-73.75,45.47,MONTREAL/PIERRE ELLIOTT TRUDEAU INTL A,7025250,2012-04-05 08:00,2012,4,5,08:00,2.7,-6.5,51,20,24.1,100.72,Mostly Cloudy
105,-73.75,45.47,MONTREAL/PIERRE ELLIOTT TRUDEAU INTL A,7025250,2012-04-05 09:00,2012,4,5,09:00,3.9,-6.1,48,22,24.1,100.76,Mostly Cloudy
106,-73.75,45.47,MONTREAL/PIERRE ELLIOTT TRUDEAU INTL A,7025250,2012-04-05 10:00,2012,4,5,10:00,4.5,-7.6,41,17,24.1,100.76,Mostly Cloudy
107,-73.75,45.47,MONTREAL/PIERRE ELLIOTT TRUDEAU INTL A,7025250,2012-04-05 11:00,2012,4,5,11:00,4.8,-7.1,42,26,24.1,100.77,Mostly Cloudy
108,-73.75,45.47,MONTREAL/PIERRE ELLIOTT TRUDEAU INTL A,7025250,2012-04-05 12:00,2012,4,5,12:00,5.2,-6.6,42,22,24.1,100.74,Mostly Cloudy
109,-73.75,45.47,MONTREAL/PIERRE ELLIOTT TRUDEAU INTL A,7025250,2012-04-05 13:00,2012,4,5,13:00,6.6,-5.3,42,22,24.1,100.73,Mostly Cloudy
110,-73.75,45.47,MONTREAL/PIERRE ELLIOTT TRUDEAU INTL A,7025250,2012-04-05 14:00,2012,4,5,14:00,6.7,-6.2,39,20,24.1,100.7,Mainly Clear
111,-73.75,45.47,MONTREAL/PIERRE ELLIOTT TRUDEAU INTL A,7025250,2012-04-05 15:00,2012,4,5,15:00,7.6,-5.9,38,19,24.1,100.67,Mainly Clear
112,-73.75,45.47,MONTREAL/PIERRE ELLIOTT TRUDEAU INTL A,7025250,2012-04-05 16:00,2012,4,5,16:00,8.9,-5.7,35,24,48.3,100.65,Mainly Clear
113,-73.75,45.47,MONTREAL/PIERRE ELLIOTT TRUDEAU INTL A,7025250,2012-04-05 17:00,2012,4,5,17:00,7.7,-6.9,35,24,48.3,100.7,Mainly Clear
114,-73.75,45.47,MONTREAL/PIERRE ELLIOTT TRUDEAU INTL A,7025250,2012-04-05 18:00,2012,4,5,18:00,6.6,-7.0,37,20,48.3,100.75,Mostly Cloudy
115,-73.75,45.47,MONTREAL/PIERRE ELLIOTT TRUDEAU INTL A,7025250,2012-04-05 19:00,2012,4,5,19:00,5.6,-7.7,38,26,25.0,100.82,Mostly Cloudy
116,-73.75,45.47,MONTREAL/PIERRE ELLIOTT TRUDEAU INTL A,7025250,2012-04-05 20:00,2012,4,5,20:00,5.3,-7.9,38,19,25.0,100.87,Mostly Cloudy
117,-73.75,45.47,MONTREAL/PIERRE ELLIOTT TRUDEAU INTL A,7025250,2012-04-05 21:00,2012,4,5,21:00,4.9,-7.7,40,19,25.0,100.88,Mostly Cloudy
118,-73.75,45.47,MONTREAL/PIERRE ELLIOTT TRUDEAU INTL A,7025250,2012-04-05 22:00,2012,4,5,22:00,4.4,-7.4,42,22,25.0,100.89,Mostly Cloudy
119,-73.75,45.47,MONTREAL/PIERRE ELLIOTT TRUDEAU INTL A,7025250,2012-04-05 23:00,2012,4,5,23:00,3.5,-7.8,43,19,25.0,100.93,Mostly Cloudy
120,-73.75,45.47,MONTREAL/PIERRE ELLIOTT TRUDEAU INTL A,7025250,2012-04-06 00:00,2012,4,6,00:00,3.0,-8.2,44,22,25.0,100.97,Mostly Cloudy
121,-73.75,45.47,MONTREAL/PIERRE ELLIOTT TRUDEAU INTL A,7025250,2012-04-06 01:00,2012,4,6,01:00,2.8,-8.4,43,17,25.0,100.98,Mostly Cloudy
122,-73.75,45.47,MONTREAL/PIERRE ELLIOTT TRUDEAU INTL A,7025250,2012-04-06 02:00,2012,4,6,02:00,2.3,-8.2,46,22,25.0,101.04,Cloudy
123,-73.75,45.47,MONTREAL/PIERRE ELLIOTT TRUDEAU INTL A,7025250,2012-04-06 03:00,2012,4,6,03:00,1.5,-8.2,48,19,25.0,101.09,Cloudy
124,-73.75,45.47,MONTREAL/PIERRE ELLIOTT TRUDEAU INTL A,7025250,2012-04-06 04:00,2012,4,6,04:00,1.1,-8.3,49,17,25.0,101.13,Mostly Cloudy
125,-73.75,45.47,MONTREAL/PIERRE ELLIOTT TRUDEAU INTL A,7025250,2012-04-06 05:00,2012,4,6,05:00,-0.1,-8.7,52,15,24.1,101.17,Mostly Cloudy
126,-73.75,45.47,MONTREAL/PIERRE ELLIOTT TRUDEAU INTL A,7025250,2012-04-06 06:00,2012,4,6,06:00,-0.5,-9.4,51,15,48.3,101.23,Mainly Clear
127,-73.75,45.47,MONTREAL/PIERRE ELLIOTT TRUDEAU INTL A,7025250,2012-04-06 07:00,2012,4,6,07:00,0.4,-8.9,50,15,48.3,101.3,Clear
128,-73.75,45.47,MONTREAL/PIERRE ELLIOTT TRUDEAU INTL A,7025250,2012-04-06 08:00,2012,4,6,08:00,1.1,-8.8,48,19,48.3,101.34,Clear
129,-73.75,45.47,MONTREAL/PIERRE ELLIOTT TRUDEAU INTL A,7025250,2012-04-06 09:00,2012,4,6,09:00,2.1,-8.4,46,17,48.3,101.37,Clear
130,-73.75,45.47,MONTREAL/PIERRE ELLIOTT TRUDEAU INTL A,7025250,2012-04-06 10:00,2012,4,6,10:00,3.9,-7.9,42,6,48.3,101.35,Mainly Clear
131,-73.75,45.47,MONTREAL/PIERRE ELLIOTT TRUDEAU INTL A,7025250,2012-04-06 11:00,2012,4,6,11:00,5.7,-7.7,37,19,48.3,101.32,Clear
132,-73.75,45.47,MONTREAL/PIERRE ELLIOTT TRUDEAU INTL A,7025250,2012-04-06 12:00,2012,4,6,12:00,6.6,-8.3,34,20,48.3,101.24,Mainly Clear
133,-73.75,45.47,MONTREAL/PIERRE ELLIOTT TRUDEAU INTL A,7025250,2012-04-06 13:00,2012,4,6,13:00,7.6,-7.7,33,15,48.3,101.18,Clear
134,-73.75,45.47,MONTREAL/PIERRE ELLIOTT TRUDEAU INTL A,7025250,2012-04-06 14:00,2012,4,6,14:00,8.6,-8.5,29,9,48.3,101.13,Mainly Clear
135,-73.75,45.47,MONTREAL/PIERRE ELLIOTT TRUDEAU INTL A,7025250,2012-04-06 15:00,2012,4,6,15:00,9.3,-8.3,28,19,48.3,101.1,Mainly Clear
136,-73.75,45.47,MONTREAL/PIERRE ELLIOTT TRUDEAU INTL A,7025250,2012-04-06 16:00,2012,4,6,16:00,8.5,-9.3,27,28,48.3,101.08,Mostly Cloudy
137,-73.75,45.47,MONTREAL/PIERRE ELLIOTT TRUDEAU INTL A,7025250,2012-04-06 17:00,2012,4,6,17:00,7.7,-11.0,25,32,48.3,101.11,Mostly Cloudy
138,-73.75,45.47,MONTREAL/PIERRE ELLIOTT TRUDEAU INTL A,7025250,2012-04-06 18:00,2012,4,6,18:00,7.3,-11.6,25,19,25.0,101.16,Mostly Cloudy
139,-73.75,45.47,MONTREAL/PIERRE ELLIOTT TRUDEAU INTL A,7025250,2012-04-06 19:00,2012,4,6,19:00,7.3,-11.7,24,13,25.0,101.21,Mostly Cloudy
140,-73.75,45.47,MONTREAL/PIERRE ELLIOTT TRUDEAU INTL A,7025250,2012-04-06 20:00,2012,4,6,20:00,6.7,-10.6,28,11,25.0,101.24,Mostly Cloudy
141,-73.75,45.47,MONTREAL/PIERRE ELLIOTT TRUDEAU INTL A,7025250,2012-04-06 21:00,2012,4,6,21:00,6.7,-10.3,28,9,25.0,101.24,Cloudy
142,-73.75,45.47,MONTREAL/PIERRE ELLIOTT TRUDEAU INTL A,7025250,2012-04-06 22:00,2012,4,6,22:00,6.8,-10.8,27,11,25.0,101.26,Cloudy
143,-73.75,45.47,MONTREAL/PIERRE ELLIOTT TRUDEAU INTL A,7025250,2012-04-06 23:00,2012,4,6,23:00,6.1,-9.9,31,11,25.0,101.27,Cloudy
144,-73.75,45.47,MONTREAL/PIERRE ELLIOTT TRUDEAU INTL A,7025250,2012-04-07 00:00,2012,4,7,00:00,5.6,-9.7,32,11,25.0,101.28,Cloudy
145,-73.75,45.47,MONTREAL/PIERRE ELLIOTT TRUDEAU INTL A,7025250,2012-04-07 01:00,2012,4,7,01:00,5.5,-10.6,30,17,25.0,101.29,Mostly Cloudy
146,-73.75,45.47,MONTREAL/PIERRE ELLIOTT TRUDEAU INTL A,7025250,2012-04-07 02:00,2012,4,7,02:00,3.1,-10.3,37,7,25.0,101.3,Mostly Cloudy
147,-73.75,45.47,MONTREAL/PIERRE ELLIOTT TRUDEAU INTL A,7025250,2012-04-07 03:00,2012,4,7,03:00,2.4,-10.0,39,11,25.0,101.32,Mainly Clear
148,-73.75,45.47,MONTREAL/PIERRE ELLIOTT TRUDEAU INTL A,7025250,2012-04-07 04:00,2012,4,7,04:00,2.5,-10.2,39,11,25.0,101.35,Mostly Cloudy
149,-73.75,45.47,MONTREAL/PIERRE ELLIOTT TRUDEAU INTL A,7025250,2012-04-07 05:00,2012,4,7,05:00,0.2,-10.4,45,7,25.0,101.39,Mainly Clear
150,-73.75,45.47,MONTREAL/PIERRE ELLIOTT TRUDEAU INTL A,7025250,2012-04-07 06:00,2012,4,7,06:00,1.5,-9.3,44,9,48.3,101.46,Mostly Cloudy
151,-73.75,45.47,MONTREAL/PIERRE ELLIOTT TRUDEAU INTL A,7025250,2012-04-07 07:00,2012,4,7,07:00,2.4,-10.1,39,11,48.3,101.5,Mainly Clear
152,-73.75,45.47,MONTREAL/PIERRE ELLIOTT TRUDEAU INTL A,7025250,2012-04-07 08:00,2012,4,7,08:00,4.5,-9.3,36,11,48.3,101.51,Mostly Cloudy
153,-73.75,45.47,MONTREAL/PIERRE ELLIOTT TRUDEAU INTL A,7025250,2012-04-07 09:00,2012,4,7,09:00,4.5,-9.5,35,11,48.3,101.52,Mostly Cloudy
154,-73.75,45.47,MONTREAL/PIERRE ELLIOTT TRUDEAU INTL A,7025250,2012-04-07 10:00,2012,4,7,10:00,5.7,-8.5,35,17,48.3,101.54,Mostly Cloudy
155,-73.75,45.47,MONTREAL/PIERRE ELLIOTT TRUDEAU INTL A,7025250,2012-04-07 11:00,2012,4,7,11:00,6.0,-9.2,33,13,48.3,101.51,Mostly Cloudy
156,-73.75,45.47,MONTREAL/PIERRE ELLIOTT TRUDEAU INTL A,7025250,2012-04-07 12:00,2012,4,7,12:00,6.6,-8.1,34,11,48.3,101.47,Mostly Cloudy
157,-73.75,45.47,MONTREAL/PIERRE ELLIOTT TRUDEAU INTL A,7025250,2012-04-07 13:00,2012,4,7,13:00,6.8,-7.8,34,9,48.3,101.44,Mostly Cloudy
158,-73.75,45.47,MONTREAL/PIERRE ELLIOTT TRUDEAU INTL A,7025250,2012-04-07 14:00,2012,4,7,14:00,7.8,-7.8,32,9,48.3,101.39,Cloudy
159,-73.75,45.47,MONTREAL/PIERRE ELLIOTT TRUDEAU INTL A,7025250,2012-04-07 15:00,2012,4,7,15:00,8.0,-6.7,35,7,48.3,101.36,Mostly Cloudy
160,-73.75,45.47,MONTREAL/PIERRE ELLIOTT TRUDEAU INTL A,7025250,2012-04-07 16:00,2012,4,7,16:00,8.4,-6.4,34,4,24.1,101.34,Mostly Cloudy
161,-73.75,45.47,MONTREAL/PIERRE ELLIOTT TRUDEAU INTL A,7025250,2012-04-07 17:00,2012,4,7,17:00,8.4,-6.3,35,9,24.1,101.35,Mostly Cloudy
162,-73.75,45.47,MONTREAL/PIERRE ELLIOTT TRUDEAU INTL A,7025250,2012-04-07 18:00,2012,4,7,18:00,8.0,-6.1,36,7,25.0,101.35,Mostly Cloudy
163,-73.75,45.47,MONTREAL/PIERRE ELLIOTT TRUDEAU INTL A,7025250,2012-04-07 19:00,2012,4,7,19:00,8.0,-5.2,39,13,25.0,101.37,Mostly Cloudy
164,-73.75,45.47,MONTREAL/PIERRE ELLIOTT TRUDEAU INTL A,7025250,2012-04-07 20:00,2012,4,7,20:00,7.7,-5.4,39,15,25.0,101.43,Cloudy
165,-73.75,45.47,MONTREAL/PIERRE ELLIOTT TRUDEAU INTL A,7025250,2012-04-07 21:00,2012,4,7,21:00,7.5,-5.2,40,17,25.0,101.41,Mostly Cloudy
166,-73.75,45.47,MONTREAL/PIERRE ELLIOTT TRUDEAU INTL A,7025250,2012-04-07 22:00,2012,4,7,22:00,6.2,-5.1,44,15,25.0,101.36,Mostly Cloudy
167,-73.75,45.47,MONTREAL/PIERRE ELLIOTT TRUDEAU INTL A,7025250,2012-04-07 23:00,2012,4,7,23:00,5.9,-5.0,45,11,25.0,101.31,Mostly Cloudy
168,-73.75,45.47,MONTREAL/PIERRE ELLIOTT TRUDEAU INTL A,7025250,2012-04-08 00:00,2012,4,8,00:00,5.8,-5.2,45,9,25.0,101.24,Cloudy
169,-73.75,45.47,MONTREAL/PIERRE ELLIOTT TRUDEAU INTL A,7025250,2012-04-08 01:00,2012,4,8,01:00,4.8,-4.8,50,7,25.0,101.18,Cloudy
170,-73.75,45.47,MONTREAL/PIERRE ELLIOTT TRUDEAU INTL A,7025250,2012-04-08 02:00,2012,4,8,02:00,4.2,-4.5,53,4,25.0,101.11,Cloudy
171,-73.75,45.47,MONTREAL/PIERRE ELLIOTT TRUDEAU INTL A,7025250,2012-04-08 03:00,2012,4,8,03:00,3.7,-3.9,58,4,25.0,101.06,Cloudy
172,-73.75,45.47,MONTREAL/PIERRE ELLIOTT TRUDEAU INTL A,7025250,2012-04-08 04:00,2012,4,8,04:00,3.7,-4.4,55,4,25.0,101.0,Cloudy
173,-73.75,45.47,MONTREAL/PIERRE ELLIOTT TRUDEAU INTL A,7025250,2012-04-08 05:00,2012,4,8,05:00,4.0,-4.5,54,7,25.0,100.95,Cloudy
174,-73.75,45.47,MONTREAL/PIERRE ELLIOTT TRUDEAU INTL A,7025250,2012-04-08 06:00,2012,4,8,06:00,4.8,-4.1,52,7,48.3,100.91,Mostly Cloudy
175,-73.75,45.47,MONTREAL/PIERRE ELLIOTT TRUDEAU INTL A,7025250,2012-04-08 07:00,2012,4,8,07:00,5.7,-4.1,49,11,48.3,100.87,Mostly Cloudy
176,-73.75,45.47,MONTREAL/PIERRE ELLIOTT TRUDEAU INTL A,7025250,2012-04-08 08:00,2012,4,8,08:00,6.6,-3.9,47,13,48.3,100.81,Mostly Cloudy
177,-73.75,45.47,MONTREAL/PIERRE ELLIOTT TRUDEAU INTL A,7025250,2012-04-08 09:00,2012,4,8,09:00,7.4,-3.7,45,19,48.3,100.73,Mostly Cloudy
178,-73.75,45.47,MONTREAL/PIERRE ELLIOTT TRUDEAU INTL A,7025250,2012-04-08 10:00,2012,4,8,10:00,7.3,-4.8,42,22,48.3,100.61,Mostly Cloudy
179,-73.75,45.47,MONTREAL/PIERRE ELLIOTT TRUDEAU INTL A,7025250,2012-04-08 11:00,2012,4,8,11:00,9.4,-3.6,40,15,48.3,100.46,Mostly Cloudy
180,-73.75,45.47,MONTREAL/PIERRE ELLIOTT TRUDEAU INTL A,7025250,2012-04-08 12:00,2012,4,8,12:00,10.4,-3.8,37,17,48.3,100.25,Mostly Cloudy
181,-73.75,45.47,MONTREAL/PIERRE ELLIOTT TRUDEAU INTL A,7025250,2012-04-08 13:00,2012,4,8,13:00,11.7,-3.9,33,20,48.3,100.11,Mostly Cloudy
182,-73.75,45.47,MONTREAL/PIERRE ELLIOTT TRUDEAU INTL A,7025250,2012-04-08 14:00,2012,4,8,14:00,12.1,-3.5,33,20,48.3,99.97,Mostly Cloudy
183,-73.75,45.47,MONTREAL/PIERRE ELLIOTT TRUDEAU INTL A,7025250,2012-04-08 15:00,2012,4,8,15:00,12.3,-3.8,32,22,48.3,99.86,Mostly Cloudy
184,-73.75,45.47,MONTREAL/PIERRE ELLIOTT TRUDEAU INTL A,7025250,2012-04-08 16:00,2012,4,8,16:00,12.4,-4.2,31,22,48.3,99.8,Cloudy
185,-73.75,45.47,MONTREAL/PIERRE ELLIOTT TRUDEAU INTL A,7025250,2012-04-08 17:00,2012,4,8,17:00,12.3,-4.5,31,7,48.3,99.75,Mostly Cloudy
186,-73.75,45.47,MONTREAL/PIERRE ELLIOTT TRUDEAU INTL A,7025250,2012-04-08 18:00,2012,4,8,18:00,11.9,-4.7,31,19,25.0,99.69,Mostly Cloudy
187,-73.75,45.47,MONTREAL/PIERRE ELLIOTT TRUDEAU INTL A,7025250,2012-04-08 19:00,2012,4,8,19:00,11.5,-4.9,31,17,48.3,99.64,Mostly Cloudy
188,-73.75,45.47,MONTREAL/PIERRE ELLIOTT TRUDEAU INTL A,7025250,2012-04-08 20:00,2012,4,8,20:00,10.9,-3.9,35,15,25.0,99.59,Mostly Cloudy
189,-73.75,45.47,MONTREAL/PIERRE ELLIOTT TRUDEAU INTL A,7025250,2012-04-08 21:00,2012,4,8,21:00,10.4,-3.9,36,17,25.0,99.5,Mostly Cloudy
190,-73.75,45.47,MONTREAL/PIERRE ELLIOTT TRUDEAU INTL A,7025250,2012-04-08 22:00,2012,4,8,22:00,10.2,-3.7,37,19,25.0,99.42,Mostly Cloudy
191,-73.75,45.47,MONTREAL/PIERRE ELLIOTT TRUDEAU INTL A,7025250,2012-04-08 23:00,2012,4,8,23:00,8.5,-3.2,44,7,25.0,99.38,Cloudy
192,-73.75,45.47,MONTREAL/PIERRE ELLIOTT TRUDEAU INTL A,7025250,2012-04-09 00:00,2012,4,9,00:00,7.5,-3.5,46,4,25.0,99.31,Mostly Cloudy
193,-73.75,45.47,MONTREAL/PIERRE ELLIOTT TRUDEAU INTL A,7025250,2012-04-09 01:00,2012,4,9,01:00,4.8,-2.4,60,9,25.0,99.24,Cloudy
194,-73.75,45.47,MONTREAL/PIERRE ELLIOTT TRUDEAU INTL A,7025250,2012-04-09 02:00,2012,4,9,02:00,5.4,-1.3,62,9,25.0,99.19,Cloudy
195,-73.75,45.47,MONTREAL/PIERRE ELLIOTT TRUDEAU INTL A,7025250,2012-04-09 03:00,2012,4,9,03:00,5.5,-1.1,62,0,25.0,99.14,Cloudy
196,-73.75,45.47,MONTREAL/PIERRE ELLIOTT TRUDEAU INTL A,7025250,2012-04-09 04:00,2012,4,9,04:00,5.7,-0.9,62,11,25.0,99.12,Cloudy
197,-73.75,45.47,MONTREAL/PIERRE ELLIOTT TRUDEAU INTL A,7025250,2012-04-09 05:00,2012,4,9,05:00,5.9,-1.4,59,7,25.0,99.09,Cloudy
198,-73.75,45.47,MONTREAL/PIERRE ELLIOTT TRUDEAU INTL A,7025250,2012-04-09 06:00,2012,4,9,06:00,6.1,0.1,65,13,24.1,99.1,Rain
199,-73.75,45.47,MONTREAL/PIERRE ELLIOTT TRUDEAU INTL A,7025250,2012-04-09 07:00,2012,4,9,07:00,6.3,1.5,71,13,24.1,99.11,Rain
200,-73.75,45.47,MONTREAL/PIERRE ELLIOTT TRUDEAU INTL A,7025250,2012-04-09 08:00,2012,4,9,08:00,6.6,3.6,81,20,24.1,99.05,Rain
201,-73.75,45.47,MONTREAL/PIERRE ELLIOTT TRUDEAU INTL A,7025250,2012-04-09 09:00,2012,4,9,09:00,7.4,1.6,67,19,24.1,99.05,Rain
202,-73.75,45.47,MONTREAL/PIERRE ELLIOTT TRUDEAU INTL A,7025250,2012-04-09 10:00,2012,4,9,10:00,7.0,2.3,72,28,24.1,99.07,Rain
203,-73.75,45.47,MONTREAL/PIERRE ELLIOTT TRUDEAU INTL A,7025250,2012-04-09 11:00,2012,4,9,11:00,7.4,2.8,73,24,24.1,99.1,Rain
204,-73.75,45.47,MONTREAL/PIERRE ELLIOTT TRUDEAU INTL A,7025250,2012-04-09 12:00,2012,4,9,12:00,7.9,4.1,77,17,24.1,99.07,Rain
205,-73.75,45.47,MONTREAL/PIERRE ELLIOTT TRUDEAU INTL A,7025250,2012-04-09 13:00,2012,4,9,13:00,8.8,2.6,65,17,24.1,99.08,Rain
206,-73.75,45.47,MONTREAL/PIERRE ELLIOTT TRUDEAU INTL A,7025250,2012-04-09 14:00,2012,4,9,14:00,9.0,1.3,58,19,24.1,99.11,Rain
207,-73.75,45.47,MONTREAL/PIERRE ELLIOTT TRUDEAU INTL A,7025250,2012-04-09 15:00,2012,4,9,15:00,8.6,0.7,58,22,24.1,99.14,Cloudy
208,-73.75,45.47,MONTREAL/PIERRE ELLIOTT TRUDEAU INTL A,7025250,2012-04-09 16:00,2012,4,9,16:00,8.7,0.2,55,17,24.1,99.19,Cloudy
209,-73.75,45.47,MONTREAL/PIERRE ELLIOTT TRUDEAU INTL A,7025250,2012-04-09 17:00,2012,4,9,17:00,8.3,1.0,60,22,24.1,99.24,Cloudy
210,-73.75,45.47,MONTREAL/PIERRE ELLIOTT TRUDEAU INTL A,7025250,2012-04-09 18:00,2012,4,9,18:00,6.2,2.2,76,30,24.1,99.31,Rain Showers
211,-73.75,45.47,MONTREAL/PIERRE ELLIOTT TRUDEAU INTL A,7025250,2012-04-09 19:00,2012,4,9,19:00,6.4,1.7,72,28,25.0,99.34,Cloudy
212,-73.75,45.47,MONTREAL/PIERRE ELLIOTT TRUDEAU INTL A,7025250,2012-04-09 20:00,2012,4,9,20:00,5.7,1.4,74,19,25.0,99.4,Mostly Cloudy
213,-73.75,45.47,MONTREAL/PIERRE ELLIOTT TRUDEAU INTL A,7025250,2012-04-09 21:00,2012,4,9,21:00,5.8,1.4,73,22,25.0,99.43,Cloudy
214,-73.75,45.47,MONTREAL/PIERRE ELLIOTT TRUDEAU INTL A,7025250,2012-04-09 22:00,2012,4,9,22:00,5.4,1.3,75,19,25.0,99.42,Cloudy
215,-73.75,45.47,MONTREAL/PIERRE ELLIOTT TRUDEAU INTL A,7025250,2012-04-09 23:00,2012,4,9,23:00,5.3,0.9,73,20,25.0,99.42,Mostly Cloudy
216,-73.75,45.47,MONTREAL/PIERRE ELLIOTT TRUDEAU INTL A,7025250,2012-04-10 00:00,2012,4,10,00:00,5.1,1.7,79,19,25.0,99.43,Cloudy
217,-73.75,45.47,MONTREAL/PIERRE ELLIOTT TRUDEAU INTL A,7025250,2012-04-10 01:00,2012,4,10,01:00,4.9,2.2,83,20,25.0,99.41,Cloudy
218,-73.75,45.47,MONTREAL/PIERRE ELLIOTT TRUDEAU INTL A,7025250,2012-04-10 02:00,2012,4,10,02:00,4.6,1.8,82,19,25.0,99.4,Mostly Cloudy
219,-73.75,45.47,MONTREAL/PIERRE ELLIOTT TRUDEAU INTL A,7025250,2012-04-10 03:00,2012,4,10,03:00,4.3,1.6,83,17,25.0,99.37,Mostly Cloudy
220,-73.75,45.47,MONTREAL/PIERRE ELLIOTT TRUDEAU INTL A,7025250,2012-04-10 04:00,2012,4,10,04:00,4.0,1.5,84,13,25.0,99.39,Mostly Cloudy
221,-73.75,45.47,MONTREAL/PIERRE ELLIOTT TRUDEAU INTL A,7025250,2012-04-10 05:00,2012,4,10,05:00,4.0,1.6,84,9,24.1,99.39,Cloudy
222,-73.75,45.47,MONTREAL/PIERRE ELLIOTT TRUDEAU INTL A,7025250,2012-04-10 06:00,2012,4,10,06:00,4.3,1.7,83,9,24.1,99.45,Mostly Cloudy
223,-73.75,45.47,MONTREAL/PIERRE ELLIOTT TRUDEAU INTL A,7025250,2012-04-10 07:00,2012,4,10,07:00,5.0,1.5,78,9,24.1,99.48,Cloudy
224,-73.75,45.47,MONTREAL/PIERRE ELLIOTT TRUDEAU INTL A,7025250,2012-04-10 08:00,2012,4,10,08:00,5.3,1.5,76,17,24.1,99.51,Rain Showers
225,-73.75,45.47,MONTREAL/PIERRE ELLIOTT TRUDEAU INTL A,7025250,2012-04-10 09:00,2012,4,10,09:00,5.7,1.8,76,15,24.1,99.53,Mostly Cloudy
226,-73.75,45.47,MONTREAL/PIERRE ELLIOTT TRUDEAU INTL A,7025250,2012-04-10 10:00,2012,4,10,10:00,6.9,0.9,66,20,24.1,99.56,Mostly Cloudy
227,-73.75,45.47,MONTREAL/PIERRE ELLIOTT TRUDEAU INTL A,7025250,2012-04-10 11:00,2012,4,10,11:00,6.9,2.5,74,15,24.1,99.58,Rain Showers
228,-73.75,45.47,MONTREAL/PIERRE ELLIOTT TRUDEAU INTL A,7025250,2012-04-10 12:00,2012,4,10,12:00,8.0,0.5,59,19,24.1,99.58,Cloudy
229,-73.75,45.47,MONTREAL/PIERRE ELLIOTT TRUDEAU INTL A,7025250,2012-04-10 13:00,2012,4,10,13:00,8.8,1.0,58,22,24.1,99.6,Mostly Cloudy
230,-73.75,45.47,MONTREAL/PIERRE ELLIOTT TRUDEAU INTL A,7025250,2012-04-10 14:00,2012,4,10,14:00,7.6,2.4,70,33,16.1,99.63,Rain Showers
231,-73.75,45.47,MONTREAL/PIERRE ELLIOTT TRUDEAU INTL A,7025250,2012-04-10 15:00,2012,4,10,15:00,6.2,3.2,81,19,24.1,99.71,Rain Showers
232,-73.75,45.47,MONTREAL/PIERRE ELLIOTT TRUDEAU INTL A,7025250,2012-04-10 16:00,2012,4,10,16:00,6.7,2.9,77,20,24.1,99.77,Mostly Cloudy
233,-73.75,45.47,MONTREAL/PIERRE ELLIOTT TRUDEAU INTL A,7025250,2012-04-10 17:00,2012,4,10,17:00,6.8,2.4,73,19,24.1,99.83,Mostly Cloudy
234,-73.75,45.47,MONTREAL/PIERRE ELLIOTT TRUDEAU INTL A,7025250,2012-04-10 18:00,2012,4,10,18:00,6.0,2.5,78,24,24.1,99.91,Mostly Cloudy
235,-73.75,45.47,MONTREAL/PIERRE ELLIOTT TRUDEAU INTL A,7025250,2012-04-10 19:00,2012,4,10,19:00,5.8,2.3,78,19,25.0,100.01,Mostly Cloudy
236,-73.75,45.47,MONTREAL/PIERRE ELLIOTT TRUDEAU INTL A,7025250,2012-04-10 20:00,2012,4,10,20:00,5.2,1.8,79,20,25.0,100.12,Mostly Cloudy
237,-73.75,45.47,MONTREAL/PIERRE ELLIOTT TRUDEAU INTL A,7025250,2012-04-10 21:00,2012,4,10,21:00,5.1,2.3,82,22,25.0,100.15,Mostly Cloudy
238,-73.75,45.47,MONTREAL/PIERRE ELLIOTT TRUDEAU INTL A,7025250,2012-04-10 22:00,2012,4,10,22:00,4.4,1.9,84,11,25.0,100.16,Mostly Cloudy
239,-73.75,45.47,MONTREAL/PIERRE ELLIOTT TRUDEAU INTL A,7025250,2012-04-10 23:00,2012,4,10,23:00,4.7,2.4,85,15,25.0,100.21,Mostly Cloudy
240,-73.75,45.47,MONTREAL/PIERRE ELLIOTT TRUDEAU INTL A,7025250,2012-04-11 00:00,2012,4,11,00:00,4.3,1.9,84,17,25.0,100.24,Mostly Cloudy
241,-73.75,45.47,MONTREAL/PIERRE ELLIOTT TRUDEAU INTL A,7025250,2012-04-11 01:00,2012,4,11,01:00,4.0,1.7,85,9,25.0,100.26,Mostly Cloudy
242,-73.75,45.47,MONTREAL/PIERRE ELLIOTT TRUDEAU INTL A,7025250,2012-04-11 02:00,2012,4,11,02:00,3.2,1.4,88,11,25.0,100.26,Mostly Cloudy
243,-73.75,45.47,MONTREAL/PIERRE ELLIOTT TRUDEAU INTL A,7025250,2012-04-11 03:00,2012,4,11,03:00,3.0,1.3,89,0,25.0,100.3,Mostly Cloudy
244,-73.75,45.47,MONTREAL/PIERRE ELLIOTT TRUDEAU INTL A,7025250,2012-04-11 04:00,2012,4,11,04:00,1.6,0.1,90,0,25.0,100.34,Mainly Clear
245,-73.75,45.47,MONTREAL/PIERRE ELLIOTT TRUDEAU INTL A,7025250,2012-04-11 05:00,2012,4,11,05:00,0.7,-0.8,90,6,24.1,100.4,Mostly Cloudy
246,-73.75,45.47,MONTREAL/PIERRE ELLIOTT TRUDEAU INTL A,7025250,2012-04-11 06:00,2012,4,11,06:00,2.4,0.8,89,6,24.1,100.5,Mostly Cloudy
247,-73.75,45.47,MONTREAL/PIERRE ELLIOTT TRUDEAU INTL A,7025250,2012-04-11 07:00,2012,4,11,07:00,3.2,1.2,87,4,24.1,100.58,Cloudy
248,-73.75,45.47,MONTREAL/PIERRE ELLIOTT TRUDEAU INTL A,7025250,2012-04-11 08:00,2012,4,11,08:00,4.6,1.7,81,4,24.1,100.65,Cloudy
249,-73.75,45.47,MONTREAL/PIERRE ELLIOTT TRUDEAU INTL A,7025250,2012-04-11 09:00,2012,4,11,09:00,6.1,1.4,72,0,24.1,100.72,Cloudy
250,-73.75,45.47,MONTREAL/PIERRE ELLIOTT TRUDEAU INTL A,7025250,2012-04-11 10:00,2012,4,11,10:00,6.7,2.2,73,4,24.1,100.76,Mostly Cloudy
251,-73.75,45.47,MONTREAL/PIERRE ELLIOTT TRUDEAU INTL A,7025250,2012-04-11 11:00,2012,4,11,11:00,6.7,2.0,72,11,24.1,100.78,Cloudy
252,-73.75,45.47,MONTREAL/PIERRE ELLIOTT TRUDEAU INTL A,7025250,2012-04-11 12:00,2012,4,11,12:00,8.8,2.5,65,9,24.1,100.76,Mainly Clear
253,-73.75,45.47,MONTREAL/PIERRE ELLIOTT TRUDEAU INTL A,7025250,2012-04-11 13:00,2012,4,11,13:00,11.0,1.9,53,4,24.1,100.74,Mostly Cloudy
254,-73.75,45.47,MONTREAL/PIERRE ELLIOTT TRUDEAU INTL A,7025250,2012-04-11 14:00,2012,4,11,14:00,8.4,0.3,57,32,24.1,100.79,Rain Showers
255,-73.75,45.47,MONTREAL/PIERRE ELLIOTT TRUDEAU INTL A,7025250,2012-04-11 15:00,2012,4,11,15:00,7.5,3.1,74,7,24.1,100.79,Mostly Cloudy
256,-73.75,45.47,MONTREAL/PIERRE ELLIOTT TRUDEAU INTL A,7025250,2012-04-11 16:00,2012,4,11,16:00,9.5,1.4,57,20,24.1,100.82,Mostly Cloudy
257,-73.75,45.47,MONTREAL/PIERRE ELLIOTT TRUDEAU INTL A,7025250,2012-04-11 17:00,2012,4,11,17:00,9.3,1.3,57,33,24.1,100.91,Rain Showers
258,-73.75,45.47,MONTREAL/PIERRE ELLIOTT TRUDEAU INTL A,7025250,2012-04-11 18:00,2012,4,11,18:00,8.4,-0.2,55,17,24.1,100.92,Mainly Clear
259,-73.75,45.47,MONTREAL/PIERRE ELLIOTT TRUDEAU INTL A,7025250,2012-04-11 19:00,2012,4,11,19:00,6.4,-0.4,62,11,24.1,101.0,Mainly Clear
260,-73.75,45.47,MONTREAL/PIERRE ELLIOTT TRUDEAU INTL A,7025250,2012-04-11 20:00,2012,4,11,20:00,7.4,0.8,63,13,25.0,101.07,Mostly Cloudy
261,-73.75,45.47,MONTREAL/PIERRE ELLIOTT TRUDEAU INTL A,7025250,2012-04-11 21:00,2012,4,11,21:00,6.9,0.9,66,7,25.0,101.08,Mostly Cloudy
262,-73.75,45.47,MONTREAL/PIERRE ELLIOTT TRUDEAU INTL A,7025250,2012-04-11 22:00,2012,4,11,22:00,3.3,-0.9,74,11,25.0,101.09,Mostly Cloudy
263,-73.75,45.47,MONTREAL/PIERRE ELLIOTT TRUDEAU INTL A,7025250,2012-04-11 23:00,2012,4,11,23:00,6.6,-0.3,61,13,25.0,101.11,Mostly Cloudy
264,-73.75,45.47,MONTREAL/PIERRE ELLIOTT TRUDEAU INTL A,7025250,2012-04-12 00:00,2012,4,12,00:00,5.5,-1.5,61,13,25.0,101.14,Mainly Clear
265,-73.75,45.47,MONTREAL/PIERRE ELLIOTT TRUDEAU INTL A,7025250,2012-04-12 01:00,2012,4,12,01:00,5.8,-2.2,56,15,25.0,101.15,Mostly Cloudy
266,-73.75,45.47,MONTREAL/PIERRE ELLIOTT TRUDEAU INTL A,7025250,2012-04-12 02:00,2012,4,12,02:00,4.8,-2.6,59,17,25.0,101.18,Mainly Clear
267,-73.75,45.47,MONTREAL/PIERRE ELLIOTT TRUDEAU INTL A,7025250,2012-04-12 03:00,2012,4,12,03:00,4.3,-2.8,60,13,25.0,101.21,Mostly Cloudy
268,-73.75,45.47,MONTREAL/PIERRE ELLIOTT TRUDEAU INTL A,7025250,2012-04-12 04:00,2012,4,12,04:00,3.1,-3.0,64,13,25.0,101.24,Mainly Clear
269,-73.75,45.47,MONTREAL/PIERRE ELLIOTT TRUDEAU INTL A,7025250,2012-04-12 05:00,2012,4,12,05:00,3.8,-2.9,62,15,24.1,101.3,Mostly Cloudy
270,-73.75,45.47,MONTREAL/PIERRE ELLIOTT TRUDEAU INTL A,7025250,2012-04-12 06:00,2012,4,12,06:00,3.5,-2.9,63,13,48.3,101.36,Mainly Clear
271,-73.75,45.47,MONTREAL/PIERRE ELLIOTT TRUDEAU INTL A,7025250,2012-04-12 07:00,2012,4,12,07:00,4.0,-2.3,63,6,48.3,101.43,Mainly Clear
272,-73.75,45.47,MONTREAL/PIERRE ELLIOTT TRUDEAU INTL A,7025250,2012-04-12 08:00,2012,4,12,08:00,6.5,-2.1,54,13,48.3,101.46,Mostly Cloudy
273,-73.75,45.47,MONTREAL/PIERRE ELLIOTT TRUDEAU INTL A,7025250,2012-04-12 09:00,2012,4,12,09:00,7.7,-1.8,51,13,48.3,101.5,Mostly Cloudy
274,-73.75,45.47,MONTREAL/PIERRE ELLIOTT TRUDEAU INTL A,7025250,2012-04-12 10:00,2012,4,12,10:00,8.7,-1.4,49,9,48.3,101.51,Mostly Cloudy
275,-73.75,45.47,MONTREAL/PIERRE ELLIOTT TRUDEAU INTL A,7025250,2012-04-12 11:00,2012,4,12,11:00,9.8,-1.2,46,9,48.3,101.46,Mostly Cloudy
276,-73.75,45.47,MONTREAL/PIERRE ELLIOTT TRUDEAU INTL A,7025250,2012-04-12 12:00,2012,4,12,12:00,10.4,-1.5,43,4,48.3,101.42,Mostly Cloudy
277,-73.75,45.47,MONTREAL/PIERRE ELLIOTT TRUDEAU INTL A,7025250,2012-04-12 13:00,2012,4,12,13:00,10.0,-1.0,46,15,48.3,101.4,Mostly Cloudy
278,-73.75,45.47,MONTREAL/PIERRE ELLIOTT TRUDEAU INTL A,7025250,2012-04-12 14:00,2012,4,12,14:00,10.3,-1.1,45,13,48.3,101.38,Mostly Cloudy
279,-73.75,45.47,MONTREAL/PIERRE ELLIOTT TRUDEAU INTL A,7025250,2012-04-12 15:00,2012,4,12,15:00,11.3,-1.4,41,15,48.3,101.33,Mostly Cloudy
280,-73.75,45.47,MONTREAL/PIERRE ELLIOTT TRUDEAU INTL A,7025250,2012-04-12 16:00,2012,4,12,16:00,12.4,-1.8,37,15,48.3,101.32,Mostly Cloudy
281,-73.75,45.47,MONTREAL/PIERRE ELLIOTT TRUDEAU INTL A,7025250,2012-04-12 17:00,2012,4,12,17:00,11.4,-1.5,41,11,48.3,101.32,Mainly Clear
282,-73.75,45.47,MONTREAL/PIERRE ELLIOTT TRUDEAU INTL A,7025250,2012-04-12 18:00,2012,4,12,18:00,11.3,-2.2,39,17,48.3,101.33,Mainly Clear
283,-73.75,45.47,MONTREAL/PIERRE ELLIOTT TRUDEAU INTL A,7025250,2012-04-12 19:00,2012,4,12,19:00,9.9,-1.8,44,11,48.3,101.34,Mainly Clear
284,-73.75,45.47,MONTREAL/PIERRE ELLIOTT TRUDEAU INTL A,7025250,2012-04-12 20:00,2012,4,12,20:00,9.1,-1.1,49,7,25.0,101.38,Mainly Clear
285,-73.75,45.47,MONTREAL/PIERRE ELLIOTT TRUDEAU INTL A,7025250,2012-04-12 21:00,2012,4,12,21:00,6.6,-0.8,59,0,25.0,101.39,Mainly Clear
286,-73.75,45.47,MONTREAL/PIERRE ELLIOTT TRUDEAU INTL A,7025250,2012-04-12 22:00,2012,4,12,22:00,6.7,-0.6,60,4,25.0,101.44,Clear
287,-73.75,45.47,MONTREAL/PIERRE ELLIOTT TRUDEAU INTL A,7025250,2012-04-12 23:00,2012,4,12,23:00,5.9,-2.2,56,11,25.0,101.47,Clear
288,-73.75,45.47,MONTREAL/PIERRE ELLIOTT TRUDEAU INTL A,7025250,2012-04-13 00:00,2012,4,13,00:00,4.6,-4.0,54,11,25.0,101.49,Clear
289,-73.75,45.47,MONTREAL/PIERRE ELLIOTT TRUDEAU INTL A,7025250,2012-04-13 01:00,2012,4,13,01:00,4.0,-5.1,51,11,25.0,101.48,Clear
290,-73.75,45.47,MONTREAL/PIERRE ELLIOTT TRUDEAU INTL A,7025250,2012-04-13 02:00,2012,4,13,02:00,2.0,-5.4,58,6,25.0,101.5,Clear
291,-73.75,45.47,MONTREAL/PIERRE ELLIOTT TRUDEAU INTL A,7025250,2012-04-13 03:00,2012,4,13,03:00,1.5,-5.1,61,9,25.0,101.52,Clear
292,-73.75,45.47,MONTREAL/PIERRE ELLIOTT TRUDEAU INTL A,7025250,2012-04-13 04:00,2012,4,13,04:00,1.2,-4.5,66,6,25.0,101.56,Clear
293,-73.75,45.47,MONTREAL/PIERRE ELLIOTT TRUDEAU INTL A,7025250,2012-04-13 05:00,2012,4,13,05:00,1.3,-4.1,67,6,48.3,101.6,Clear
294,-73.75,45.47,MONTREAL/PIERRE ELLIOTT TRUDEAU INTL A,7025250,2012-04-13 06:00,2012,4,13,06:00,1.8,-3.4,68,6,48.3,101.67,Clear
295,-73.75,45.47,MONTREAL/PIERRE ELLIOTT TRUDEAU INTL A,7025250,2012-04-13 07:00,2012,4,13,07:00,4.1,-2.1,64,7,48.3,101.75,Mainly Clear
296,-73.75,45.47,MONTREAL/PIERRE ELLIOTT TRUDEAU INTL A,7025250,2012-04-13 08:00,2012,4,13,08:00,6.1,-1.5,58,7,48.3,101.77,Mainly Clear
297,-73.75,45.47,MONTREAL/PIERRE ELLIOTT TRUDEAU INTL A,7025250,2012-04-13 09:00,2012,4,13,09:00,8.0,-0.8,54,13,48.3,101.73,Mainly Clear
298,-73.75,45.47,MONTREAL/PIERRE ELLIOTT TRUDEAU INTL A,7025250,2012-04-13 10:00,2012,4,13,10:00,9.8,-1.8,44,17,48.3,101.69,Mainly Clear
299,-73.75,45.47,MONTREAL/PIERRE ELLIOTT TRUDEAU INTL A,7025250,2012-04-13 11:00,2012,4,13,11:00,12.2,-1.0,40,19,48.3,101.6,Mainly Clear
300,-73.75,45.47,MONTREAL/PIERRE ELLIOTT TRUDEAU INTL A,7025250,2012-04-13 12:00,2012,4,13,12:00,13.5,-3.0,32,24,48.3,101.52,Mainly Clear
301,-73.75,45.47,MONTREAL/PIERRE ELLIOTT TRUDEAU INTL A,7025250,2012-04-13 13:00,2012,4,13,13:00,14.7,-6.1,23,24,48.3,101.48,Mainly Clear
302,-73.75,45.47,MONTREAL/PIERRE ELLIOTT TRUDEAU INTL A,7025250,2012-04-13 14:00,2012,4,13,14:00,15.0,-5.6,24,22,48.3,101.36,Mainly Clear
303,-73.75,45.47,MONTREAL/PIERRE ELLIOTT TRUDEAU INTL A,7025250,2012-04-13 15:00,2012,4,13,15:00,15.9,-4.9,24,32,48.3,101.27,Mainly Clear
304,-73.75,45.47,MONTREAL/PIERRE ELLIOTT TRUDEAU INTL A,7025250,2012-04-13 16:00,2012,4,13,16:00,16.1,-5.2,23,30,48.3,101.22,Mostly Cloudy
305,-73.75,45.47,MONTREAL/PIERRE ELLIOTT TRUDEAU INTL A,7025250,2012-04-13 17:00,2012,4,13,17:00,15.0,-4.3,26,28,48.3,101.22,Cloudy
306,-73.75,45.47,MONTREAL/PIERRE ELLIOTT TRUDEAU INTL A,7025250,2012-04-13 18:00,2012,4,13,18:00,14.3,-5.1,26,22,48.3,101.24,Cloudy
307,-73.75,45.47,MONTREAL/PIERRE ELLIOTT TRUDEAU INTL A,7025250,2012-04-13 19:00,2012,4,13,19:00,13.6,-6.8,24,19,48.3,101.25,Mostly Cloudy
308,-73.75,45.47,MONTREAL/PIERRE ELLIOTT TRUDEAU INTL A,7025250,2012-04-13 20:00,2012,4,13,20:00,12.2,-5.9,28,15,25.0,101.31,Mostly Cloudy
309,-73.75,45.47,MONTREAL/PIERRE ELLIOTT TRUDEAU INTL A,7025250,2012-04-13 21:00,2012,4,13,21:00,11.7,-5.1,30,19,25.0,101.32,Mainly Clear
310,-73.75,45.47,MONTREAL/PIERRE ELLIOTT TRUDEAU INTL A,7025250,2012-04-13 22:00,2012,4,13,22:00,10.3,-1.3,44,20,25.0,101.36,Mainly Clear
311,-73.75,45.47,MONTREAL/PIERRE ELLIOTT TRUDEAU INTL A,7025250,2012-04-13 23:00,2012,4,13,23:00,9.1,-1.3,48,20,25.0,101.37,Mainly Clear
312,-73.75,45.47,MONTREAL/PIERRE ELLIOTT TRUDEAU INTL A,7025250,2012-04-14 00:00,2012,4,14,00:00,7.9,-1.6,51,22,25.0,101.35,Clear
313,-73.75,45.47,MONTREAL/PIERRE ELLIOTT TRUDEAU INTL A,7025250,2012-04-14 01:00,2012,4,14,01:00,7.5,-1.8,52,11,25.0,101.35,Clear
314,-73.75,45.47,MONTREAL/PIERRE ELLIOTT TRUDEAU INTL A,7025250,2012-04-14 02:00,2012,4,14,02:00,6.8,-1.8,54,17,25.0,101.34,Clear
315,-73.75,45.47,MONTREAL/PIERRE ELLIOTT TRUDEAU INTL A,7025250,2012-04-14 03:00,2012,4,14,03:00,5.4,-1.0,63,19,25.0,101.36,Mainly Clear
316,-73.75,45.47,MONTREAL/PIERRE ELLIOTT TRUDEAU INTL A,7025250,2012-04-14 04:00,2012,4,14,04:00,5.7,-0.5,64,11,25.0,101.35,Mainly Clear
317,-73.75,45.47,MONTREAL/PIERRE ELLIOTT TRUDEAU INTL A,7025250,2012-04-14 05:00,2012,4,14,05:00,6.2,0.0,64,17,25.0,101.36,Mostly Cloudy
318,-73.75,45.47,MONTREAL/PIERRE ELLIOTT TRUDEAU INTL A,7025250,2012-04-14 06:00,2012,4,14,06:00,6.7,-0.9,58,19,24.1,101.42,Mostly Cloudy
319,-73.75,45.47,MONTREAL/PIERRE ELLIOTT TRUDEAU INTL A,7025250,2012-04-14 07:00,2012,4,14,07:00,7.5,-1.2,54,20,48.3,101.49,Mostly Cloudy
320,-73.75,45.47,MONTREAL/PIERRE ELLIOTT TRUDEAU INTL A,7025250,2012-04-14 08:00,2012,4,14,08:00,9.2,-0.5,51,19,48.3,101.46,Mostly Cloudy
321,-73.75,45.47,MONTREAL/PIERRE ELLIOTT TRUDEAU INTL A,7025250,2012-04-14 09:00,2012,4,14,09:00,10.8,-0.3,46,20,48.3,101.45,Mostly Cloudy
322,-73.75,45.47,MONTREAL/PIERRE ELLIOTT TRUDEAU INTL A,7025250,2012-04-14 10:00,2012,4,14,10:00,12.8,-0.2,41,26,48.3,101.38,Cloudy
323,-73.75,45.47,MONTREAL/PIERRE ELLIOTT TRUDEAU INTL A,7025250,2012-04-14 11:00,2012,4,14,11:00,13.8,-0.8,37,24,48.3,101.28,Cloudy
324,-73.75,45.47,MONTREAL/PIERRE ELLIOTT TRUDEAU INTL A,7025250,2012-04-14 12:00,2012,4,14,12:00,15.3,-0.3,34,24,48.3,101.21,Cloudy
325,-73.75,45.47,MONTREAL/PIERRE ELLIOTT TRUDEAU INTL A,7025250,2012-04-14 13:00,2012,4,14,13:00,14.8,-1.1,34,26,48.3,101.2,Cloudy
326,-73.75,45.47,MONTREAL/PIERRE ELLIOTT TRUDEAU INTL A,7025250,2012-04-14 14:00,2012,4,14,14:00,14.7,-0.7,35,17,48.3,101.08,Cloudy
327,-73.75,45.47,MONTREAL/PIERRE ELLIOTT TRUDEAU INTL A,7025250,2012-04-14 15:00,2012,4,14,15:00,15.6,-3.0,28,20,48.3,101.02,Cloudy
328,-73.75,45.47,MONTREAL/PIERRE ELLIOTT TRUDEAU INTL A,7025250,2012-04-14 16:00,2012,4,14,16:00,15.9,-3.5,26,19,48.3,100.98,Cloudy
329,-73.75,45.47,MONTREAL/PIERRE ELLIOTT TRUDEAU INTL A,7025250,2012-04-14 17:00,2012,4,14,17:00,15.4,-3.1,28,24,48.3,101.0,Mostly Cloudy
330,-73.75,45.47,MONTREAL/PIERRE ELLIOTT TRUDEAU INTL A,7025250,2012-04-14 18:00,2012,4,14,18:00,14.5,-2.7,30,13,48.3,100.95,Mostly Cloudy
331,-73.75,45.47,MONTREAL/PIERRE ELLIOTT TRUDEAU INTL A,7025250,2012-04-14 19:00,2012,4,14,19:00,11.9,-0.6,42,7,48.3,100.91,Mostly Cloudy
332,-73.75,45.47,MONTREAL/PIERRE ELLIOTT TRUDEAU INTL A,7025250,2012-04-14 20:00,2012,4,14,20:00,12.8,-0.9,39,7,25.0,100.9,Mostly Cloudy
333,-73.75,45.47,MONTREAL/PIERRE ELLIOTT TRUDEAU INTL A,7025250,2012-04-14 21:00,2012,4,14,21:00,12.0,0.0,44,7,25.0,100.86,Mostly Cloudy
334,-73.75,45.47,MONTREAL/PIERRE ELLIOTT TRUDEAU INTL A,7025250,2012-04-14 22:00,2012,4,14,22:00,11.0,0.1,47,9,25.0,100.82,Mostly Cloudy
335,-73.75,45.47,MONTREAL/PIERRE ELLIOTT TRUDEAU INTL A,7025250,2012-04-14 23:00,2012,4,14,23:00,11.6,0.3,46,9,25.0,100.76,Mostly Cloudy
336,-73.75,45.47,MONTREAL/PIERRE ELLIOTT TRUDEAU INTL A,7025250,2012-04-15 00:00,2012,4,15,00:00,12.9,0.1,41,9,25.0,100.77,Mostly Cloudy
337,-73.75,45.47,MONTREAL/PIERRE ELLIOTT TRUDEAU INTL A,7025250,2012-04-15 01:00,2012,4,15,01:00,13.1,0.6,42,13,25.0,100.74,Mostly Cloudy
338,-73.75,45.47,MONTREAL/PIERRE ELLIOTT TRUDEAU INTL A,7025250,2012-04-15 02:00,2012,4,15,02:00,12.4,1.8,48,15,25.0,100.7,Mostly Cloudy
339,-73.75,45.47,MONTREAL/PIERRE ELLIOTT TRUDEAU INTL A,7025250,2012-04-15 03:00,2012,4,15,03:00,11.3,2.3,54,15,25.0,100.7,Clear
340,-73.75,45.47,MONTREAL/PIERRE ELLIOTT TRUDEAU INTL A,7025250,2012-04-15 04:00,2012,4,15,04:00,10.9,4.3,64,15,25.0,100.72,Clear
341,-73.75,45.47,MONTREAL/PIERRE ELLIOTT TRUDEAU INTL A,7025250,2012-04-15 05:00,2012,4,15,05:00,9.9,4.5,69,6,25.0,100.72,Clear
342,-73.75,45.47,MONTREAL/PIERRE ELLIOTT TRUDEAU INTL A,7025250,2012-04-15 06:00,2012,4,15,06:00,10.6,5.4,70,13,24.1,100.74,Mainly Clear
343,-73.75,45.47,MONTREAL/PIERRE ELLIOTT TRUDEAU INTL A,7025250,2012-04-15 07:00,2012,4,15,07:00,11.7,6.2,69,9,24.1,100.81,Cloudy
344,-73.75,45.47,MONTREAL/PIERRE ELLIOTT TRUDEAU INTL A,7025250,2012-04-15 08:00,2012,4,15,08:00,13.5,8.0,69,11,24.1,100.84,Cloudy
345,-73.75,45.47,MONTREAL/PIERRE ELLIOTT TRUDEAU INTL A,7025250,2012-04-15 09:00,2012,4,15,09:00,14.1,8.9,71,26,24.1,100.79,Cloudy
346,-73.75,45.47,MONTREAL/PIERRE ELLIOTT TRUDEAU INTL A,7025250,2012-04-15 10:00,2012,4,15,10:00,15.5,9.4,67,32,24.1,100.72,Cloudy
347,-73.75,45.47,MONTREAL/PIERRE ELLIOTT TRUDEAU INTL A,7025250,2012-04-15 11:00,2012,4,15,11:00,17.3,9.7,61,28,24.1,100.68,Mainly Clear
348,-73.75,45.47,MONTREAL/PIERRE ELLIOTT TRUDEAU INTL A,7025250,2012-04-15 12:00,2012,4,15,12:00,18.4,10.1,58,28,48.3,100.65,Mainly Clear
349,-73.75,45.47,MONTREAL/PIERRE ELLIOTT TRUDEAU INTL A,7025250,2012-04-15 13:00,2012,4,15,13:00,19.8,10.1,54,32,48.3,100.68,Mostly Cloudy
350,-73.75,45.47,MONTREAL/PIERRE ELLIOTT TRUDEAU INTL A,7025250,2012-04-15 14:00,2012,4,15,14:00,19.4,10.1,55,26,24.1,100.68,Mostly Cloudy
351,-73.75,45.47,MONTREAL/PIERRE ELLIOTT TRUDEAU INTL A,7025250,2012-04-15 15:00,2012,4,15,15:00,18.1,10.6,62,24,48.3,100.65,Mostly Cloudy
352,-73.75,45.47,MONTREAL/PIERRE ELLIOTT TRUDEAU INTL A,7025250,2012-04-15 16:00,2012,4,15,16:00,17.5,10.9,65,22,48.3,100.69,Cloudy
353,-73.75,45.47,MONTREAL/PIERRE ELLIOTT TRUDEAU INTL A,7025250,2012-04-15 17:00,2012,4,15,17:00,17.0,11.0,68,20,24.1,100.73,Cloudy
354,-73.75,45.47,MONTREAL/PIERRE ELLIOTT TRUDEAU INTL A,7025250,2012-04-15 18:00,2012,4,15,18:00,16.6,11.2,70,20,24.1,100.77,Cloudy
355,-73.75,45.47,MONTREAL/PIERRE ELLIOTT TRUDEAU INTL A,7025250,2012-04-15 19:00,2012,4,15,19:00,16.3,11.5,73,17,24.1,100.78,Cloudy
356,-73.75,45.47,MONTREAL/PIERRE ELLIOTT TRUDEAU INTL A,7025250,2012-04-15 20:00,2012,4,15,20:00,15.5,11.0,75,11,25.0,100.8,Cloudy
357,-73.75,45.47,MONTREAL/PIERRE ELLIOTT TRUDEAU INTL A,7025250,2012-04-15 21:00,2012,4,15,21:00,14.6,10.5,76,6,25.0,100.83,Mostly Cloudy
358,-73.75,45.47,MONTREAL/PIERRE ELLIOTT TRUDEAU INTL A,7025250,2012-04-15 22:00,2012,4,15,22:00,14.8,10.6,76,6,25.0,100.82,Cloudy
359,-73.75,45.47,MONTREAL/PIERRE ELLIOTT TRUDEAU INTL A,7025250,2012-04-15 23:00,2012,4,15,23:00,14.9,11.1,78,13,25.0,100.74,Cloudy
360,-73.75,45.47,MONTREAL/PIERRE ELLIOTT TRUDEAU INTL A,7025250,2012-04-16 00:00,2012,4,16,00:00,15.7,11.6,77,17,25.0,100.77,Cloudy
361,-73.75,45.47,MONTREAL/PIERRE ELLIOTT TRUDEAU INTL A,7025250,2012-04-16 01:00,2012,4,16,01:00,14.6,12.8,89,9,8.0,100.7,Rain Showers
362,-73.75,45.47,MONTREAL/PIERRE ELLIOTT TRUDEAU INTL A,7025250,2012-04-16 02:00,2012,4,16,02:00,14.9,13.3,90,4,9.7,100.66,Rain Showers
363,-73.75,45.47,MONTREAL/PIERRE ELLIOTT TRUDEAU INTL A,7025250,2012-04-16 03:00,2012,4,16,03:00,14.4,12.8,90,9,25.0,100.66,Cloudy
364,-73.75,45.47,MONTREAL/PIERRE ELLIOTT TRUDEAU INTL A,7025250,2012-04-16 04:00,2012,4,16,04:00,15.2,12.6,84,11,25.0,100.66,Cloudy
365,-73.75,45.47,MONTREAL/PIERRE ELLIOTT TRUDEAU INTL A,7025250,2012-04-16 05:00,2012,4,16,05:00,15.3,12.3,82,13,25.0,100.64,Cloudy
366,-73.75,45.47,MONTREAL/PIERRE ELLIOTT TRUDEAU INTL A,7025250,2012-04-16 06:00,2012,4,16,06:00,15.7,12.0,79,15,24.1,100.61,Cloudy
367,-73.75,45.47,MONTREAL/PIERRE ELLIOTT TRUDEAU INTL A,7025250,2012-04-16 07:00,2012,4,16,07:00,17.0,12.8,76,17,24.1,100.55,Cloudy
368,-73.75,45.47,MONTREAL/PIERRE ELLIOTT TRUDEAU INTL A,7025250,2012-04-16 08:00,2012,4,16,08:00,19.3,13.5,69,17,24.1,100.52,Mostly Cloudy
369,-73.75,45.47,MONTREAL/PIERRE ELLIOTT TRUDEAU INTL A,7025250,2012-04-16 09:00,2012,4,16,09:00,22.2,13.6,58,15,24.1,100.52,Mostly Cloudy
370,-73.75,45.47,MONTREAL/PIERRE ELLIOTT TRUDEAU INTL A,7025250,2012-04-16 10:00,2012,4,16,10:00,24.9,12.8,47,22,24.1,100.44,Cloudy
371,-73.75,45.47,MONTREAL/PIERRE ELLIOTT TRUDEAU INTL A,7025250,2012-04-16 11:00,2012,4,16,11:00,24.1,12.1,47,22,24.1,100.44,Cloudy
372,-73.75,45.47,MONTREAL/PIERRE ELLIOTT TRUDEAU INTL A,7025250,2012-04-16 12:00,2012,4,16,12:00,24.8,11.7,44,30,24.1,100.39,Cloudy
373,-73.75,45.47,MONTREAL/PIERRE ELLIOTT TRUDEAU INTL A,7025250,2012-04-16 13:00,2012,4,16,13:00,25.4,12.3,44,22,24.1,100.36,Cloudy
374,-73.75,45.47,MONTREAL/PIERRE ELLIOTT TRUDEAU INTL A,7025250,2012-04-16 14:00,2012,4,16,14:00,26.6,12.4,41,24,24.1,100.26,Cloudy
375,-73.75,45.47,MONTREAL/PIERRE ELLIOTT TRUDEAU INTL A,7025250,2012-04-16 15:00,2012,4,16,15:00,27.4,11.5,37,28,24.1,100.12,Mostly Cloudy
376,-73.75,45.47,MONTREAL/PIERRE ELLIOTT TRUDEAU INTL A,7025250,2012-04-16 16:00,2012,4,16,16:00,27.8,11.6,37,26,48.3,100.06,Mostly Cloudy
377,-73.75,45.47,MONTREAL/PIERRE ELLIOTT TRUDEAU INTL A,7025250,2012-04-16 17:00,2012,4,16,17:00,27.3,11.5,37,26,48.3,100.03,Mainly Clear
378,-73.75,45.47,MONTREAL/PIERRE ELLIOTT TRUDEAU INTL A,7025250,2012-04-16 18:00,2012,4,16,18:00,26.7,11.3,38,11,48.3,99.99,Mostly Cloudy
379,-73.75,45.47,MONTREAL/PIERRE ELLIOTT TRUDEAU INTL A,7025250,2012-04-16 19:00,2012,4,16,19:00,26.4,11.9,40,20,16.1,100.1,Rain Showers
380,-73.75,45.47,MONTREAL/PIERRE ELLIOTT TRUDEAU INTL A,7025250,2012-04-16 20:00,2012,4,16,20:00,20.5,15.6,73,4,25.0,100.22,Mostly Cloudy
381,-73.75,45.47,MONTREAL/PIERRE ELLIOTT TRUDEAU INTL A,7025250,2012-04-16 21:00,2012,4,16,21:00,19.3,15.8,80,13,25.0,100.26,Mostly Cloudy
382,-73.75,45.47,MONTREAL/PIERRE ELLIOTT TRUDEAU INTL A,7025250,2012-04-16 22:00,2012,4,16,22:00,19.4,14.7,74,24,25.0,100.25,Rain Showers
383,-73.75,45.47,MONTREAL/PIERRE ELLIOTT TRUDEAU INTL A,7025250,2012-04-16 23:00,2012,4,16,23:00,19.5,14.2,71,30,25.0,100.31,Mostly Cloudy
384,-73.75,45.47,MONTREAL/PIERRE ELLIOTT TRUDEAU INTL A,7025250,2012-04-17 00:00,2012,4,17,00:00,19.0,11.6,62,28,25.0,100.34,Mainly Clear
385,-73.75,45.47,MONTREAL/PIERRE ELLIOTT TRUDEAU INTL A,7025250,2012-04-17 01:00,2012,4,17,01:00,18.9,9.6,55,35,25.0,100.42,Mainly Clear
386,-73.75,45.47,MONTREAL/PIERRE ELLIOTT TRUDEAU INTL A,7025250,2012-04-17 02:00,2012,4,17,02:00,17.4,4.7,43,30,25.0,100.51,Mainly Clear
387,-73.75,45.47,MONTREAL/PIERRE ELLIOTT TRUDEAU INTL A,7025250,2012-04-17 03:00,2012,4,17,03:00,15.4,6.3,55,37,25.0,100.61,Mainly Clear
388,-73.75,45.47,MONTREAL/PIERRE ELLIOTT TRUDEAU INTL A,7025250,2012-04-17 04:00,2012,4,17,04:00,14.5,6.1,57,37,25.0,100.8,Mainly Clear
389,-73.75,45.47,MONTREAL/PIERRE ELLIOTT TRUDEAU INTL A,7025250,2012-04-17 05:00,2012,4,17,05:00,13.5,5.9,60,33,48.3,100.99,Mostly Cloudy
390,-73.75,45.47,MONTREAL/PIERRE ELLIOTT TRUDEAU INTL A,7025250,2012-04-17 06:00,2012,4,17,06:00,11.9,2.3,52,37,48.3,101.19,Mainly Clear
391,-73.75,45.47,MONTREAL/PIERRE ELLIOTT TRUDEAU INTL A,7025250,2012-04-17 07:00,2012,4,17,07:00,10.9,1.9,54,48,48.3,101.32,Mainly Clear
392,-73.75,45.47,MONTREAL/PIERRE ELLIOTT TRUDEAU INTL A,7025250,2012-04-17 08:00,2012,4,17,08:00,10.2,0.6,51,43,48.3,101.42,Mainly Clear
393,-73.75,45.47,MONTREAL/PIERRE ELLIOTT TRUDEAU INTL A,7025250,2012-04-17 09:00,2012,4,17,09:00,10.2,-1.1,45,44,48.3,101.5,Mainly Clear
394,-73.75,45.47,MONTREAL/PIERRE ELLIOTT TRUDEAU INTL A,7025250,2012-04-17 10:00,2012,4,17,10:00,10.9,-1.3,43,41,48.3,101.51,Mainly Clear
395,-73.75,45.47,MONTREAL/PIERRE ELLIOTT TRUDEAU INTL A,7025250,2012-04-17 11:00,2012,4,17,11:00,11.5,-1.0,42,30,48.3,101.57,Mostly Cloudy
396,-73.75,45.47,MONTREAL/PIERRE ELLIOTT TRUDEAU INTL A,7025250,2012-04-17 12:00,2012,4,17,12:00,12.0,-0.8,41,37,48.3,101.58,Mostly Cloudy
397,-73.75,45.47,MONTREAL/PIERRE ELLIOTT TRUDEAU INTL A,7025250,2012-04-17 13:00,2012,4,17,13:00,12.2,-0.2,42,32,48.3,101.61,Mainly Clear
398,-73.75,45.47,MONTREAL/PIERRE ELLIOTT TRUDEAU INTL A,7025250,2012-04-17 14:00,2012,4,17,14:00,12.6,-0.3,41,35,48.3,101.64,Mostly Cloudy
399,-73.75,45.47,MONTREAL/PIERRE ELLIOTT TRUDEAU INTL A,7025250,2012-04-17 15:00,2012,4,17,15:00,12.7,-0.5,40,30,48.3,101.63,Mainly Clear
400,-73.75,45.47,MONTREAL/PIERRE ELLIOTT TRUDEAU INTL A,7025250,2012-04-17 16:00,2012,4,17,16:00,11.6,-1.2,41,32,48.3,101.69,Mainly Clear
401,-73.75,45.47,MONTREAL/PIERRE ELLIOTT TRUDEAU INTL A,7025250,2012-04-17 17:00,2012,4,17,17:00,11.1,-1.7,41,24,48.3,101.72,Mostly Cloudy
402,-73.75,45.47,MONTREAL/PIERRE ELLIOTT TRUDEAU INTL A,7025250,2012-04-17 18:00,2012,4,17,18:00,9.5,-2.8,42,24,48.3,101.79,Mostly Cloudy
403,-73.75,45.47,MONTREAL/PIERRE ELLIOTT TRUDEAU INTL A,7025250,2012-04-17 19:00,2012,4,17,19:00,8.5,-4.1,41,28,24.1,101.89,Mostly Cloudy
404,-73.75,45.47,MONTREAL/PIERRE ELLIOTT TRUDEAU INTL A,7025250,2012-04-17 20:00,2012,4,17,20:00,7.4,-5.1,41,19,25.0,102.04,Mostly Cloudy
405,-73.75,45.47,MONTREAL/PIERRE ELLIOTT TRUDEAU INTL A,7025250,2012-04-17 21:00,2012,4,17,21:00,6.1,-5.6,43,17,25.0,102.12,Mostly Cloudy
406,-73.75,45.47,MONTREAL/PIERRE ELLIOTT TRUDEAU INTL A,7025250,2012-04-17 22:00,2012,4,17,22:00,5.4,-5.4,46,11,25.0,102.17,Mostly Cloudy
407,-73.75,45.47,MONTREAL/PIERRE ELLIOTT TRUDEAU INTL A,7025250,2012-04-17 23:00,2012,4,17,23:00,3.9,-4.8,53,17,25.0,102.17,Mostly Cloudy
408,-73.75,45.47,MONTREAL/PIERRE ELLIOTT TRUDEAU INTL A,7025250,2012-04-18 00:00,2012,4,18,00:00,2.9,-5.1,56,13,25.0,102.2,Clear
409,-73.75,45.47,MONTREAL/PIERRE ELLIOTT TRUDEAU INTL A,7025250,2012-04-18 01:00,2012,4,18,01:00,2.4,-5.7,55,15,25.0,102.18,Clear
410,-73.75,45.47,MONTREAL/PIERRE ELLIOTT TRUDEAU INTL A,7025250,2012-04-18 02:00,2012,4,18,02:00,0.9,-6.5,58,15,25.0,102.22,Clear
411,-73.75,45.47,MONTREAL/PIERRE ELLIOTT TRUDEAU INTL A,7025250,2012-04-18 03:00,2012,4,18,03:00,1.1,-7.0,55,11,25.0,102.25,Clear
412,-73.75,45.47,MONTREAL/PIERRE ELLIOTT TRUDEAU INTL A,7025250,2012-04-18 04:00,2012,4,18,04:00,0.4,-7.0,58,9,25.0,102.29,Clear
413,-73.75,45.47,MONTREAL/PIERRE ELLIOTT TRUDEAU INTL A,7025250,2012-04-18 05:00,2012,4,18,05:00,-1.0,-7.0,64,11,48.3,102.34,Clear
414,-73.75,45.47,MONTREAL/PIERRE ELLIOTT TRUDEAU INTL A,7025250,2012-04-18 06:00,2012,4,18,06:00,0.9,-6.3,59,9,48.3,102.41,Clear
415,-73.75,45.47,MONTREAL/PIERRE ELLIOTT TRUDEAU INTL A,7025250,2012-04-18 07:00,2012,4,18,07:00,2.5,-6.2,53,13,48.3,102.44,Clear
416,-73.75,45.47,MONTREAL/PIERRE ELLIOTT TRUDEAU INTL A,7025250,2012-04-18 08:00,2012,4,18,08:00,3.3,-5.9,51,11,48.3,102.43,Clear
417,-73.75,45.47,MONTREAL/PIERRE ELLIOTT TRUDEAU INTL A,7025250,2012-04-18 09:00,2012,4,18,09:00,4.5,-5.7,47,9,48.3,102.41,Clear
418,-73.75,45.47,MONTREAL/PIERRE ELLIOTT TRUDEAU INTL A,7025250,2012-04-18 10:00,2012,4,18,10:00,5.3,-5.1,47,9,48.3,102.36,Clear
419,-73.75,45.47,MONTREAL/PIERRE ELLIOTT TRUDEAU INTL A,7025250,2012-04-18 11:00,2012,4,18,11:00,6.9,-3.4,48,6,48.3,102.24,Clear
420,-73.75,45.47,MONTREAL/PIERRE ELLIOTT TRUDEAU INTL A,7025250,2012-04-18 12:00,2012,4,18,12:00,7.3,-4.6,43,11,48.3,102.13,Mainly Clear
421,-73.75,45.47,MONTREAL/PIERRE ELLIOTT TRUDEAU INTL A,7025250,2012-04-18 13:00,2012,4,18,13:00,8.6,-3.3,43,15,48.3,102.05,Mainly Clear
422,-73.75,45.47,MONTREAL/PIERRE ELLIOTT TRUDEAU INTL A,7025250,2012-04-18 14:00,2012,4,18,14:00,9.3,-3.2,41,7,48.3,101.97,Mainly Clear
423,-73.75,45.47,MONTREAL/PIERRE ELLIOTT TRUDEAU INTL A,7025250,2012-04-18 15:00,2012,4,18,15:00,10.4,-3.2,38,11,48.3,101.86,Mainly Clear
424,-73.75,45.47,MONTREAL/PIERRE ELLIOTT TRUDEAU INTL A,7025250,2012-04-18 16:00,2012,4,18,16:00,10.3,-3.6,37,9,48.3,101.8,Mainly Clear
425,-73.75,45.47,MONTREAL/PIERRE ELLIOTT TRUDEAU INTL A,7025250,2012-04-18 17:00,2012,4,18,17:00,10.2,-4.1,36,13,48.3,101.75,Mainly Clear
426,-73.75,45.47,MONTREAL/PIERRE ELLIOTT TRUDEAU INTL A,7025250,2012-04-18 18:00,2012,4,18,18:00,10.0,-5.5,33,7,48.3,101.7,Mainly Clear
427,-73.75,45.47,MONTREAL/PIERRE ELLIOTT TRUDEAU INTL A,7025250,2012-04-18 19:00,2012,4,18,19:00,8.4,-3.9,42,9,48.3,101.66,Mainly Clear
428,-73.75,45.47,MONTREAL/PIERRE ELLIOTT TRUDEAU INTL A,7025250,2012-04-18 20:00,2012,4,18,20:00,7.6,-4.0,44,7,25.0,101.62,Mainly Clear
429,-73.75,45.47,MONTREAL/PIERRE ELLIOTT TRUDEAU INTL A,7025250,2012-04-18 21:00,2012,4,18,21:00,7.9,-4.2,42,4,25.0,101.56,Mostly Cloudy
430,-73.75,45.47,MONTREAL/PIERRE ELLIOTT TRUDEAU INTL A,7025250,2012-04-18 22:00,2012,4,18,22:00,8.4,-4.1,41,0,25.0,101.53,Mostly Cloudy
431,-73.75,45.47,MONTREAL/PIERRE ELLIOTT TRUDEAU INTL A,7025250,2012-04-18 23:00,2012,4,18,23:00,6.8,-2.6,51,6,25.0,101.5,Mainly Clear
432,-73.75,45.47,MONTREAL/PIERRE ELLIOTT TRUDEAU INTL A,7025250,2012-04-19 00:00,2012,4,19,00:00,6.5,-2.7,52,4,25.0,101.44,Mainly Clear
433,-73.75,45.47,MONTREAL/PIERRE ELLIOTT TRUDEAU INTL A,7025250,2012-04-19 01:00,2012,4,19,01:00,5.5,-2.7,55,6,25.0,101.42,Clear
434,-73.75,45.47,MONTREAL/PIERRE ELLIOTT TRUDEAU INTL A,7025250,2012-04-19 02:00,2012,4,19,02:00,3.3,-2.8,64,7,25.0,101.33,Clear
435,-73.75,45.47,MONTREAL/PIERRE ELLIOTT TRUDEAU INTL A,7025250,2012-04-19 03:00,2012,4,19,03:00,4.4,-3.3,57,4,25.0,101.28,Mainly Clear
436,-73.75,45.47,MONTREAL/PIERRE ELLIOTT TRUDEAU INTL A,7025250,2012-04-19 04:00,2012,4,19,04:00,3.4,-3.2,62,0,25.0,101.27,Mainly Clear
437,-73.75,45.47,MONTREAL/PIERRE ELLIOTT TRUDEAU INTL A,7025250,2012-04-19 05:00,2012,4,19,05:00,3.4,-2.9,63,4,24.1,101.25,Mainly Clear
438,-73.75,45.47,MONTREAL/PIERRE ELLIOTT TRUDEAU INTL A,7025250,2012-04-19 06:00,2012,4,19,06:00,4.7,-0.8,67,4,48.3,101.28,Mostly Cloudy
439,-73.75,45.47,MONTREAL/PIERRE ELLIOTT TRUDEAU INTL A,7025250,2012-04-19 07:00,2012,4,19,07:00,7.1,-0.4,59,4,48.3,101.24,Mostly Cloudy
440,-73.75,45.47,MONTREAL/PIERRE ELLIOTT TRUDEAU INTL A,7025250,2012-04-19 08:00,2012,4,19,08:00,8.6,-1.1,50,7,48.3,101.18,Mostly Cloudy
441,-73.75,45.47,MONTREAL/PIERRE ELLIOTT TRUDEAU INTL A,7025250,2012-04-19 09:00,2012,4,19,09:00,11.8,-0.5,43,7,48.3,101.14,Mainly Clear
442,-73.75,45.47,MONTREAL/PIERRE ELLIOTT TRUDEAU INTL A,7025250,2012-04-19 10:00,2012,4,19,10:00,14.0,-0.4,37,13,48.3,101.05,Mainly Clear
443,-73.75,45.47,MONTREAL/PIERRE ELLIOTT TRUDEAU INTL A,7025250,2012-04-19 11:00,2012,4,19,11:00,15.8,0.5,35,19,48.3,101.02,Mostly Cloudy
444,-73.75,45.47,MONTREAL/PIERRE ELLIOTT TRUDEAU INTL A,7025250,2012-04-19 12:00,2012,4,19,12:00,16.6,0.9,35,15,48.3,100.95,Mostly Cloudy
445,-73.75,45.47,MONTREAL/PIERRE ELLIOTT TRUDEAU INTL A,7025250,2012-04-19 13:00,2012,4,19,13:00,18.4,1.7,33,20,48.3,100.88,Mostly Cloudy
446,-73.75,45.47,MONTREAL/PIERRE ELLIOTT TRUDEAU INTL A,7025250,2012-04-19 14:00,2012,4,19,14:00,19.3,2.6,33,17,48.3,100.78,Mostly Cloudy
447,-73.75,45.47,MONTREAL/PIERRE ELLIOTT TRUDEAU INTL A,7025250,2012-04-19 15:00,2012,4,19,15:00,20.2,3.9,34,28,48.3,100.69,Mostly Cloudy
448,-73.75,45.47,MONTREAL/PIERRE ELLIOTT TRUDEAU INTL A,7025250,2012-04-19 16:00,2012,4,19,16:00,20.7,4.0,33,26,48.3,100.65,Mostly Cloudy
449,-73.75,45.47,MONTREAL/PIERRE ELLIOTT TRUDEAU INTL A,7025250,2012-04-19 17:00,2012,4,19,17:00,20.0,4.3,36,24,48.3,100.62,Mainly Clear
450,-73.75,45.47,MONTREAL/PIERRE ELLIOTT TRUDEAU INTL A,7025250,2012-04-19 18:00,2012,4,19,18:00,18.7,4.5,39,22,48.3,100.63,Mainly Clear
451,-73.75,45.47,MONTREAL/PIERRE ELLIOTT TRUDEAU INTL A,7025250,2012-04-19 19:00,2012,4,19,19:00,18.0,4.1,40,15,48.3,100.69,Mainly Clear
452,-73.75,45.47,MONTREAL/PIERRE ELLIOTT TRUDEAU INTL A,7025250,2012-04-19 20:00,2012,4,19,20:00,16.6,4.5,45,17,25.0,100.73,Mainly Clear
453,-73.75,45.47,MONTREAL/PIERRE ELLIOTT TRUDEAU INTL A,7025250,2012-04-19 21:00,2012,4,19,21:00,16.1,4.5,46,11,25.0,100.72,Clear
454,-73.75,45.47,MONTREAL/PIERRE ELLIOTT TRUDEAU INTL A,7025250,2012-04-19 22:00,2012,4,19,22:00,13.9,4.8,54,13,25.0,100.73,Mainly Clear
455,-73.75,45.47,MONTREAL/PIERRE ELLIOTT TRUDEAU INTL A,7025250,2012-04-19 23:00,2012,4,19,23:00,12.6,4.6,58,9,25.0,100.78,Mainly Clear
456,-73.75,45.47,MONTREAL/PIERRE ELLIOTT TRUDEAU INTL A,7025250,2012-04-20 00:00,2012,4,20,00:00,12.5,2.5,50,19,25.0,100.88,Mainly Clear
457,-73.75,45.47,MONTREAL/PIERRE ELLIOTT TRUDEAU INTL A,7025250,2012-04-20 01:00,2012,4,20,01:00,10.9,1.8,53,19,25.0,100.91,Clear
458,-73.75,45.47,MONTREAL/PIERRE ELLIOTT TRUDEAU INTL A,7025250,2012-04-20 02:00,2012,4,20,02:00,9.9,1.3,55,20,25.0,100.94,Mainly Clear
459,-73.75,45.47,MONTREAL/PIERRE ELLIOTT TRUDEAU INTL A,7025250,2012-04-20 03:00,2012,4,20,03:00,9.1,1.5,59,15,25.0,101.0,Mainly Clear
460,-73.75,45.47,MONTREAL/PIERRE ELLIOTT TRUDEAU INTL A,7025250,2012-04-20 04:00,2012,4,20,04:00,8.8,1.1,58,19,25.0,101.02,Mainly Clear
461,-73.75,45.47,MONTREAL/PIERRE ELLIOTT TRUDEAU INTL A,7025250,2012-04-20 05:00,2012,4,20,05:00,8.7,-0.6,52,22,25.0,101.04,Mostly Cloudy
462,-73.75,45.47,MONTREAL/PIERRE ELLIOTT TRUDEAU INTL A,7025250,2012-04-20 06:00,2012,4,20,06:00,7.8,-0.4,56,28,24.1,101.11,Mostly Cloudy
463,-73.75,45.47,MONTREAL/PIERRE ELLIOTT TRUDEAU INTL A,7025250,2012-04-20 07:00,2012,4,20,07:00,6.9,0.3,63,22,24.1,101.17,Rain Showers
464,-73.75,45.47,MONTREAL/PIERRE ELLIOTT TRUDEAU INTL A,7025250,2012-04-20 08:00,2012,4,20,08:00,6.1,1.4,72,26,24.1,101.12,Cloudy
465,-73.75,45.47,MONTREAL/PIERRE ELLIOTT TRUDEAU INTL A,7025250,2012-04-20 09:00,2012,4,20,09:00,6.3,1.4,71,19,48.3,101.13,Cloudy
466,-73.75,45.47,MONTREAL/PIERRE ELLIOTT TRUDEAU INTL A,7025250,2012-04-20 10:00,2012,4,20,10:00,6.6,1.6,70,24,24.1,101.07,Rain
467,-73.75,45.47,MONTREAL/PIERRE ELLIOTT TRUDEAU INTL A,7025250,2012-04-20 11:00,2012,4,20,11:00,6.9,1.0,66,20,24.1,101.06,Cloudy
468,-73.75,45.47,MONTREAL/PIERRE ELLIOTT TRUDEAU INTL A,7025250,2012-04-20 12:00,2012,4,20,12:00,7.2,1.7,68,26,24.1,100.98,Rain Showers
469,-73.75,45.47,MONTREAL/PIERRE ELLIOTT TRUDEAU INTL A,7025250,2012-04-20 13:00,2012,4,20,13:00,7.5,2.0,68,24,24.1,100.91,Rain Showers
470,-73.75,45.47,MONTREAL/PIERRE ELLIOTT TRUDEAU INTL A,7025250,2012-04-20 14:00,2012,4,20,14:00,9.6,3.2,64,24,24.1,100.8,Cloudy
471,-73.75,45.47,MONTREAL/PIERRE ELLIOTT TRUDEAU INTL A,7025250,2012-04-20 15:00,2012,4,20,15:00,9.5,3.0,64,24,24.1,100.7,Cloudy
472,-73.75,45.47,MONTREAL/PIERRE ELLIOTT TRUDEAU INTL A,7025250,2012-04-20 16:00,2012,4,20,16:00,8.4,2.9,68,33,24.1,100.67,Cloudy
473,-73.75,45.47,MONTREAL/PIERRE ELLIOTT TRUDEAU INTL A,7025250,2012-04-20 17:00,2012,4,20,17:00,7.8,2.6,70,26,24.1,100.59,Cloudy
474,-73.75,45.47,MONTREAL/PIERRE ELLIOTT TRUDEAU INTL A,7025250,2012-04-20 18:00,2012,4,20,18:00,7.4,2.9,73,28,24.1,100.54,Cloudy
475,-73.75,45.47,MONTREAL/PIERRE ELLIOTT TRUDEAU INTL A,7025250,2012-04-20 19:00,2012,4,20,19:00,7.0,3.2,77,26,24.1,100.5,Cloudy
476,-73.75,45.47,MONTREAL/PIERRE ELLIOTT TRUDEAU INTL A,7025250,2012-04-20 20:00,2012,4,20,20:00,6.9,3.5,79,24,25.0,100.46,Cloudy
477,-73.75,45.47,MONTREAL/PIERRE ELLIOTT TRUDEAU INTL A,7025250,2012-04-20 21:00,2012,4,20,21:00,6.6,3.5,81,17,25.0,100.35,Cloudy
478,-73.75,45.47,MONTREAL/PIERRE ELLIOTT TRUDEAU INTL A,7025250,2012-04-20 22:00,2012,4,20,22:00,6.5,3.4,81,17,25.0,100.32,Cloudy
479,-73.75,45.47,MONTREAL/PIERRE ELLIOTT TRUDEAU INTL A,7025250,2012-04-20 23:00,2012,4,20,23:00,6.6,3.5,81,20,25.0,100.27,Cloudy
480,-73.75,45.47,MONTREAL/PIERRE ELLIOTT TRUDEAU INTL A,7025250,2012-04-21 00:00,2012,4,21,00:00,6.3,3.7,83,19,25.0,100.18,Cloudy
481,-73.75,45.47,MONTREAL/PIERRE ELLIOTT TRUDEAU INTL A,7025250,2012-04-21 01:00,2012,4,21,01:00,6.4,4.0,85,15,25.0,100.13,Cloudy
482,-73.75,45.47,MONTREAL/PIERRE ELLIOTT TRUDEAU INTL A,7025250,2012-04-21 02:00,2012,4,21,02:00,5.7,3.5,86,19,25.0,100.21,Cloudy
483,-73.75,45.47,MONTREAL/PIERRE ELLIOTT TRUDEAU INTL A,7025250,2012-04-21 03:00,2012,4,21,03:00,5.5,3.3,86,20,25.0,100.21,Cloudy
484,-73.75,45.47,MONTREAL/PIERRE ELLIOTT TRUDEAU INTL A,7025250,2012-04-21 04:00,2012,4,21,04:00,5.7,3.4,85,13,25.0,100.2,Cloudy
485,-73.75,45.47,MONTREAL/PIERRE ELLIOTT TRUDEAU INTL A,7025250,2012-04-21 05:00,2012,4,21,05:00,6.0,3.5,84,7,25.0,100.32,Cloudy
486,-73.75,45.47,MONTREAL/PIERRE ELLIOTT TRUDEAU INTL A,7025250,2012-04-21 06:00,2012,4,21,06:00,6.2,3.4,82,15,25.0,100.36,Cloudy
487,-73.75,45.47,MONTREAL/PIERRE ELLIOTT TRUDEAU INTL A,7025250,2012-04-21 07:00,2012,4,21,07:00,6.4,3.3,81,17,25.0,100.38,Rain Showers
488,-73.75,45.47,MONTREAL/PIERRE ELLIOTT TRUDEAU INTL A,7025250,2012-04-21 08:00,2012,4,21,08:00,6.2,3.3,82,17,24.1,100.42,Cloudy
489,-73.75,45.47,MONTREAL/PIERRE ELLIOTT TRUDEAU INTL A,7025250,2012-04-21 09:00,2012,4,21,09:00,5.5,3.4,86,19,24.1,100.49,Rain Showers
490,-73.75,45.47,MONTREAL/PIERRE ELLIOTT TRUDEAU INTL A,7025250,2012-04-21 10:00,2012,4,21,10:00,5.5,3.3,86,17,9.7,100.53,"Rain,Fog"
491,-73.75,45.47,MONTREAL/PIERRE ELLIOTT TRUDEAU INTL A,7025250,2012-04-21 11:00,2012,4,21,11:00,5.6,3.5,86,11,12.9,100.59,Rain
492,-73.75,45.47,MONTREAL/PIERRE ELLIOTT TRUDEAU INTL A,7025250,2012-04-21 12:00,2012,4,21,12:00,5.5,3.3,86,15,9.7,100.61,"Rain,Fog"
493,-73.75,45.47,MONTREAL/PIERRE ELLIOTT TRUDEAU INTL A,7025250,2012-04-21 13:00,2012,4,21,13:00,6.1,3.7,85,19,24.1,100.65,Rain
494,-73.75,45.47,MONTREAL/PIERRE ELLIOTT TRUDEAU INTL A,7025250,2012-04-21 14:00,2012,4,21,14:00,6.1,3.9,86,19,16.1,100.69,Rain
495,-73.75,45.47,MONTREAL/PIERRE ELLIOTT TRUDEAU INTL A,7025250,2012-04-21 15:00,2012,4,21,15:00,5.7,3.3,85,17,16.1,100.73,Rain
496,-73.75,45.47,MONTREAL/PIERRE ELLIOTT TRUDEAU INTL A,7025250,2012-04-21 16:00,2012,4,21,16:00,5.3,2.5,82,19,16.1,100.8,Rain
497,-73.75,45.47,MONTREAL/PIERRE ELLIOTT TRUDEAU INTL A,7025250,2012-04-21 17:00,2012,4,21,17:00,4.8,2.6,86,17,16.1,100.84,Rain
498,-73.75,45.47,MONTREAL/PIERRE ELLIOTT TRUDEAU INTL A,7025250,2012-04-21 18:00,2012,4,21,18:00,3.8,1.6,86,24,16.1,100.96,Rain
499,-73.75,45.47,MONTREAL/PIERRE ELLIOTT TRUDEAU INTL A,7025250,2012-04-21 19:00,2012,4,21,19:00,3.4,1.0,84,20,19.3,100.96,Rain
500,-73.75,45.47,MONTREAL/PIERRE ELLIOTT TRUDEAU INTL A,7025250,2012-04-21 20:00,2012,4,21,20:00,2.6,0.5,86,24,16.1,101.06,Rain
501,-73.75,45.47,MONTREAL/PIERRE ELLIOTT TRUDEAU INTL A,7025250,2012-04-21 21:00,2012,4,21,21:00,2.6,0.3,85,26,25.0,101.06,Rain
502,-73.75,45.47,MONTREAL/PIERRE ELLIOTT TRUDEAU INTL A,7025250,2012-04-21 22:00,2012,4,21,22:00,1.9,-0.2,86,19,19.3,101.04,Rain
503,-73.75,45.47,MONTREAL/PIERRE ELLIOTT TRUDEAU INTL A,7025250,2012-04-21 23:00,2012,4,21,23:00,1.6,-0.3,87,13,25.0,101.08,Rain
504,-73.75,45.47,MONTREAL/PIERRE ELLIOTT TRUDEAU INTL A,7025250,2012-04-22 00:00,2012,4,22,00:00,1.5,-0.6,86,24,25.0,101.04,Rain
505,-73.75,45.47,MONTREAL/PIERRE ELLIOTT TRUDEAU INTL A,7025250,2012-04-22 01:00,2012,4,22,01:00,1.4,-0.5,87,17,25.0,101.06,"Rain,Snow"
506,-73.75,45.47,MONTREAL/PIERRE ELLIOTT TRUDEAU INTL A,7025250,2012-04-22 02:00,2012,4,22,02:00,0.6,-1.0,89,13,9.7,101.07,"Rain,Snow"
507,-73.75,45.47,MONTREAL/PIERRE ELLIOTT TRUDEAU INTL A,7025250,2012-04-22 03:00,2012,4,22,03:00,0.8,-0.8,89,15,25.0,101.05,"Rain,Snow"
508,-73.75,45.47,MONTREAL/PIERRE ELLIOTT TRUDEAU INTL A,7025250,2012-04-22 04:00,2012,4,22,04:00,1.2,-0.3,90,11,25.0,101.05,Rain
509,-73.75,45.47,MONTREAL/PIERRE ELLIOTT TRUDEAU INTL A,7025250,2012-04-22 05:00,2012,4,22,05:00,1.8,-0.3,86,19,25.0,101.06,Rain
510,-73.75,45.47,MONTREAL/PIERRE ELLIOTT TRUDEAU INTL A,7025250,2012-04-22 06:00,2012,4,22,06:00,1.9,-0.3,85,19,24.1,101.1,Cloudy
511,-73.75,45.47,MONTREAL/PIERRE ELLIOTT TRUDEAU INTL A,7025250,2012-04-22 07:00,2012,4,22,07:00,2.4,-0.5,81,20,24.1,101.17,Cloudy
512,-73.75,45.47,MONTREAL/PIERRE ELLIOTT TRUDEAU INTL A,7025250,2012-04-22 08:00,2012,4,22,08:00,2.8,-1.1,75,20,24.1,101.24,Cloudy
513,-73.75,45.47,MONTREAL/PIERRE ELLIOTT TRUDEAU INTL A,7025250,2012-04-22 09:00,2012,4,22,09:00,3.3,-1.0,73,28,24.1,101.27,Cloudy
514,-73.75,45.47,MONTREAL/PIERRE ELLIOTT TRUDEAU INTL A,7025250,2012-04-22 10:00,2012,4,22,10:00,4.0,-0.3,74,22,48.3,101.3,Cloudy
515,-73.75,45.47,MONTREAL/PIERRE ELLIOTT TRUDEAU INTL A,7025250,2012-04-22 11:00,2012,4,22,11:00,4.6,-0.2,71,22,48.3,101.24,Cloudy
516,-73.75,45.47,MONTREAL/PIERRE ELLIOTT TRUDEAU INTL A,7025250,2012-04-22 12:00,2012,4,22,12:00,5.0,-0.5,68,24,48.3,101.22,Cloudy
517,-73.75,45.47,MONTREAL/PIERRE ELLIOTT TRUDEAU INTL A,7025250,2012-04-22 13:00,2012,4,22,13:00,5.2,-0.4,67,20,48.3,101.3,Cloudy
518,-73.75,45.47,MONTREAL/PIERRE ELLIOTT TRUDEAU INTL A,7025250,2012-04-22 14:00,2012,4,22,14:00,5.9,-0.1,65,22,48.3,101.27,Cloudy
519,-73.75,45.47,MONTREAL/PIERRE ELLIOTT TRUDEAU INTL A,7025250,2012-04-22 15:00,2012,4,22,15:00,6.0,-0.6,63,28,48.3,101.2,Cloudy
520,-73.75,45.47,MONTREAL/PIERRE ELLIOTT TRUDEAU INTL A,7025250,2012-04-22 16:00,2012,4,22,16:00,6.4,0.0,64,22,48.3,101.2,Cloudy
521,-73.75,45.47,MONTREAL/PIERRE ELLIOTT TRUDEAU INTL A,7025250,2012-04-22 17:00,2012,4,22,17:00,6.3,-0.3,63,26,48.3,101.17,Cloudy
522,-73.75,45.47,MONTREAL/PIERRE ELLIOTT TRUDEAU INTL A,7025250,2012-04-22 18:00,2012,4,22,18:00,6.5,0.0,63,24,48.3,101.13,Cloudy
523,-73.75,45.47,MONTREAL/PIERRE ELLIOTT TRUDEAU INTL A,7025250,2012-04-22 19:00,2012,4,22,19:00,6.1,0.4,67,32,24.1,101.16,Cloudy
524,-73.75,45.47,MONTREAL/PIERRE ELLIOTT TRUDEAU INTL A,7025250,2012-04-22 20:00,2012,4,22,20:00,5.3,-0.6,66,32,25.0,101.19,Cloudy
525,-73.75,45.47,MONTREAL/PIERRE ELLIOTT TRUDEAU INTL A,7025250,2012-04-22 21:00,2012,4,22,21:00,4.3,-1.0,68,35,25.0,101.07,Rain
526,-73.75,45.47,MONTREAL/PIERRE ELLIOTT TRUDEAU INTL A,7025250,2012-04-22 22:00,2012,4,22,22:00,2.8,-1.1,75,32,25.0,101.05,Rain
527,-73.75,45.47,MONTREAL/PIERRE ELLIOTT TRUDEAU INTL A,7025250,2012-04-22 23:00,2012,4,22,23:00,2.0,-0.7,82,41,19.3,100.89,Rain
528,-73.75,45.47,MONTREAL/PIERRE ELLIOTT TRUDEAU INTL A,7025250,2012-04-23 00:00,2012,4,23,00:00,1.9,-0.8,82,46,19.3,100.73,Rain
529,-73.75,45.47,MONTREAL/PIERRE ELLIOTT TRUDEAU INTL A,7025250,2012-04-23 01:00,2012,4,23,01:00,1.1,-1.1,85,44,11.3,100.59,"Rain,Snow"
530,-73.75,45.47,MONTREAL/PIERRE ELLIOTT TRUDEAU INTL A,7025250,2012-04-23 02:00,2012,4,23,02:00,1.1,-1.1,85,44,25.0,100.32,"Rain,Snow"
531,-73.75,45.47,MONTREAL/PIERRE ELLIOTT TRUDEAU INTL A,7025250,2012-04-23 03:00,2012,4,23,03:00,1.7,-0.7,84,52,25.0,100.11,"Rain,Snow"
532,-73.75,45.47,MONTREAL/PIERRE ELLIOTT TRUDEAU INTL A,7025250,2012-04-23 04:00,2012,4,23,04:00,2.0,-0.7,82,44,25.0,99.82,Rain
533,-73.75,45.47,MONTREAL/PIERRE ELLIOTT TRUDEAU INTL A,7025250,2012-04-23 05:00,2012,4,23,05:00,1.9,-0.2,86,46,8.0,99.74,Rain
534,-73.75,45.47,MONTREAL/PIERRE ELLIOTT TRUDEAU INTL A,7025250,2012-04-23 06:00,2012,4,23,06:00,2.1,-0.3,84,52,16.1,99.66,Rain
535,-73.75,45.47,MONTREAL/PIERRE ELLIOTT TRUDEAU INTL A,7025250,2012-04-23 07:00,2012,4,23,07:00,2.3,-0.4,82,48,24.1,99.52,Rain
536,-73.75,45.47,MONTREAL/PIERRE ELLIOTT TRUDEAU INTL A,7025250,2012-04-23 08:00,2012,4,23,08:00,2.8,0.3,84,48,19.3,99.4,Rain
537,-73.75,45.47,MONTREAL/PIERRE ELLIOTT TRUDEAU INTL A,7025250,2012-04-23 09:00,2012,4,23,09:00,3.1,0.6,84,44,12.9,99.29,Rain
538,-73.75,45.47,MONTREAL/PIERRE ELLIOTT TRUDEAU INTL A,7025250,2012-04-23 10:00,2012,4,23,10:00,3.7,1.1,83,46,24.1,99.23,Cloudy
539,-73.75,45.47,MONTREAL/PIERRE ELLIOTT TRUDEAU INTL A,7025250,2012-04-23 11:00,2012,4,23,11:00,4.1,1.7,84,48,19.3,99.15,Cloudy
540,-73.75,45.47,MONTREAL/PIERRE ELLIOTT TRUDEAU INTL A,7025250,2012-04-23 12:00,2012,4,23,12:00,4.6,1.9,83,46,24.1,99.09,Cloudy
541,-73.75,45.47,MONTREAL/PIERRE ELLIOTT TRUDEAU INTL A,7025250,2012-04-23 13:00,2012,4,23,13:00,5.0,2.4,83,41,24.1,99.06,Cloudy
542,-73.75,45.47,MONTREAL/PIERRE ELLIOTT TRUDEAU INTL A,7025250,2012-04-23 14:00,2012,4,23,14:00,5.3,2.2,80,44,24.1,98.97,Cloudy
543,-73.75,45.47,MONTREAL/PIERRE ELLIOTT TRUDEAU INTL A,7025250,2012-04-23 15:00,2012,4,23,15:00,5.7,2.4,79,43,24.1,98.9,Cloudy
544,-73.75,45.47,MONTREAL/PIERRE ELLIOTT TRUDEAU INTL A,7025250,2012-04-23 16:00,2012,4,23,16:00,5.6,2.4,80,39,24.1,98.81,Cloudy
545,-73.75,45.47,MONTREAL/PIERRE ELLIOTT TRUDEAU INTL A,7025250,2012-04-23 17:00,2012,4,23,17:00,5.9,2.9,81,35,24.1,98.8,Cloudy
546,-73.75,45.47,MONTREAL/PIERRE ELLIOTT TRUDEAU INTL A,7025250,2012-04-23 18:00,2012,4,23,18:00,5.9,2.8,80,43,24.1,98.66,Cloudy
547,-73.75,45.47,MONTREAL/PIERRE ELLIOTT TRUDEAU INTL A,7025250,2012-04-23 19:00,2012,4,23,19:00,5.4,3.2,86,39,9.7,98.61,"Rain,Fog"
548,-73.75,45.47,MONTREAL/PIERRE ELLIOTT TRUDEAU INTL A,7025250,2012-04-23 20:00,2012,4,23,20:00,5.7,3.6,86,41,25.0,98.54,Cloudy
549,-73.75,45.47,MONTREAL/PIERRE ELLIOTT TRUDEAU INTL A,7025250,2012-04-23 21:00,2012,4,23,21:00,5.6,3.5,86,37,25.0,98.51,Rain
550,-73.75,45.47,MONTREAL/PIERRE ELLIOTT TRUDEAU INTL A,7025250,2012-04-23 22:00,2012,4,23,22:00,5.5,3.7,88,19,25.0,98.58,Cloudy
551,-73.75,45.47,MONTREAL/PIERRE ELLIOTT TRUDEAU INTL A,7025250,2012-04-23 23:00,2012,4,23,23:00,5.6,3.9,89,9,25.0,98.64,Cloudy
552,-73.75,45.47,MONTREAL/PIERRE ELLIOTT TRUDEAU INTL A,7025250,2012-04-24 00:00,2012,4,24,00:00,5.7,4.2,90,13,25.0,98.6,Cloudy
553,-73.75,45.47,MONTREAL/PIERRE ELLIOTT TRUDEAU INTL A,7025250,2012-04-24 01:00,2012,4,24,01:00,6.7,5.1,90,7,16.1,98.56,Cloudy
554,-73.75,45.47,MONTREAL/PIERRE ELLIOTT TRUDEAU INTL A,7025250,2012-04-24 02:00,2012,4,24,02:00,6.1,4.5,89,6,9.7,98.5,Fog
555,-73.75,45.47,MONTREAL/PIERRE ELLIOTT TRUDEAU INTL A,7025250,2012-04-24 03:00,2012,4,24,03:00,7.0,5.5,90,15,12.9,98.53,Cloudy
556,-73.75,45.47,MONTREAL/PIERRE ELLIOTT TRUDEAU INTL A,7025250,2012-04-24 04:00,2012,4,24,04:00,7.5,4.2,80,19,25.0,98.51,Rain Showers
557,-73.75,45.47,MONTREAL/PIERRE ELLIOTT TRUDEAU INTL A,7025250,2012-04-24 05:00,2012,4,24,05:00,7.1,3.1,76,19,24.1,98.47,Cloudy
558,-73.75,45.47,MONTREAL/PIERRE ELLIOTT TRUDEAU INTL A,7025250,2012-04-24 06:00,2012,4,24,06:00,6.8,3.4,79,19,19.3,98.51,Rain Showers
559,-73.75,45.47,MONTREAL/PIERRE ELLIOTT TRUDEAU INTL A,7025250,2012-04-24 07:00,2012,4,24,07:00,5.5,3.0,84,13,11.3,98.6,Rain Showers
560,-73.75,45.47,MONTREAL/PIERRE ELLIOTT TRUDEAU INTL A,7025250,2012-04-24 08:00,2012,4,24,08:00,6.6,3.7,82,13,24.1,98.63,Rain Showers
561,-73.75,45.47,MONTREAL/PIERRE ELLIOTT TRUDEAU INTL A,7025250,2012-04-24 09:00,2012,4,24,09:00,7.7,1.4,64,17,48.3,98.64,Mostly Cloudy
562,-73.75,45.47,MONTREAL/PIERRE ELLIOTT TRUDEAU INTL A,7025250,2012-04-24 10:00,2012,4,24,10:00,7.2,1.2,66,19,24.1,98.72,Rain Showers
563,-73.75,45.47,MONTREAL/PIERRE ELLIOTT TRUDEAU INTL A,7025250,2012-04-24 11:00,2012,4,24,11:00,8.8,1.2,59,26,24.1,98.78,Mostly Cloudy
564,-73.75,45.47,MONTREAL/PIERRE ELLIOTT TRUDEAU INTL A,7025250,2012-04-24 12:00,2012,4,24,12:00,8.9,3.6,69,17,24.1,98.82,Mostly Cloudy
565,-73.75,45.47,MONTREAL/PIERRE ELLIOTT TRUDEAU INTL A,7025250,2012-04-24 13:00,2012,4,24,13:00,8.0,1.2,62,24,24.1,98.9,Rain Showers
566,-73.75,45.47,MONTREAL/PIERRE ELLIOTT TRUDEAU INTL A,7025250,2012-04-24 14:00,2012,4,24,14:00,8.0,0.5,59,28,24.1,99.01,Cloudy
567,-73.75,45.47,MONTREAL/PIERRE ELLIOTT TRUDEAU INTL A,7025250,2012-04-24 15:00,2012,4,24,15:00,8.4,1.9,64,19,48.3,99.08,Cloudy
568,-73.75,45.47,MONTREAL/PIERRE ELLIOTT TRUDEAU INTL A,7025250,2012-04-24 16:00,2012,4,24,16:00,8.1,-0.3,55,32,48.3,99.19,Cloudy
569,-73.75,45.47,MONTREAL/PIERRE ELLIOTT TRUDEAU INTL A,7025250,2012-04-24 17:00,2012,4,24,17:00,8.0,0.4,59,28,48.3,99.26,Cloudy
570,-73.75,45.47,MONTREAL/PIERRE ELLIOTT TRUDEAU INTL A,7025250,2012-04-24 18:00,2012,4,24,18:00,7.7,0.4,60,20,48.3,99.3,Mostly Cloudy
571,-73.75,45.47,MONTREAL/PIERRE ELLIOTT TRUDEAU INTL A,7025250,2012-04-24 19:00,2012,4,24,19:00,7.1,0.1,61,19,24.1,99.37,Cloudy
572,-73.75,45.47,MONTREAL/PIERRE ELLIOTT TRUDEAU INTL A,7025250,2012-04-24 20:00,2012,4,24,20:00,6.9,0.0,61,28,25.0,99.45,Cloudy
573,-73.75,45.47,MONTREAL/PIERRE ELLIOTT TRUDEAU INTL A,7025250,2012-04-24 21:00,2012,4,24,21:00,6.6,-0.2,62,20,25.0,99.54,Cloudy
574,-73.75,45.47,MONTREAL/PIERRE ELLIOTT TRUDEAU INTL A,7025250,2012-04-24 22:00,2012,4,24,22:00,6.0,-0.9,61,24,25.0,99.56,Mostly Cloudy
575,-73.75,45.47,MONTREAL/PIERRE ELLIOTT TRUDEAU INTL A,7025250,2012-04-24 23:00,2012,4,24,23:00,5.4,-0.9,64,19,25.0,99.61,Mostly Cloudy
576,-73.75,45.47,MONTREAL/PIERRE ELLIOTT TRUDEAU INTL A,7025250,2012-04-25 00:00,2012,4,25,00:00,4.9,-0.6,68,19,25.0,99.67,Mostly Cloudy
577,-73.75,45.47,MONTREAL/PIERRE ELLIOTT TRUDEAU INTL A,7025250,2012-04-25 01:00,2012,4,25,01:00,5.5,-0.7,64,19,25.0,99.71,Mostly Cloudy
578,-73.75,45.47,MONTREAL/PIERRE ELLIOTT TRUDEAU INTL A,7025250,2012-04-25 02:00,2012,4,25,02:00,4.5,-0.2,71,13,25.0,99.74,Mostly Cloudy
579,-73.75,45.47,MONTREAL/PIERRE ELLIOTT TRUDEAU INTL A,7025250,2012-04-25 03:00,2012,4,25,03:00,4.4,-0.3,71,15,25.0,99.77,Mostly Cloudy
580,-73.75,45.47,MONTREAL/PIERRE ELLIOTT TRUDEAU INTL A,7025250,2012-04-25 04:00,2012,4,25,04:00,4.8,-0.3,70,15,25.0,99.8,Mostly Cloudy
581,-73.75,45.47,MONTREAL/PIERRE ELLIOTT TRUDEAU INTL A,7025250,2012-04-25 05:00,2012,4,25,05:00,4.5,0.0,73,13,24.1,99.84,Mostly Cloudy
582,-73.75,45.47,MONTREAL/PIERRE ELLIOTT TRUDEAU INTL A,7025250,2012-04-25 06:00,2012,4,25,06:00,5.2,0.1,70,20,24.1,99.93,Rain Showers
583,-73.75,45.47,MONTREAL/PIERRE ELLIOTT TRUDEAU INTL A,7025250,2012-04-25 07:00,2012,4,25,07:00,5.5,0.6,71,19,19.3,100.01,Rain Showers
584,-73.75,45.47,MONTREAL/PIERRE ELLIOTT TRUDEAU INTL A,7025250,2012-04-25 08:00,2012,4,25,08:00,4.9,1.5,79,19,24.1,100.08,Rain
585,-73.75,45.47,MONTREAL/PIERRE ELLIOTT TRUDEAU INTL A,7025250,2012-04-25 09:00,2012,4,25,09:00,5.1,2.9,86,15,24.1,100.15,Rain
586,-73.75,45.47,MONTREAL/PIERRE ELLIOTT TRUDEAU INTL A,7025250,2012-04-25 10:00,2012,4,25,10:00,6.1,2.9,80,9,24.1,100.22,Rain
587,-73.75,45.47,MONTREAL/PIERRE ELLIOTT TRUDEAU INTL A,7025250,2012-04-25 11:00,2012,4,25,11:00,7.8,2.7,70,17,48.3,100.23,Mostly Cloudy
588,-73.75,45.47,MONTREAL/PIERRE ELLIOTT TRUDEAU INTL A,7025250,2012-04-25 12:00,2012,4,25,12:00,8.0,1.9,65,20,48.3,100.26,Mostly Cloudy
589,-73.75,45.47,MONTREAL/PIERRE ELLIOTT TRUDEAU INTL A,7025250,2012-04-25 13:00,2012,4,25,13:00,8.7,0.1,55,20,48.3,100.29,Mostly Cloudy
590,-73.75,45.47,MONTREAL/PIERRE ELLIOTT TRUDEAU INTL A,7025250,2012-04-25 14:00,2012,4,25,14:00,9.8,1.7,57,19,24.1,100.31,Mostly Cloudy
591,-73.75,45.47,MONTREAL/PIERRE ELLIOTT TRUDEAU INTL A,7025250,2012-04-25 15:00,2012,4,25,15:00,7.7,0.5,60,15,24.1,100.38,Rain Showers
592,-73.75,45.47,MONTREAL/PIERRE ELLIOTT TRUDEAU INTL A,7025250,2012-04-25 16:00,2012,4,25,16:00,8.8,-1.5,48,17,24.1,100.41,Mostly Cloudy
593,-73.75,45.47,MONTREAL/PIERRE ELLIOTT TRUDEAU INTL A,7025250,2012-04-25 17:00,2012,4,25,17:00,8.8,-1.5,48,22,48.3,100.45,Mostly Cloudy
594,-73.75,45.47,MONTREAL/PIERRE ELLIOTT TRUDEAU INTL A,7025250,2012-04-25 18:00,2012,4,25,18:00,8.0,-1.9,50,22,48.3,100.5,Mostly Cloudy
595,-73.75,45.47,MONTREAL/PIERRE ELLIOTT TRUDEAU INTL A,7025250,2012-04-25 19:00,2012,4,25,19:00,7.3,0.1,60,17,24.1,100.56,Mostly Cloudy
596,-73.75,45.47,MONTREAL/PIERRE ELLIOTT TRUDEAU INTL A,7025250,2012-04-25 20:00,2012,4,25,20:00,7.3,-0.2,59,17,25.0,100.61,Mostly Cloudy
597,-73.75,45.47,MONTREAL/PIERRE ELLIOTT TRUDEAU INTL A,7025250,2012-04-25 21:00,2012,4,25,21:00,7.0,0.0,61,13,25.0,100.67,Mostly Cloudy
598,-73.75,45.47,MONTREAL/PIERRE ELLIOTT TRUDEAU INTL A,7025250,2012-04-25 22:00,2012,4,25,22:00,6.2,0.2,65,9,25.0,100.69,Mostly Cloudy
599,-73.75,45.47,MONTREAL/PIERRE ELLIOTT TRUDEAU INTL A,7025250,2012-04-25 23:00,2012,4,25,23:00,6.0,0.2,66,9,25.0,100.69,Cloudy
600,-73.75,45.47,MONTREAL/PIERRE ELLIOTT TRUDEAU INTL A,7025250,2012-04-26 00:00,2012,4,26,00:00,5.8,0.9,71,7,25.0,100.68,Mostly Cloudy
601,-73.75,45.47,MONTREAL/PIERRE ELLIOTT TRUDEAU INTL A,7025250,2012-04-26 01:00,2012,4,26,01:00,4.9,0.2,72,9,25.0,100.67,Mainly Clear
602,-73.75,45.47,MONTREAL/PIERRE ELLIOTT TRUDEAU INTL A,7025250,2012-04-26 02:00,2012,4,26,02:00,3.7,-0.5,74,7,25.0,100.67,Mainly Clear
603,-73.75,45.47,MONTREAL/PIERRE ELLIOTT TRUDEAU INTL A,7025250,2012-04-26 03:00,2012,4,26,03:00,3.5,-0.6,74,11,25.0,100.66,Clear
604,-73.75,45.47,MONTREAL/PIERRE ELLIOTT TRUDEAU INTL A,7025250,2012-04-26 04:00,2012,4,26,04:00,2.7,-1.5,74,7,25.0,100.66,Clear
605,-73.75,45.47,MONTREAL/PIERRE ELLIOTT TRUDEAU INTL A,7025250,2012-04-26 05:00,2012,4,26,05:00,2.6,-1.3,75,9,24.1,100.69,Clear
606,-73.75,45.47,MONTREAL/PIERRE ELLIOTT TRUDEAU INTL A,7025250,2012-04-26 06:00,2012,4,26,06:00,3.2,-0.6,76,4,48.3,100.71,Clear
607,-73.75,45.47,MONTREAL/PIERRE ELLIOTT TRUDEAU INTL A,7025250,2012-04-26 07:00,2012,4,26,07:00,5.5,0.9,72,7,48.3,100.72,Mostly Cloudy
608,-73.75,45.47,MONTREAL/PIERRE ELLIOTT TRUDEAU INTL A,7025250,2012-04-26 08:00,2012,4,26,08:00,6.2,0.8,68,7,48.3,100.72,Cloudy
609,-73.75,45.47,MONTREAL/PIERRE ELLIOTT TRUDEAU INTL A,7025250,2012-04-26 09:00,2012,4,26,09:00,6.9,-0.3,60,7,48.3,100.65,Cloudy
610,-73.75,45.47,MONTREAL/PIERRE ELLIOTT TRUDEAU INTL A,7025250,2012-04-26 10:00,2012,4,26,10:00,8.8,0.3,55,11,48.3,100.6,Mostly Cloudy
611,-73.75,45.47,MONTREAL/PIERRE ELLIOTT TRUDEAU INTL A,7025250,2012-04-26 11:00,2012,4,26,11:00,9.6,0.3,52,7,48.3,100.49,Cloudy
612,-73.75,45.47,MONTREAL/PIERRE ELLIOTT TRUDEAU INTL A,7025250,2012-04-26 12:00,2012,4,26,12:00,9.8,0.5,52,13,48.3,100.39,Cloudy
613,-73.75,45.47,MONTREAL/PIERRE ELLIOTT TRUDEAU INTL A,7025250,2012-04-26 13:00,2012,4,26,13:00,10.3,0.8,52,13,48.3,100.24,Cloudy
614,-73.75,45.47,MONTREAL/PIERRE ELLIOTT TRUDEAU INTL A,7025250,2012-04-26 14:00,2012,4,26,14:00,11.0,-0.4,45,17,24.1,100.08,Cloudy
615,-73.75,45.47,MONTREAL/PIERRE ELLIOTT TRUDEAU INTL A,7025250,2012-04-26 15:00,2012,4,26,15:00,11.2,-0.6,44,19,48.3,99.98,Cloudy
616,-73.75,45.47,MONTREAL/PIERRE ELLIOTT TRUDEAU INTL A,7025250,2012-04-26 16:00,2012,4,26,16:00,11.4,-0.6,43,19,24.1,99.84,Cloudy
617,-73.75,45.47,MONTREAL/PIERRE ELLIOTT TRUDEAU INTL A,7025250,2012-04-26 17:00,2012,4,26,17:00,11.0,1.3,51,15,19.3,99.8,Rain
618,-73.75,45.47,MONTREAL/PIERRE ELLIOTT TRUDEAU INTL A,7025250,2012-04-26 18:00,2012,4,26,18:00,8.6,5.4,80,19,19.3,99.72,Rain
619,-73.75,45.47,MONTREAL/PIERRE ELLIOTT TRUDEAU INTL A,7025250,2012-04-26 19:00,2012,4,26,19:00,8.3,5.6,83,15,19.3,99.7,Rain
620,-73.75,45.47,MONTREAL/PIERRE ELLIOTT TRUDEAU INTL A,7025250,2012-04-26 20:00,2012,4,26,20:00,8.1,5.8,85,7,25.0,99.69,Rain
621,-73.75,45.47,MONTREAL/PIERRE ELLIOTT TRUDEAU INTL A,7025250,2012-04-26 21:00,2012,4,26,21:00,8.0,6.2,88,9,9.7,99.67,"Rain,Fog"
622,-73.75,45.47,MONTREAL/PIERRE ELLIOTT TRUDEAU INTL A,7025250,2012-04-26 22:00,2012,4,26,22:00,7.6,5.8,88,6,9.7,99.61,"Drizzle,Fog"
623,-73.75,45.47,MONTREAL/PIERRE ELLIOTT TRUDEAU INTL A,7025250,2012-04-26 23:00,2012,4,26,23:00,6.9,5.3,90,13,9.7,99.59,"Rain,Fog"
624,-73.75,45.47,MONTREAL/PIERRE ELLIOTT TRUDEAU INTL A,7025250,2012-04-27 00:00,2012,4,27,00:00,5.8,4.1,89,22,9.7,99.67,"Rain,Fog"
625,-73.75,45.47,MONTREAL/PIERRE ELLIOTT TRUDEAU INTL A,7025250,2012-04-27 01:00,2012,4,27,01:00,4.8,2.6,86,15,25.0,99.74,Rain
626,-73.75,45.47,MONTREAL/PIERRE ELLIOTT TRUDEAU INTL A,7025250,2012-04-27 02:00,2012,4,27,02:00,4.7,2.8,87,15,25.0,99.79,Rain
627,-73.75,45.47,MONTREAL/PIERRE ELLIOTT TRUDEAU INTL A,7025250,2012-04-27 03:00,2012,4,27,03:00,4.4,1.8,83,22,25.0,99.87,Mostly Cloudy
628,-73.75,45.47,MONTREAL/PIERRE ELLIOTT TRUDEAU INTL A,7025250,2012-04-27 04:00,2012,4,27,04:00,4.2,1.0,80,24,25.0,99.94,Mostly Cloudy
629,-73.75,45.47,MONTREAL/PIERRE ELLIOTT TRUDEAU INTL A,7025250,2012-04-27 05:00,2012,4,27,05:00,3.3,-0.6,76,26,24.1,100.03,Rain Showers
630,-73.75,45.47,MONTREAL/PIERRE ELLIOTT TRUDEAU INTL A,7025250,2012-04-27 06:00,2012,4,27,06:00,2.5,-1.7,74,28,24.1,100.16,Mostly Cloudy
631,-73.75,45.47,MONTREAL/PIERRE ELLIOTT TRUDEAU INTL A,7025250,2012-04-27 07:00,2012,4,27,07:00,1.8,-2.9,71,32,12.9,100.25,Snow
632,-73.75,45.47,MONTREAL/PIERRE ELLIOTT TRUDEAU INTL A,7025250,2012-04-27 08:00,2012,4,27,08:00,2.3,-2.7,69,26,24.1,100.33,Snow
633,-73.75,45.47,MONTREAL/PIERRE ELLIOTT TRUDEAU INTL A,7025250,2012-04-27 09:00,2012,4,27,09:00,2.7,-3.2,65,32,24.1,100.4,Snow
634,-73.75,45.47,MONTREAL/PIERRE ELLIOTT TRUDEAU INTL A,7025250,2012-04-27 10:00,2012,4,27,10:00,3.7,-3.1,61,30,24.1,100.48,Snow
635,-73.75,45.47,MONTREAL/PIERRE ELLIOTT TRUDEAU INTL A,7025250,2012-04-27 11:00,2012,4,27,11:00,3.0,-3.7,61,30,24.1,100.58,Cloudy
636,-73.75,45.47,MONTREAL/PIERRE ELLIOTT TRUDEAU INTL A,7025250,2012-04-27 12:00,2012,4,27,12:00,2.7,-4.1,61,35,24.1,100.65,Snow
637,-73.75,45.47,MONTREAL/PIERRE ELLIOTT TRUDEAU INTL A,7025250,2012-04-27 13:00,2012,4,27,13:00,2.7,-5.0,57,37,24.1,100.76,Cloudy
638,-73.75,45.47,MONTREAL/PIERRE ELLIOTT TRUDEAU INTL A,7025250,2012-04-27 14:00,2012,4,27,14:00,1.9,-5.3,59,37,24.1,100.86,Cloudy
639,-73.75,45.47,MONTREAL/PIERRE ELLIOTT TRUDEAU INTL A,7025250,2012-04-27 15:00,2012,4,27,15:00,2.5,-5.1,57,30,24.1,100.92,Cloudy
640,-73.75,45.47,MONTREAL/PIERRE ELLIOTT TRUDEAU INTL A,7025250,2012-04-27 16:00,2012,4,27,16:00,2.1,-5.9,55,30,24.1,100.97,Cloudy
641,-73.75,45.47,MONTREAL/PIERRE ELLIOTT TRUDEAU INTL A,7025250,2012-04-27 17:00,2012,4,27,17:00,1.7,-6.3,55,33,24.1,101.09,Cloudy
642,-73.75,45.47,MONTREAL/PIERRE ELLIOTT TRUDEAU INTL A,7025250,2012-04-27 18:00,2012,4,27,18:00,1.0,-7.2,54,28,24.1,101.18,Cloudy
643,-73.75,45.47,MONTREAL/PIERRE ELLIOTT TRUDEAU INTL A,7025250,2012-04-27 19:00,2012,4,27,19:00,0.7,-7.7,53,22,24.1,101.25,Cloudy
644,-73.75,45.47,MONTREAL/PIERRE ELLIOTT TRUDEAU INTL A,7025250,2012-04-27 20:00,2012,4,27,20:00,0.5,-7.2,56,24,25.0,101.36,Cloudy
645,-73.75,45.47,MONTREAL/PIERRE ELLIOTT TRUDEAU INTL A,7025250,2012-04-27 21:00,2012,4,27,21:00,0.2,-7.1,58,19,25.0,101.42,Cloudy
646,-73.75,45.47,MONTREAL/PIERRE ELLIOTT TRUDEAU INTL A,7025250,2012-04-27 22:00,2012,4,27,22:00,0.2,-7.8,55,20,25.0,101.47,Cloudy
647,-73.75,45.47,MONTREAL/PIERRE ELLIOTT TRUDEAU INTL A,7025250,2012-04-27 23:00,2012,4,27,23:00,0.3,-7.7,55,17,25.0,101.5,Cloudy
648,-73.75,45.47,MONTREAL/PIERRE ELLIOTT TRUDEAU INTL A,7025250,2012-04-28 00:00,2012,4,28,00:00,0.2,-7.4,57,17,25.0,101.52,Cloudy
649,-73.75,45.47,MONTREAL/PIERRE ELLIOTT TRUDEAU INTL A,7025250,2012-04-28 01:00,2012,4,28,01:00,-0.2,-8.2,55,19,25.0,101.51,Cloudy
650,-73.75,45.47,MONTREAL/PIERRE ELLIOTT TRUDEAU INTL A,7025250,2012-04-28 02:00,2012,4,28,02:00,-0.4,-8.1,56,22,25.0,101.5,Cloudy
651,-73.75,45.47,MONTREAL/PIERRE ELLIOTT TRUDEAU INTL A,7025250,2012-04-28 03:00,2012,4,28,03:00,-0.8,-9.1,53,17,25.0,101.54,Cloudy
652,-73.75,45.47,MONTREAL/PIERRE ELLIOTT TRUDEAU INTL A,7025250,2012-04-28 04:00,2012,4,28,04:00,-1.3,-9.8,52,24,25.0,101.6,Cloudy
653,-73.75,45.47,MONTREAL/PIERRE ELLIOTT TRUDEAU INTL A,7025250,2012-04-28 05:00,2012,4,28,05:00,-1.5,-9.6,54,26,24.1,101.67,Cloudy
654,-73.75,45.47,MONTREAL/PIERRE ELLIOTT TRUDEAU INTL A,7025250,2012-04-28 06:00,2012,4,28,06:00,-2.1,-10.7,52,22,48.3,101.74,Mainly Clear
655,-73.75,45.47,MONTREAL/PIERRE ELLIOTT TRUDEAU INTL A,7025250,2012-04-28 07:00,2012,4,28,07:00,-1.3,-10.0,52,30,48.3,101.75,Mainly Clear
656,-73.75,45.47,MONTREAL/PIERRE ELLIOTT TRUDEAU INTL A,7025250,2012-04-28 08:00,2012,4,28,08:00,-0.4,-10.0,48,24,48.3,101.78,Mainly Clear
657,-73.75,45.47,MONTREAL/PIERRE ELLIOTT TRUDEAU INTL A,7025250,2012-04-28 09:00,2012,4,28,09:00,0.6,-9.7,46,32,48.3,101.79,Mainly Clear
658,-73.75,45.47,MONTREAL/PIERRE ELLIOTT TRUDEAU INTL A,7025250,2012-04-28 10:00,2012,4,28,10:00,2.0,-7.4,50,28,48.3,101.73,Mainly Clear
659,-73.75,45.47,MONTREAL/PIERRE ELLIOTT TRUDEAU INTL A,7025250,2012-04-28 11:00,2012,4,28,11:00,3.9,-9.9,36,24,48.3,101.71,Mainly Clear
660,-73.75,45.47,MONTREAL/PIERRE ELLIOTT TRUDEAU INTL A,7025250,2012-04-28 12:00,2012,4,28,12:00,5.0,-9.7,34,30,48.3,101.68,Mainly Clear
661,-73.75,45.47,MONTREAL/PIERRE ELLIOTT TRUDEAU INTL A,7025250,2012-04-28 13:00,2012,4,28,13:00,5.4,-11.1,29,32,48.3,101.62,Mainly Clear
662,-73.75,45.47,MONTREAL/PIERRE ELLIOTT TRUDEAU INTL A,7025250,2012-04-28 14:00,2012,4,28,14:00,6.4,-10.7,28,24,48.3,101.57,Mainly Clear
663,-73.75,45.47,MONTREAL/PIERRE ELLIOTT TRUDEAU INTL A,7025250,2012-04-28 15:00,2012,4,28,15:00,7.2,-10.5,27,35,48.3,101.5,Mainly Clear
664,-73.75,45.47,MONTREAL/PIERRE ELLIOTT TRUDEAU INTL A,7025250,2012-04-28 16:00,2012,4,28,16:00,7.4,-11.0,26,30,48.3,101.46,Mainly Clear
665,-73.75,45.47,MONTREAL/PIERRE ELLIOTT TRUDEAU INTL A,7025250,2012-04-28 17:00,2012,4,28,17:00,7.7,-11.2,25,28,48.3,101.45,Mainly Clear
666,-73.75,45.47,MONTREAL/PIERRE ELLIOTT TRUDEAU INTL A,7025250,2012-04-28 18:00,2012,4,28,18:00,7.2,-11.3,25,24,48.3,101.43,Clear
667,-73.75,45.47,MONTREAL/PIERRE ELLIOTT TRUDEAU INTL A,7025250,2012-04-28 19:00,2012,4,28,19:00,6.1,-11.4,27,19,48.3,101.46,Clear
668,-73.75,45.47,MONTREAL/PIERRE ELLIOTT TRUDEAU INTL A,7025250,2012-04-28 20:00,2012,4,28,20:00,4.1,-10.2,34,11,25.0,101.51,Mainly Clear
669,-73.75,45.47,MONTREAL/PIERRE ELLIOTT TRUDEAU INTL A,7025250,2012-04-28 21:00,2012,4,28,21:00,2.3,-9.7,41,11,25.0,101.55,Clear
670,-73.75,45.47,MONTREAL/PIERRE ELLIOTT TRUDEAU INTL A,7025250,2012-04-28 22:00,2012,4,28,22:00,1.9,-9.9,41,9,25.0,101.56,Mostly Cloudy
671,-73.75,45.47,MONTREAL/PIERRE ELLIOTT TRUDEAU INTL A,7025250,2012-04-28 23:00,2012,4,28,23:00,0.8,-9.1,47,6,25.0,101.55,Mostly Cloudy
672,-73.75,45.47,MONTREAL/PIERRE ELLIOTT TRUDEAU INTL A,7025250,2012-04-29 00:00,2012,4,29,00:00,0.8,-8.8,49,7,25.0,101.52,Cloudy
673,-73.75,45.47,MONTREAL/PIERRE ELLIOTT TRUDEAU INTL A,7025250,2012-04-29 01:00,2012,4,29,01:00,1.3,-8.7,47,11,25.0,101.49,Mainly Clear
674,-73.75,45.47,MONTREAL/PIERRE ELLIOTT TRUDEAU INTL A,7025250,2012-04-29 02:00,2012,4,29,02:00,1.3,-7.5,52,11,25.0,101.49,Mainly Clear
675,-73.75,45.47,MONTREAL/PIERRE ELLIOTT TRUDEAU INTL A,7025250,2012-04-29 03:00,2012,4,29,03:00,0.8,-7.8,53,13,25.0,101.47,Mostly Cloudy
676,-73.75,45.47,MONTREAL/PIERRE ELLIOTT TRUDEAU INTL A,7025250,2012-04-29 04:00,2012,4,29,04:00,-0.1,-7.7,57,9,25.0,101.48,Mainly Clear
677,-73.75,45.47,MONTREAL/PIERRE ELLIOTT TRUDEAU INTL A,7025250,2012-04-29 05:00,2012,4,29,05:00,0.9,-10.5,42,19,48.3,101.52,Mostly Cloudy
678,-73.75,45.47,MONTREAL/PIERRE ELLIOTT TRUDEAU INTL A,7025250,2012-04-29 06:00,2012,4,29,06:00,1.2,-11.4,38,20,48.3,101.58,Mostly Cloudy
679,-73.75,45.47,MONTREAL/PIERRE ELLIOTT TRUDEAU INTL A,7025250,2012-04-29 07:00,2012,4,29,07:00,1.8,-11.9,35,26,48.3,101.64,Mostly Cloudy
680,-73.75,45.47,MONTREAL/PIERRE ELLIOTT TRUDEAU INTL A,7025250,2012-04-29 08:00,2012,4,29,08:00,2.6,-11.7,34,19,48.3,101.65,Mostly Cloudy
681,-73.75,45.47,MONTREAL/PIERRE ELLIOTT TRUDEAU INTL A,7025250,2012-04-29 09:00,2012,4,29,09:00,4.3,-11.7,30,19,48.3,101.64,Mainly Clear
682,-73.75,45.47,MONTREAL/PIERRE ELLIOTT TRUDEAU INTL A,7025250,2012-04-29 10:00,2012,4,29,10:00,5.5,-11.4,28,26,48.3,101.67,Clear
683,-73.75,45.47,MONTREAL/PIERRE ELLIOTT TRUDEAU INTL A,7025250,2012-04-29 11:00,2012,4,29,11:00,6.2,-11.6,27,24,48.3,101.62,Clear
684,-73.75,45.47,MONTREAL/PIERRE ELLIOTT TRUDEAU INTL A,7025250,2012-04-29 12:00,2012,4,29,12:00,7.4,-10.5,27,24,48.3,101.62,Clear
685,-73.75,45.47,MONTREAL/PIERRE ELLIOTT TRUDEAU INTL A,7025250,2012-04-29 13:00,2012,4,29,13:00,8.4,-11.1,24,32,48.3,101.64,Clear
686,-73.75,45.47,MONTREAL/PIERRE ELLIOTT TRUDEAU INTL A,7025250,2012-04-29 14:00,2012,4,29,14:00,8.7,-11.7,22,22,48.3,101.65,Clear
687,-73.75,45.47,MONTREAL/PIERRE ELLIOTT TRUDEAU INTL A,7025250,2012-04-29 15:00,2012,4,29,15:00,9.0,-12.0,21,32,48.3,101.63,Clear
688,-73.75,45.47,MONTREAL/PIERRE ELLIOTT TRUDEAU INTL A,7025250,2012-04-29 16:00,2012,4,29,16:00,9.2,-11.8,21,28,48.3,101.66,Mainly Clear
689,-73.75,45.47,MONTREAL/PIERRE ELLIOTT TRUDEAU INTL A,7025250,2012-04-29 17:00,2012,4,29,17:00,9.0,-11.5,22,30,48.3,101.72,Clear
690,-73.75,45.47,MONTREAL/PIERRE ELLIOTT TRUDEAU INTL A,7025250,2012-04-29 18:00,2012,4,29,18:00,8.1,-11.9,23,28,48.3,101.77,Clear
691,-73.75,45.47,MONTREAL/PIERRE ELLIOTT TRUDEAU INTL A,7025250,2012-04-29 19:00,2012,4,29,19:00,6.9,-11.7,25,20,48.3,101.82,Clear
692,-73.75,45.47,MONTREAL/PIERRE ELLIOTT TRUDEAU INTL A,7025250,2012-04-29 20:00,2012,4,29,20:00,6.3,-11.4,27,15,25.0,101.93,Mainly Clear
693,-73.75,45.47,MONTREAL/PIERRE ELLIOTT TRUDEAU INTL A,7025250,2012-04-29 21:00,2012,4,29,21:00,5.4,-11.0,29,19,25.0,102.01,Mainly Clear
694,-73.75,45.47,MONTREAL/PIERRE ELLIOTT TRUDEAU INTL A,7025250,2012-04-29 22:00,2012,4,29,22:00,5.1,-10.7,31,15,25.0,102.05,Clear
695,-73.75,45.47,MONTREAL/PIERRE ELLIOTT TRUDEAU INTL A,7025250,2012-04-29 23:00,2012,4,29,23:00,4.1,-10.3,34,13,25.0,102.09,Clear
696,-73.75,45.47,MONTREAL/PIERRE ELLIOTT TRUDEAU INTL A,7025250,2012-04-30 00:00,2012,4,30,00:00,3.3,-10.3,36,9,25.0,102.06,Clear
697,-73.75,45.47,MONTREAL/PIERRE ELLIOTT TRUDEAU INTL A,7025250,2012-04-30 01:00,2012,4,30,01:00,2.2,-9.7,41,6,25.0,102.12,Clear
698,-73.75,45.47,MONTREAL/PIERRE ELLIOTT TRUDEAU INTL A,7025250,2012-04-30 02:00,2012,4,30,02:00,3.2,-10.4,36,0,25.0,102.09,Clear
699,-73.75,45.47,MONTREAL/PIERRE ELLIOTT TRUDEAU INTL A,7025250,2012-04-30 03:00,2012,4,30,03:00,2.4,-9.2,42,0,25.0,102.09,Clear
700,-73.75,45.47,MONTREAL/PIERRE ELLIOTT TRUDEAU INTL A,7025250,2012-04-30 04:00,2012,4,30,04:00,0.7,-9.0,48,4,25.0,102.14,Clear
701,-73.75,45.47,MONTREAL/PIERRE ELLIOTT TRUDEAU INTL A,7025250,2012-04-30 05:00,2012,4,30,05:00,-0.7,-6.9,63,4,48.3,102.23,Mainly Clear
702,-73.75,45.47,MONTREAL/PIERRE ELLIOTT TRUDEAU INTL A,7025250,2012-04-30 06:00,2012,4,30,06:00,3.0,-4.3,59,0,48.3,102.33,Mainly Clear
703,-73.75,45.47,MONTREAL/PIERRE ELLIOTT TRUDEAU INTL A,7025250,2012-04-30 07:00,2012,4,30,07:00,6.0,-7.3,38,0,48.3,102.37,Mainly Clear
704,-73.75,45.47,MONTREAL/PIERRE ELLIOTT TRUDEAU INTL A,7025250,2012-04-30 08:00,2012,4,30,08:00,6.6,-6.3,39,11,48.3,102.41,Mostly Cloudy
705,-73.75,45.47,MONTREAL/PIERRE ELLIOTT TRUDEAU INTL A,7025250,2012-04-30 09:00,2012,4,30,09:00,7.2,-6.4,37,7,48.3,102.31,Mostly Cloudy
706,-73.75,45.47,MONTREAL/PIERRE ELLIOTT TRUDEAU INTL A,7025250,2012-04-30 10:00,2012,4,30,10:00,7.6,-6.7,35,7,48.3,102.31,Mostly Cloudy
707,-73.75,45.47,MONTREAL/PIERRE ELLIOTT TRUDEAU INTL A,7025250,2012-04-30 11:00,2012,4,30,11:00,9.3,-5.2,35,0,48.3,102.2,Mostly Cloudy
708,-73.75,45.47,MONTREAL/PIERRE ELLIOTT TRUDEAU INTL A,7025250,2012-04-30 12:00,2012,4,30,12:00,10.1,-3.2,39,6,48.3,102.15,Mostly Cloudy
709,-73.75,45.47,MONTREAL/PIERRE ELLIOTT TRUDEAU INTL A,7025250,2012-04-30 13:00,2012,4,30,13:00,12.4,-4.3,31,11,48.3,102.01,Mostly Cloudy
710,-73.75,45.47,MONTREAL/PIERRE ELLIOTT TRUDEAU INTL A,7025250,2012-04-30 14:00,2012,4,30,14:00,12.4,-3.2,34,7,48.3,101.93,Mostly Cloudy
711,-73.75,45.47,MONTREAL/PIERRE ELLIOTT TRUDEAU INTL A,7025250,2012-04-30 15:00,2012,4,30,15:00,12.5,-4.2,31,15,48.3,101.83,Mostly Cloudy
712,-73.75,45.47,MONTREAL/PIERRE ELLIOTT TRUDEAU INTL A,7025250,2012-04-30 16:00,2012,4,30,16:00,12.9,-3.8,31,9,48.3,101.79,Mostly Cloudy
713,-73.75,45.47,MONTREAL/PIERRE ELLIOTT TRUDEAU INTL A,7025250,2012-04-30 17:00,2012,4,30,17:00,12.7,-4.5,30,9,24.1,101.73,Cloudy
714,-73.75,45.47,MONTREAL/PIERRE ELLIOTT TRUDEAU INTL A,7025250,2012-04-30 18:00,2012,4,30,18:00,12.5,-4.0,31,13,25.0,101.68,Cloudy
715,-73.75,45.47,MONTREAL/PIERRE ELLIOTT TRUDEAU INTL A,7025250,2012-04-30 19:00,2012,4,30,19:00,12.2,-3.6,33,11,25.0,101.6,Cloudy
716,-73.75,45.47,MONTREAL/PIERRE ELLIOTT TRUDEAU INTL A,7025250,2012-04-30 20:00,2012,4,30,20:00,12.1,-2.9,35,11,25.0,101.53,Cloudy
717,-73.75,45.47,MONTREAL/PIERRE ELLIOTT TRUDEAU INTL A,7025250,2012-04-30 21:00,2012,4,30,21:00,12.2,-3.7,33,13,25.0,101.49,Cloudy
718,-73.75,45.47,MONTREAL/PIERRE ELLIOTT TRUDEAU INTL A,7025250,2012-04-30 22:00,2012,4,30,22:00,12.0,-3.2,34,11,25.0,101.47,Cloudy
719,-73.75,45.47,MONTREAL/PIERRE ELLIOTT TRUDEAU INTL A,7025250,2012-04-30 23:00,2012,4,30,23:00,11.1,-2.0,40,6,25.0,101.45,Cloudy
